{
  "type": "FeatureCollection",
  "features": [
    {
      "type": "Feature",
      "properties": {
        "geo_id": "geo_ph_0027",
        "name": "Siquijor",
        "psgc": "1806100000",
        "boundary_level": "province",
        "source_psgc": "0706100000"
      },
      "geometry": {
        "type": "Polygon",
        "coordinates": [
          [
            [
              123.61239589600007,
              9.30092853700006
            ],
            [
              123.60305823300008,
              9.300876666000024
            ],
            [
              123.59600830400008,
              9.28674508900002
            ],
            [
              123.59654061700009,
              9.264693435000027
            ],
            [
              123.58732183100005,
              9.248234164000053
            ],
            [
              123.57528579800011,
              9.24584201700003
            ],
            [
              123.562371041,
              9.228097714000056
            ],
            [
              123.55044993000001,
              9.223954151000042
            ],
            [
              123.52418640000008,
              9.225730687000064
            ],
            [
              123.51087693800004,
              9.214235908000033
            ],
            [
              123.49177686500002,
              9.214980999000034
            ],
            [
              123.48571140800004,
              9.219664971000041
            ],
            [
              123.47061691300007,
              9.224323464000062
            ],
            [
              123.46506807800007,
              9.214292188000059
            ],
            [
              123.45928256700007,
              9.21107210900004
            ],
            [
              123.46063676800009,
              9.197662094000066
            ],
            [
              123.45245190600009,
              9.192668848000036
            ],
            [
              123.45610420000004,
              9.182807139000033
            ],
            [
              123.46480565300011,
              9.175434653000025
            ],
            [
              123.47207277600013,
              9.17467208500005
            ],
            [
              123.48558397000012,
              9.16498992900006
            ],
            [
              123.50077488700005,
              9.149350634000028
            ],
            [
              123.51466282900005,
              9.13771124300007
            ],
            [
              123.5222119120001,
              9.135819294000044
            ],
            [
              123.53369479400011,
              9.127411932000028
            ],
            [
              123.54295757400008,
              9.115679808000037
            ],
            [
              123.55140887000005,
              9.114847222000039
            ],
            [
              123.55962346600008,
              9.101145716000076
            ],
            [
              123.57262349700011,
              9.101411423000059
            ],
            [
              123.58708359100002,
              9.095770904000064
            ],
            [
              123.60580333700011,
              9.097007872000063
            ],
            [
              123.62370653700009,
              9.10264064300003
            ],
            [
              123.62555108300012,
              9.113185952000038
            ],
            [
              123.63486766100006,
              9.12385421500005
            ],
            [
              123.65110998500005,
              9.123144978000028
            ],
            [
              123.65720282000007,
              9.115143119000038
            ],
            [
              123.66813999500006,
              9.115957839000032
            ],
            [
              123.6763118460001,
              9.123050568000052
            ],
            [
              123.6812755860001,
              9.121173439000074
            ],
            [
              123.69365002000006,
              9.12974621400002
            ],
            [
              123.701962578,
              9.144879168000045
            ],
            [
              123.69932304200007,
              9.157529774000066
            ],
            [
              123.68472592100011,
              9.161131677000071
            ],
            [
              123.67431245600007,
              9.160350495000046
            ],
            [
              123.66402615000003,
              9.171854622000067
            ],
            [
              123.65632237700002,
              9.192040467000027
            ],
            [
              123.66065306000007,
              9.203090145000031
            ],
            [
              123.66907731300012,
              9.21217857600004
            ],
            [
              123.68540247900012,
              9.213047114000062
            ],
            [
              123.68666246900011,
              9.221334869000032
            ],
            [
              123.66663240500009,
              9.230982790000043
            ],
            [
              123.65634958700002,
              9.245063333000076
            ],
            [
              123.65459832400006,
              9.258606875000053
            ],
            [
              123.644777814,
              9.28193417700004
            ],
            [
              123.632842911,
              9.29514301000006
            ],
            [
              123.62314232000006,
              9.300774431000034
            ],
            [
              123.61239589600007,
              9.30092853700006
            ]
          ]
        ]
      }
    }
  ]
}
