{
  "type": "FeatureCollection",
  "features": [
    {
      "type": "Feature",
      "properties": {
        "geo_id": "geo_ph_0037",
        "name": "Bohol Island",
        "component": "main island",
        "source_geo_id": "geo_ph_0022",
        "source_psgc": "0701200000",
        "source_boundary_level": "province-derived physical island"
      },
      "geometry": {
        "type": "Polygon",
        "coordinates": [
          [
            [
              124.28993463000008,
              10.173635970000023
            ],
            [
              124.28866332300005,
              10.163531359000048
            ],
            [
              124.28087175700011,
              10.155106568000065
            ],
            [
              124.25487563400009,
              10.157639190000053
            ],
            [
              124.23722014500004,
              10.162145719000023
            ],
            [
              124.20785306800008,
              10.161005524000075
            ],
            [
              124.1978430920001,
              10.14935603200007
            ],
            [
              124.19088338700011,
              10.152202611000062
            ],
            [
              124.17824475300004,
              10.145780441000053
            ],
            [
              124.16301743300006,
              10.153030544000043
            ],
            [
              124.15295755900001,
              10.15384682900003
            ],
            [
              124.14750504200003,
              10.14923360900002
            ],
            [
              124.14289141800009,
              10.135399036000024
            ],
            [
              124.13321092300008,
              10.122519191000038
            ],
            [
              124.13751098600005,
              10.112217148000068
            ],
            [
              124.11838449900006,
              10.092806717000029
            ],
            [
              124.10808211300004,
              10.087049218000063
            ],
            [
              124.09630899400008,
              10.07616950000005
            ],
            [
              124.09680547700007,
              10.064511338000042
            ],
            [
              124.08597194400012,
              10.06235381700003
            ],
            [
              124.08228301800011,
              10.073497166000038
            ],
            [
              124.06226921300005,
              10.067498070000056
            ],
            [
              124.05623539500004,
              10.032339996000076
            ],
            [
              124.04389501900005,
              9.993615773000045
            ],
            [
              124.04412268900013,
              9.98789057300007
            ],
            [
              124.02750532800007,
              9.967241104000037
            ],
            [
              124.01352543100006,
              9.964548602000034
            ],
            [
              123.98430230100007,
              9.964072886000055
            ],
            [
              123.96075534300009,
              9.951262796000037
            ],
            [
              123.95173855000007,
              9.942906483000058
            ],
            [
              123.93162872900008,
              9.934202386000038
            ],
            [
              123.91185421800003,
              9.93279438500002
            ],
            [
              123.90328387300008,
              9.924117616000045
            ],
            [
              123.9013357440001,
              9.916493158000035
            ],
            [
              123.89107988800005,
              9.911827529000046
            ],
            [
              123.88332572000002,
              9.920497511000063
            ],
            [
              123.86670826500007,
              9.910778740000067
            ],
            [
              123.87316362900002,
              9.895134622000056
            ],
            [
              123.85403828800008,
              9.88846030600007
            ],
            [
              123.84888562800006,
              9.880631592000043
            ],
            [
              123.83984759200007,
              9.875780201000055
            ],
            [
              123.81876292800008,
              9.847188190000052
            ],
            [
              123.80637473900005,
              9.84179829200002
            ],
            [
              123.80451027400011,
              9.83152381600007
            ],
            [
              123.79805896800008,
              9.825924935000046
            ],
            [
              123.78980554700001,
              9.805085421000056
            ],
            [
              123.78282095400004,
              9.771551344000041
            ],
            [
              123.7874646150001,
              9.739125933000023
            ],
            [
              123.80083941900011,
              9.733104024000058
            ],
            [
              123.82491767700003,
              9.738045543000053
            ],
            [
              123.83229749000007,
              9.741804325000032
            ],
            [
              123.84027107300005,
              9.739486140000054
            ],
            [
              123.85453820900011,
              9.71931081100007
            ],
            [
              123.86346826300007,
              9.715361745000052
            ],
            [
              123.85606257800009,
              9.698905969000066
            ],
            [
              123.85643646400001,
              9.691125070000055
            ],
            [
              123.84399302400006,
              9.667256902000076
            ],
            [
              123.84419571600006,
              9.662397293000025
            ],
            [
              123.85464910200005,
              9.637559059000068
            ],
            [
              123.86605340000007,
              9.633495432000075
            ],
            [
              123.87187666000013,
              9.627618822000043
            ],
            [
              123.9173387410001,
              9.62149858200007
            ],
            [
              123.94177466100007,
              9.611134659000072
            ],
            [
              123.96969755700003,
              9.600954176000073
            ],
            [
              123.97426920700002,
              9.60572592600005
            ],
            [
              123.98239301300009,
              9.59800436700004
            ],
            [
              123.99908814900006,
              9.604482376000021
            ],
            [
              124.00306005700008,
              9.597549474000063
            ],
            [
              124.03719892900006,
              9.592938765000042
            ],
            [
              124.05501290300005,
              9.58935870600004
            ],
            [
              124.08475201100009,
              9.58771296100002
            ],
            [
              124.10498909800003,
              9.590027331000043
            ],
            [
              124.12908758700009,
              9.598965591000026
            ],
            [
              124.14421379300008,
              9.598670904000072
            ],
            [
              124.16658576500004,
              9.606899739000026
            ],
            [
              124.1910160750001,
              9.610044386000025
            ],
            [
              124.219980125,
              9.60404298700007
            ],
            [
              124.23173539400011,
              9.598811933000034
            ],
            [
              124.26014032300009,
              9.598795538000045
            ],
            [
              124.2694475850001,
              9.60340988200005
            ],
            [
              124.28401415400003,
              9.604618532000075
            ],
            [
              124.2904489120001,
              9.61015374400006
            ],
            [
              124.30745520000006,
              9.61604350400006
            ],
            [
              124.3138643190001,
              9.622270453000056
            ],
            [
              124.32963497600008,
              9.623370331000046
            ],
            [
              124.35876932600003,
              9.62979027700004
            ],
            [
              124.36081421300003,
              9.638917828000046
            ],
            [
              124.36866293300012,
              9.650625782000075
            ],
            [
              124.39899260800009,
              9.652581916000033
            ],
            [
              124.40143948900004,
              9.65721273300005
            ],
            [
              124.40111778300003,
              9.691819365000072
            ],
            [
              124.40893390000008,
              9.710928386000031
            ],
            [
              124.42708303100007,
              9.721075998000062
            ],
            [
              124.44563678200007,
              9.72080910500006
            ],
            [
              124.47442024500002,
              9.748298263000038
            ],
            [
              124.48448919900011,
              9.760939703000078
            ],
            [
              124.496855276,
              9.762549893000026
            ],
            [
              124.50476995600003,
              9.733650010000074
            ],
            [
              124.51405618600006,
              9.722875233000025
            ],
            [
              124.57134214100007,
              9.732418237000047
            ],
            [
              124.57716553800003,
              9.744875154000054
            ],
            [
              124.59278702600011,
              9.756087292000073
            ],
            [
              124.59538365600008,
              9.76650573300003
            ],
            [
              124.59248530000004,
              9.790587985000059
            ],
            [
              124.59354920400007,
              9.801236314000048
            ],
            [
              124.59073793200002,
              9.811160848000041
            ],
            [
              124.57564427300008,
              9.809489724000057
            ],
            [
              124.55611641200005,
              9.820543637000071
            ],
            [
              124.55755286600004,
              9.827655150000055
            ],
            [
              124.54757774000007,
              9.831272482000031
            ],
            [
              124.54656041000011,
              9.838127748000032
            ],
            [
              124.52234715800012,
              9.844510999000022
            ],
            [
              124.51670171200008,
              9.855686199000045
            ],
            [
              124.52881812900011,
              9.858035237000024
            ],
            [
              124.55074316700006,
              9.87229610500003
            ],
            [
              124.56039280400012,
              9.873348144000031
            ],
            [
              124.57011084200009,
              9.885656192000054
            ],
            [
              124.56882671000005,
              9.90706184600003
            ],
            [
              124.57564894800011,
              9.910303872000044
            ],
            [
              124.56083395100008,
              9.920255739000025
            ],
            [
              124.53922020800006,
              9.920076091000055
            ],
            [
              124.5379456390001,
              9.925652566000053
            ],
            [
              124.55114356200009,
              9.928837378000024
            ],
            [
              124.54953975300009,
              9.939947889000049
            ],
            [
              124.54384604500002,
              9.949223761000042
            ],
            [
              124.55216509000003,
              9.951904817000072
            ],
            [
              124.55064182200012,
              9.968833509000035
            ],
            [
              124.54367953800012,
              9.972288016000046
            ],
            [
              124.5492568860001,
              9.98371680400004
            ],
            [
              124.55899155500005,
              9.985749975000031
            ],
            [
              124.55776335400003,
              9.972914943000035
            ],
            [
              124.57005105600001,
              9.976500892000047
            ],
            [
              124.56891912200001,
              9.996703717000058
            ],
            [
              124.56131574700011,
              10.000124897000035
            ],
            [
              124.56035392700005,
              10.009331647000069
            ],
            [
              124.55300035800008,
              10.013076398000067
            ],
            [
              124.55458491200011,
              10.027850760000034
            ],
            [
              124.54571895700008,
              10.032982832000071
            ],
            [
              124.54697681300001,
              10.040945973000023
            ],
            [
              124.53277406000007,
              10.042548705000058
            ],
            [
              124.52244484800008,
              10.055967766000037
            ],
            [
              124.51448876100005,
              10.070278443000063
            ],
            [
              124.50470373600001,
              10.076171072000022
            ],
            [
              124.50070941800004,
              10.06405339300005
            ],
            [
              124.48154309000006,
              10.055847803000063
            ],
            [
              124.46342213000003,
              10.062480729000072
            ],
            [
              124.44138984800009,
              10.084905563000062
            ],
            [
              124.4208285320001,
              10.091372456000045
            ],
            [
              124.41590327600012,
              10.101773840000021
            ],
            [
              124.38932836700008,
              10.106622183000068
            ],
            [
              124.39323507800009,
              10.124357043000032
            ],
            [
              124.39175966700009,
              10.130628708000073
            ],
            [
              124.3796786050001,
              10.137959368000054
            ],
            [
              124.37414260800007,
              10.150631937000073
            ],
            [
              124.36703078600011,
              10.153393782000023
            ],
            [
              124.36239796000007,
              10.135542269000041
            ],
            [
              124.35498914000003,
              10.128245817000048
            ],
            [
              124.34023918200012,
              10.126811664000058
            ],
            [
              124.341708949,
              10.138076806000072
            ],
            [
              124.31389333600008,
              10.165284181000063
            ],
            [
              124.29867242100012,
              10.164934101000025
            ],
            [
              124.28993463000008,
              10.173635970000023
            ]
          ]
        ]
      }
    }
  ]
}
