{
  "type": "FeatureCollection",
  "features": [
    {
      "type": "Feature",
      "properties": {
        "geo_id": "geo_ph_0046",
        "name": "Batanes expedition",
        "component": "Batanes Protected Area — RA 8991 statutory boundary",
        "source_boundary_level": "protected_area",
        "source_datum": "not stated in RA 8991",
        "stored_crs": "WGS84 / EPSG:4326",
        "coordinate_handling": "statutory geographic DMS plotted directly as approximate navigation geometry; not survey-grade"
      },
      "geometry": {
        "type": "Polygon",
        "coordinates": [
          [
            [
              121.943611,
              21.185833
            ],
            [
              122.006667,
              21.155278
            ],
            [
              122.021111,
              21.116111
            ],
            [
              121.996389,
              21.053611
            ],
            [
              121.984167,
              21.021667
            ],
            [
              121.971111,
              20.978056
            ],
            [
              121.974722,
              20.905
            ],
            [
              121.959167,
              20.856111
            ],
            [
              121.948611,
              20.8225
            ],
            [
              121.950556,
              20.793611
            ],
            [
              121.952222,
              20.773611
            ],
            [
              121.988889,
              20.744167
            ],
            [
              122.005,
              20.696667
            ],
            [
              122.100556,
              20.466667
            ],
            [
              122.026667,
              20.4125
            ],
            [
              122.045833,
              20.383611
            ],
            [
              122.026111,
              20.351389
            ],
            [
              122.012222,
              20.329722
            ],
            [
              121.990278,
              20.301111
            ],
            [
              121.955556,
              20.3025
            ],
            [
              121.931667,
              20.264722
            ],
            [
              121.916667,
              20.226667
            ],
            [
              121.860278,
              20.198889
            ],
            [
              121.802778,
              20.224167
            ],
            [
              121.768056,
              20.247222
            ],
            [
              121.741944,
              20.280833
            ],
            [
              121.729722,
              20.310278
            ],
            [
              121.708889,
              20.336389
            ],
            [
              121.724444,
              20.378333
            ],
            [
              121.78,
              20.403056
            ],
            [
              121.807222,
              20.400556
            ],
            [
              121.8125,
              20.414444
            ],
            [
              121.845278,
              20.420556
            ],
            [
              121.8575,
              20.411667
            ],
            [
              121.893611,
              20.441944
            ],
            [
              121.8875,
              20.469444
            ],
            [
              121.921944,
              20.520833
            ],
            [
              121.729722,
              20.6725
            ],
            [
              121.714722,
              20.721111
            ],
            [
              121.7475,
              20.770556
            ],
            [
              121.766667,
              20.825833
            ],
            [
              121.809167,
              20.886667
            ],
            [
              121.829444,
              20.906667
            ],
            [
              121.838056,
              20.928611
            ],
            [
              121.848333,
              20.955278
            ],
            [
              121.873056,
              20.985833
            ],
            [
              121.878056,
              21.019722
            ],
            [
              121.857778,
              21.065278
            ],
            [
              121.876389,
              21.121667
            ],
            [
              121.894444,
              21.165833
            ],
            [
              121.943611,
              21.185833
            ]
          ]
        ]
      }
    }
  ]
}
