{
  "type": "FeatureCollection",
  "features": [
    {
      "type": "Feature",
      "properties": {
        "geo_id": "geo_ph_0062",
        "name": "Bacolod",
        "psgc": "1830200000",
        "boundary_level": "huc",
        "component": "Alangilan",
        "source_correspondence_code": "184501000"
      },
      "geometry": {
        "type": "Polygon",
        "coordinates": [
          [
            [
              123.07511590500008,
              10.64529576700005
            ],
            [
              123.07157809600005,
              10.664251640000032
            ],
            [
              123.05715206900004,
              10.679668832000061
            ],
            [
              123.07731667400003,
              10.669864669000049
            ],
            [
              123.13347901100008,
              10.664317787000073
            ],
            [
              123.13451760600003,
              10.656614649000062
            ],
            [
              123.07511590500008,
              10.64529576700005
            ]
          ]
        ]
      }
    },
    {
      "type": "Feature",
      "properties": {
        "geo_id": "geo_ph_0062",
        "name": "Bacolod",
        "psgc": "1830200000",
        "boundary_level": "huc",
        "component": "Alijis",
        "source_correspondence_code": "184501000"
      },
      "geometry": {
        "type": "Polygon",
        "coordinates": [
          [
            [
              122.96352923000006,
              10.642239110000048
            ],
            [
              122.96225052200009,
              10.625645578000046
            ],
            [
              122.93923317000008,
              10.641093725000076
            ],
            [
              122.94250451200003,
              10.646238759000028
            ],
            [
              122.96352923000006,
              10.642239110000048
            ]
          ]
        ]
      }
    },
    {
      "type": "Feature",
      "properties": {
        "geo_id": "geo_ph_0062",
        "name": "Bacolod",
        "psgc": "1830200000",
        "boundary_level": "huc",
        "component": "Barangay 10 (Pob.)",
        "source_correspondence_code": "184501000"
      },
      "geometry": {
        "type": "Polygon",
        "coordinates": [
          [
            [
              122.94887670300011,
              10.67256696000004
            ],
            [
              122.94876175400009,
              10.67230732400003
            ],
            [
              122.94835545900003,
              10.671427893000043
            ],
            [
              122.94162488200004,
              10.675097257000061
            ],
            [
              122.94252945700009,
              10.67896394500002
            ],
            [
              122.94887670300011,
              10.67256696000004
            ]
          ]
        ]
      }
    },
    {
      "type": "Feature",
      "properties": {
        "geo_id": "geo_ph_0062",
        "name": "Bacolod",
        "psgc": "1830200000",
        "boundary_level": "huc",
        "component": "Barangay 11 (Pob.)",
        "source_correspondence_code": "184501000"
      },
      "geometry": {
        "type": "Polygon",
        "coordinates": [
          [
            [
              122.94923929100003,
              10.67041034600004
            ],
            [
              122.94606793200012,
              10.670201397000028
            ],
            [
              122.94835545900003,
              10.671427893000043
            ],
            [
              122.94876175400009,
              10.67230732400003
            ],
            [
              122.94923929100003,
              10.67041034600004
            ]
          ]
        ]
      }
    },
    {
      "type": "Feature",
      "properties": {
        "geo_id": "geo_ph_0062",
        "name": "Bacolod",
        "psgc": "1830200000",
        "boundary_level": "huc",
        "component": "Barangay 12 (Pob.)",
        "source_correspondence_code": "184501000"
      },
      "geometry": {
        "type": "Polygon",
        "coordinates": [
          [
            [
              122.94835545900003,
              10.671427893000043
            ],
            [
              122.94606793200012,
              10.670201397000028
            ],
            [
              122.94819818600001,
              10.667826343000058
            ],
            [
              122.9477331380001,
              10.66669134500006
            ],
            [
              122.93962871300005,
              10.670269182000027
            ],
            [
              122.94162488200004,
              10.675097257000061
            ],
            [
              122.94835545900003,
              10.671427893000043
            ]
          ]
        ]
      }
    },
    {
      "type": "Feature",
      "properties": {
        "geo_id": "geo_ph_0062",
        "name": "Bacolod",
        "psgc": "1830200000",
        "boundary_level": "huc",
        "component": "Barangay 13 (Pob.)",
        "source_correspondence_code": "184501000"
      },
      "geometry": {
        "type": "Polygon",
        "coordinates": [
          [
            [
              122.9477331380001,
              10.66669134500006
            ],
            [
              122.94705118000002,
              10.664967152000031
            ],
            [
              122.94474611600003,
              10.666144003000056
            ],
            [
              122.94066499100006,
              10.667461858000024
            ],
            [
              122.9388251580001,
              10.669059031000074
            ],
            [
              122.93962871300005,
              10.670269182000027
            ],
            [
              122.9477331380001,
              10.66669134500006
            ]
          ]
        ]
      }
    },
    {
      "type": "Feature",
      "properties": {
        "geo_id": "geo_ph_0062",
        "name": "Bacolod",
        "psgc": "1830200000",
        "boundary_level": "huc",
        "component": "Barangay 14 (Pob.)",
        "source_correspondence_code": "184501000"
      },
      "geometry": {
        "type": "Polygon",
        "coordinates": [
          [
            [
              122.94474611600003,
              10.666144003000056
            ],
            [
              122.94402229900004,
              10.664743980000026
            ],
            [
              122.94066499100006,
              10.667461858000024
            ],
            [
              122.94474611600003,
              10.666144003000056
            ]
          ]
        ]
      }
    },
    {
      "type": "Feature",
      "properties": {
        "geo_id": "geo_ph_0062",
        "name": "Bacolod",
        "psgc": "1830200000",
        "boundary_level": "huc",
        "component": "Barangay 15 (Pob.)",
        "source_correspondence_code": "184501000"
      },
      "geometry": {
        "type": "Polygon",
        "coordinates": [
          [
            [
              122.94705118000002,
              10.664967152000031
            ],
            [
              122.94650155300008,
              10.663663186000065
            ],
            [
              122.94402229900004,
              10.664743980000026
            ],
            [
              122.94474611600003,
              10.666144003000056
            ],
            [
              122.94705118000002,
              10.664967152000031
            ]
          ]
        ]
      }
    },
    {
      "type": "Feature",
      "properties": {
        "geo_id": "geo_ph_0062",
        "name": "Bacolod",
        "psgc": "1830200000",
        "boundary_level": "huc",
        "component": "Barangay 16 (Pob.)",
        "source_correspondence_code": "184501000"
      },
      "geometry": {
        "type": "Polygon",
        "coordinates": [
          [
            [
              122.94066499100006,
              10.667461858000024
            ],
            [
              122.94402229900004,
              10.664743980000026
            ],
            [
              122.94340793800006,
              10.663568481000027
            ],
            [
              122.93938033900008,
              10.663775802000032
            ],
            [
              122.9373480060001,
              10.664831180000022
            ],
            [
              122.93543898300004,
              10.66891567600004
            ],
            [
              122.93870707700012,
              10.669051140000022
            ],
            [
              122.93882185300004,
              10.669056413000021
            ],
            [
              122.9388251580001,
              10.669059031000074
            ],
            [
              122.94066499100006,
              10.667461858000024
            ]
          ]
        ]
      }
    },
    {
      "type": "Feature",
      "properties": {
        "geo_id": "geo_ph_0062",
        "name": "Bacolod",
        "psgc": "1830200000",
        "boundary_level": "huc",
        "component": "Barangay 17 (Pob.)",
        "source_correspondence_code": "184501000"
      },
      "geometry": {
        "type": "Polygon",
        "coordinates": [
          [
            [
              122.95792124900004,
              10.673535525000034
            ],
            [
              122.95564338600002,
              10.669397506000053
            ],
            [
              122.9549212390001,
              10.669701016000033
            ],
            [
              122.95160987600002,
              10.672655105000047
            ],
            [
              122.95281644500005,
              10.675581038000075
            ],
            [
              122.95792124900004,
              10.673535525000034
            ]
          ]
        ]
      }
    },
    {
      "type": "Feature",
      "properties": {
        "geo_id": "geo_ph_0062",
        "name": "Bacolod",
        "psgc": "1830200000",
        "boundary_level": "huc",
        "component": "Barangay 18 (Pob.)",
        "source_correspondence_code": "184501000"
      },
      "geometry": {
        "type": "Polygon",
        "coordinates": [
          [
            [
              122.9549212390001,
              10.669701016000033
            ],
            [
              122.95106733700004,
              10.67133450800003
            ],
            [
              122.95160987600002,
              10.672655105000047
            ],
            [
              122.9549212390001,
              10.669701016000033
            ]
          ]
        ]
      }
    },
    {
      "type": "Feature",
      "properties": {
        "geo_id": "geo_ph_0062",
        "name": "Bacolod",
        "psgc": "1830200000",
        "boundary_level": "huc",
        "component": "Barangay 19 (Pob.)",
        "source_correspondence_code": "184501000"
      },
      "geometry": {
        "type": "Polygon",
        "coordinates": [
          [
            [
              122.9549212390001,
              10.669701016000033
            ],
            [
              122.95564338600002,
              10.669397506000053
            ],
            [
              122.95506362600008,
              10.668028554000045
            ],
            [
              122.9504456200001,
              10.669821985000056
            ],
            [
              122.95106733700004,
              10.67133450800003
            ],
            [
              122.9549212390001,
              10.669701016000033
            ]
          ]
        ]
      }
    },
    {
      "type": "Feature",
      "properties": {
        "geo_id": "geo_ph_0062",
        "name": "Bacolod",
        "psgc": "1830200000",
        "boundary_level": "huc",
        "component": "Barangay 20 (Pob.)",
        "source_correspondence_code": "184501000"
      },
      "geometry": {
        "type": "Polygon",
        "coordinates": [
          [
            [
              122.95796012900007,
              10.666986518000044
            ],
            [
              122.95793964500001,
              10.666939218000039
            ],
            [
              122.95506362600008,
              10.668028554000045
            ],
            [
              122.95564338600002,
              10.669397506000053
            ],
            [
              122.95796012900007,
              10.666986518000044
            ]
          ]
        ]
      }
    },
    {
      "type": "Feature",
      "properties": {
        "geo_id": "geo_ph_0062",
        "name": "Bacolod",
        "psgc": "1830200000",
        "boundary_level": "huc",
        "component": "Barangay 21 (Pob.)",
        "source_correspondence_code": "184501000"
      },
      "geometry": {
        "type": "Polygon",
        "coordinates": [
          [
            [
              122.9504456200001,
              10.669821985000056
            ],
            [
              122.94990470000005,
              10.668491751000033
            ],
            [
              122.94819818600001,
              10.667826343000058
            ],
            [
              122.94606793200012,
              10.670201397000028
            ],
            [
              122.94923929100003,
              10.67041034600004
            ],
            [
              122.9504456200001,
              10.669821985000056
            ]
          ]
        ]
      }
    },
    {
      "type": "Feature",
      "properties": {
        "geo_id": "geo_ph_0062",
        "name": "Bacolod",
        "psgc": "1830200000",
        "boundary_level": "huc",
        "component": "Barangay 22 (Pob.)",
        "source_correspondence_code": "184501000"
      },
      "geometry": {
        "type": "Polygon",
        "coordinates": [
          [
            [
              122.95506362600008,
              10.668028554000045
            ],
            [
              122.95443929900011,
              10.66651094100007
            ],
            [
              122.95242998600008,
              10.667387567000048
            ],
            [
              122.94990470000005,
              10.668491751000033
            ],
            [
              122.9504456200001,
              10.669821985000056
            ],
            [
              122.95506362600008,
              10.668028554000045
            ]
          ]
        ]
      }
    },
    {
      "type": "Feature",
      "properties": {
        "geo_id": "geo_ph_0062",
        "name": "Bacolod",
        "psgc": "1830200000",
        "boundary_level": "huc",
        "component": "Barangay 23 (Pob.)",
        "source_correspondence_code": "184501000"
      },
      "geometry": {
        "type": "Polygon",
        "coordinates": [
          [
            [
              122.95793964500001,
              10.666939218000039
            ],
            [
              122.95721353600004,
              10.665254054000059
            ],
            [
              122.95443929900011,
              10.66651094100007
            ],
            [
              122.95506362600008,
              10.668028554000045
            ],
            [
              122.95793964500001,
              10.666939218000039
            ]
          ]
        ]
      }
    },
    {
      "type": "Feature",
      "properties": {
        "geo_id": "geo_ph_0062",
        "name": "Bacolod",
        "psgc": "1830200000",
        "boundary_level": "huc",
        "component": "Barangay 24 (Pob.)",
        "source_correspondence_code": "184501000"
      },
      "geometry": {
        "type": "Polygon",
        "coordinates": [
          [
            [
              122.94990470000005,
              10.668491751000033
            ],
            [
              122.95242998600008,
              10.667387567000048
            ],
            [
              122.95196326100006,
              10.666268223000031
            ],
            [
              122.94942788500009,
              10.667317732000072
            ],
            [
              122.94819818600001,
              10.667826343000058
            ],
            [
              122.94990470000005,
              10.668491751000033
            ]
          ]
        ]
      }
    },
    {
      "type": "Feature",
      "properties": {
        "geo_id": "geo_ph_0062",
        "name": "Bacolod",
        "psgc": "1830200000",
        "boundary_level": "huc",
        "component": "Barangay 25 (Pob.)",
        "source_correspondence_code": "184501000"
      },
      "geometry": {
        "type": "Polygon",
        "coordinates": [
          [
            [
              122.95196326100006,
              10.666268223000031
            ],
            [
              122.9515040440001,
              10.665160660000026
            ],
            [
              122.94896643300001,
              10.66618989400007
            ],
            [
              122.94942788500009,
              10.667317732000072
            ],
            [
              122.95196326100006,
              10.666268223000031
            ]
          ]
        ]
      }
    },
    {
      "type": "Feature",
      "properties": {
        "geo_id": "geo_ph_0062",
        "name": "Bacolod",
        "psgc": "1830200000",
        "boundary_level": "huc",
        "component": "Barangay 26 (Pob.)",
        "source_correspondence_code": "184501000"
      },
      "geometry": {
        "type": "Polygon",
        "coordinates": [
          [
            [
              122.95443929900011,
              10.66651094100007
            ],
            [
              122.95721353600004,
              10.665254054000059
            ],
            [
              122.95677829500005,
              10.664304067000046
            ],
            [
              122.95196326100006,
              10.666268223000031
            ],
            [
              122.95242998600008,
              10.667387567000048
            ],
            [
              122.95443929900011,
              10.66651094100007
            ]
          ]
        ]
      }
    },
    {
      "type": "Feature",
      "properties": {
        "geo_id": "geo_ph_0062",
        "name": "Bacolod",
        "psgc": "1830200000",
        "boundary_level": "huc",
        "component": "Barangay 27 (Pob.)",
        "source_correspondence_code": "184501000"
      },
      "geometry": {
        "type": "Polygon",
        "coordinates": [
          [
            [
              122.95901769700004,
              10.666550834000077
            ],
            [
              122.95924744500007,
              10.663844346000076
            ],
            [
              122.95910680300005,
              10.663333779000027
            ],
            [
              122.95677829500005,
              10.664304067000046
            ],
            [
              122.95721353600004,
              10.665254054000059
            ],
            [
              122.95793964500001,
              10.666939218000039
            ],
            [
              122.95796012900007,
              10.666986518000044
            ],
            [
              122.95901769700004,
              10.666550834000077
            ]
          ]
        ]
      }
    },
    {
      "type": "Feature",
      "properties": {
        "geo_id": "geo_ph_0062",
        "name": "Bacolod",
        "psgc": "1830200000",
        "boundary_level": "huc",
        "component": "Barangay 28 (Pob.)",
        "source_correspondence_code": "184501000"
      },
      "geometry": {
        "type": "Polygon",
        "coordinates": [
          [
            [
              122.95677829500005,
              10.664304067000046
            ],
            [
              122.95910680300005,
              10.663333779000027
            ],
            [
              122.95802840700003,
              10.662449982000055
            ],
            [
              122.95426758500003,
              10.663984633000041
            ],
            [
              122.9515040440001,
              10.665160660000026
            ],
            [
              122.95196326100006,
              10.666268223000031
            ],
            [
              122.95677829500005,
              10.664304067000046
            ]
          ]
        ]
      }
    },
    {
      "type": "Feature",
      "properties": {
        "geo_id": "geo_ph_0062",
        "name": "Bacolod",
        "psgc": "1830200000",
        "boundary_level": "huc",
        "component": "Barangay 29 (Pob.)",
        "source_correspondence_code": "184501000"
      },
      "geometry": {
        "type": "Polygon",
        "coordinates": [
          [
            [
              122.9515040440001,
              10.665160660000026
            ],
            [
              122.95101687700003,
              10.664107706000038
            ],
            [
              122.94871590600007,
              10.665579941000033
            ],
            [
              122.94896643300001,
              10.66618989400007
            ],
            [
              122.9515040440001,
              10.665160660000026
            ]
          ]
        ]
      }
    },
    {
      "type": "Feature",
      "properties": {
        "geo_id": "geo_ph_0062",
        "name": "Bacolod",
        "psgc": "1830200000",
        "boundary_level": "huc",
        "component": "Barangay 30 (Pob.)",
        "source_correspondence_code": "184501000"
      },
      "geometry": {
        "type": "Polygon",
        "coordinates": [
          [
            [
              122.95426758500003,
              10.663984633000041
            ],
            [
              122.95288565800001,
              10.662071050000065
            ],
            [
              122.95059602100002,
              10.663228006000054
            ],
            [
              122.95101687700003,
              10.664107706000038
            ],
            [
              122.9515040440001,
              10.665160660000026
            ],
            [
              122.95426758500003,
              10.663984633000041
            ]
          ]
        ]
      }
    },
    {
      "type": "Feature",
      "properties": {
        "geo_id": "geo_ph_0062",
        "name": "Bacolod",
        "psgc": "1830200000",
        "boundary_level": "huc",
        "component": "Barangay 31 (Pob.)",
        "source_correspondence_code": "184501000"
      },
      "geometry": {
        "type": "Polygon",
        "coordinates": [
          [
            [
              122.95802840700003,
              10.662449982000055
            ],
            [
              122.9540301610001,
              10.658492425000077
            ],
            [
              122.95179380700006,
              10.659897031000071
            ],
            [
              122.95288565800001,
              10.662071050000065
            ],
            [
              122.95426758500003,
              10.663984633000041
            ],
            [
              122.95802840700003,
              10.662449982000055
            ]
          ]
        ]
      }
    },
    {
      "type": "Feature",
      "properties": {
        "geo_id": "geo_ph_0062",
        "name": "Bacolod",
        "psgc": "1830200000",
        "boundary_level": "huc",
        "component": "Barangay 32 (Pob.)",
        "source_correspondence_code": "184501000"
      },
      "geometry": {
        "type": "Polygon",
        "coordinates": [
          [
            [
              122.95101687700003,
              10.664107706000038
            ],
            [
              122.95059602100002,
              10.663228006000054
            ],
            [
              122.9500125730001,
              10.662020118000044
            ],
            [
              122.9477142070001,
              10.663146186000063
            ],
            [
              122.94871590600007,
              10.665579941000033
            ],
            [
              122.95101687700003,
              10.664107706000038
            ]
          ]
        ]
      }
    },
    {
      "type": "Feature",
      "properties": {
        "geo_id": "geo_ph_0062",
        "name": "Bacolod",
        "psgc": "1830200000",
        "boundary_level": "huc",
        "component": "Barangay 33 (Pob.)",
        "source_correspondence_code": "184501000"
      },
      "geometry": {
        "type": "Polygon",
        "coordinates": [
          [
            [
              122.95288565800001,
              10.662071050000065
            ],
            [
              122.95179380700006,
              10.659897031000071
            ],
            [
              122.9494068250001,
              10.660834936000072
            ],
            [
              122.9500125730001,
              10.662020118000044
            ],
            [
              122.95059602100002,
              10.663228006000054
            ],
            [
              122.95288565800001,
              10.662071050000065
            ]
          ]
        ]
      }
    },
    {
      "type": "Feature",
      "properties": {
        "geo_id": "geo_ph_0062",
        "name": "Bacolod",
        "psgc": "1830200000",
        "boundary_level": "huc",
        "component": "Barangay 34 (Pob.)",
        "source_correspondence_code": "184501000"
      },
      "geometry": {
        "type": "Polygon",
        "coordinates": [
          [
            [
              122.93938033900008,
              10.663775802000032
            ],
            [
              122.93871407000006,
              10.662436944000035
            ],
            [
              122.9373480060001,
              10.664831180000022
            ],
            [
              122.93938033900008,
              10.663775802000032
            ]
          ]
        ]
      }
    },
    {
      "type": "Feature",
      "properties": {
        "geo_id": "geo_ph_0062",
        "name": "Bacolod",
        "psgc": "1830200000",
        "boundary_level": "huc",
        "component": "Barangay 35 (Pob.)",
        "source_correspondence_code": "184501000"
      },
      "geometry": {
        "type": "Polygon",
        "coordinates": [
          [
            [
              122.93543898300004,
              10.66891567600004
            ],
            [
              122.9373480060001,
              10.664831180000022
            ],
            [
              122.93871407000006,
              10.662436944000035
            ],
            [
              122.93974037800001,
              10.660838729000034
            ],
            [
              122.93459884700007,
              10.665012770000033
            ],
            [
              122.93543898300004,
              10.66891567600004
            ]
          ]
        ]
      }
    },
    {
      "type": "Feature",
      "properties": {
        "geo_id": "geo_ph_0062",
        "name": "Bacolod",
        "psgc": "1830200000",
        "boundary_level": "huc",
        "component": "Barangay 36 (Pob.)",
        "source_correspondence_code": "184501000"
      },
      "geometry": {
        "type": "Polygon",
        "coordinates": [
          [
            [
              122.94340793800006,
              10.663568481000027
            ],
            [
              122.94113419400003,
              10.659059476000039
            ],
            [
              122.93974037800001,
              10.660838729000034
            ],
            [
              122.93871407000006,
              10.662436944000035
            ],
            [
              122.93938033900008,
              10.663775802000032
            ],
            [
              122.94340793800006,
              10.663568481000027
            ]
          ]
        ]
      }
    },
    {
      "type": "Feature",
      "properties": {
        "geo_id": "geo_ph_0062",
        "name": "Bacolod",
        "psgc": "1830200000",
        "boundary_level": "huc",
        "component": "Barangay 37 (Pob.)",
        "source_correspondence_code": "184501000"
      },
      "geometry": {
        "type": "Polygon",
        "coordinates": [
          [
            [
              122.94942788500009,
              10.667317732000072
            ],
            [
              122.94896643300001,
              10.66618989400007
            ],
            [
              122.94871590600007,
              10.665579941000033
            ],
            [
              122.9477142070001,
              10.663146186000063
            ],
            [
              122.94650155300008,
              10.663663186000065
            ],
            [
              122.94705118000002,
              10.664967152000031
            ],
            [
              122.9477331380001,
              10.66669134500006
            ],
            [
              122.94819818600001,
              10.667826343000058
            ],
            [
              122.94942788500009,
              10.667317732000072
            ]
          ]
        ]
      }
    },
    {
      "type": "Feature",
      "properties": {
        "geo_id": "geo_ph_0062",
        "name": "Bacolod",
        "psgc": "1830200000",
        "boundary_level": "huc",
        "component": "Barangay 38 (Pob.)",
        "source_correspondence_code": "184501000"
      },
      "geometry": {
        "type": "Polygon",
        "coordinates": [
          [
            [
              122.94650155300008,
              10.663663186000065
            ],
            [
              122.9477142070001,
              10.663146186000063
            ],
            [
              122.9500125730001,
              10.662020118000044
            ],
            [
              122.9494068250001,
              10.660834936000072
            ],
            [
              122.94718928400005,
              10.661810001000049
            ],
            [
              122.94340793800006,
              10.663568481000027
            ],
            [
              122.94402229900004,
              10.664743980000026
            ],
            [
              122.94650155300008,
              10.663663186000065
            ]
          ]
        ]
      }
    },
    {
      "type": "Feature",
      "properties": {
        "geo_id": "geo_ph_0062",
        "name": "Bacolod",
        "psgc": "1830200000",
        "boundary_level": "huc",
        "component": "Barangay 39 (Pob.)",
        "source_correspondence_code": "184501000"
      },
      "geometry": {
        "type": "Polygon",
        "coordinates": [
          [
            [
              122.94718928400005,
              10.661810001000049
            ],
            [
              122.94432536300008,
              10.65422746400003
            ],
            [
              122.94113419400003,
              10.659059476000039
            ],
            [
              122.94340793800006,
              10.663568481000027
            ],
            [
              122.94718928400005,
              10.661810001000049
            ]
          ]
        ]
      }
    },
    {
      "type": "Feature",
      "properties": {
        "geo_id": "geo_ph_0062",
        "name": "Bacolod",
        "psgc": "1830200000",
        "boundary_level": "huc",
        "component": "Barangay 40 (Pob.)",
        "source_correspondence_code": "184501000"
      },
      "geometry": {
        "type": "Polygon",
        "coordinates": [
          [
            [
              122.9494068250001,
              10.660834936000072
            ],
            [
              122.95179380700006,
              10.659897031000071
            ],
            [
              122.9540301610001,
              10.658492425000077
            ],
            [
              122.94689777100007,
              10.653864476000024
            ],
            [
              122.94432536300008,
              10.65422746400003
            ],
            [
              122.94718928400005,
              10.661810001000049
            ],
            [
              122.9494068250001,
              10.660834936000072
            ]
          ]
        ]
      }
    },
    {
      "type": "Feature",
      "properties": {
        "geo_id": "geo_ph_0062",
        "name": "Bacolod",
        "psgc": "1830200000",
        "boundary_level": "huc",
        "component": "Barangay 41 (Pob.)",
        "source_correspondence_code": "184501000"
      },
      "geometry": {
        "type": "Polygon",
        "coordinates": [
          [
            [
              122.96248874000003,
              10.659553078000044
            ],
            [
              122.95924744500007,
              10.663844346000076
            ],
            [
              122.95901769700004,
              10.666550834000077
            ],
            [
              122.96248874000003,
              10.659553078000044
            ]
          ]
        ]
      }
    },
    {
      "type": "Feature",
      "properties": {
        "geo_id": "geo_ph_0062",
        "name": "Bacolod",
        "psgc": "1830200000",
        "boundary_level": "huc",
        "component": "Barangay 6 (Pob.)",
        "source_correspondence_code": "184501000"
      },
      "geometry": {
        "type": "Polygon",
        "coordinates": [
          [
            [
              122.95286014300007,
              10.68194036400007
            ],
            [
              122.95097495700008,
              10.677335990000074
            ],
            [
              122.94892423200008,
              10.678125823000073
            ],
            [
              122.9504964350001,
              10.682523741000068
            ],
            [
              122.95286014300007,
              10.68194036400007
            ]
          ]
        ]
      }
    },
    {
      "type": "Feature",
      "properties": {
        "geo_id": "geo_ph_0062",
        "name": "Bacolod",
        "psgc": "1830200000",
        "boundary_level": "huc",
        "component": "Barangay 7 (Pob.)",
        "source_correspondence_code": "184501000"
      },
      "geometry": {
        "type": "Polygon",
        "coordinates": [
          [
            [
              122.95941510000011,
              10.679062650000049
            ],
            [
              122.95792124900004,
              10.673535525000034
            ],
            [
              122.95281644500005,
              10.675581038000075
            ],
            [
              122.95317976000001,
              10.676458659000048
            ],
            [
              122.95504057900007,
              10.680913322000038
            ],
            [
              122.95941510000011,
              10.679062650000049
            ]
          ]
        ]
      }
    },
    {
      "type": "Feature",
      "properties": {
        "geo_id": "geo_ph_0062",
        "name": "Bacolod",
        "psgc": "1830200000",
        "boundary_level": "huc",
        "component": "Barangay 9 (Pob.)",
        "source_correspondence_code": "184501000"
      },
      "geometry": {
        "type": "Polygon",
        "coordinates": [
          [
            [
              122.95317976000001,
              10.676458659000048
            ],
            [
              122.95281644500005,
              10.675581038000075
            ],
            [
              122.95160987600002,
              10.672655105000047
            ],
            [
              122.95106733700004,
              10.67133450800003
            ],
            [
              122.9504456200001,
              10.669821985000056
            ],
            [
              122.94923929100003,
              10.67041034600004
            ],
            [
              122.94876175400009,
              10.67230732400003
            ],
            [
              122.94887670300011,
              10.67256696000004
            ],
            [
              122.95097495700008,
              10.677335990000074
            ],
            [
              122.95317976000001,
              10.676458659000048
            ]
          ]
        ]
      }
    },
    {
      "type": "Feature",
      "properties": {
        "geo_id": "geo_ph_0062",
        "name": "Bacolod",
        "psgc": "1830200000",
        "boundary_level": "huc",
        "component": "Cabug",
        "source_correspondence_code": "184501000"
      },
      "geometry": {
        "type": "Polygon",
        "coordinates": [
          [
            [
              122.96008119400005,
              10.612889174000031
            ],
            [
              122.96304247600006,
              10.610790776000044
            ],
            [
              122.9616551790001,
              10.594183711000028
            ],
            [
              122.96200747500006,
              10.585870582000041
            ],
            [
              122.93230960300002,
              10.592446296000048
            ],
            [
              122.93787736000002,
              10.603991975000042
            ],
            [
              122.94410567700004,
              10.613930246000052
            ],
            [
              122.96008119400005,
              10.612889174000031
            ]
          ]
        ]
      }
    },
    {
      "type": "Feature",
      "properties": {
        "geo_id": "geo_ph_0062",
        "name": "Bacolod",
        "psgc": "1830200000",
        "boundary_level": "huc",
        "component": "Felisa",
        "source_correspondence_code": "184501000"
      },
      "geometry": {
        "type": "Polygon",
        "coordinates": [
          [
            [
              123.00527945300007,
              10.605035413000053
            ],
            [
              123.00059313000008,
              10.600632874000041
            ],
            [
              122.98941041400008,
              10.584636336000074
            ],
            [
              122.96200747500006,
              10.585870582000041
            ],
            [
              122.9616551790001,
              10.594183711000028
            ],
            [
              122.97021225500009,
              10.607138459000055
            ],
            [
              122.98674006200008,
              10.610891796000033
            ],
            [
              123.00527945300007,
              10.605035413000053
            ]
          ]
        ]
      }
    },
    {
      "type": "Feature",
      "properties": {
        "geo_id": "geo_ph_0062",
        "name": "Bacolod",
        "psgc": "1830200000",
        "boundary_level": "huc",
        "component": "Mansilingan",
        "source_correspondence_code": "184501000"
      },
      "geometry": {
        "type": "Polygon",
        "coordinates": [
          [
            [
              122.97051979600008,
              10.644702207000023
            ],
            [
              123.00287978400002,
              10.625468506000061
            ],
            [
              123.01875458900008,
              10.624861147000047
            ],
            [
              123.00527945300007,
              10.605035413000053
            ],
            [
              122.98674006200008,
              10.610891796000033
            ],
            [
              122.97021225500009,
              10.607138459000055
            ],
            [
              122.96304247600006,
              10.610790776000044
            ],
            [
              122.96008119400005,
              10.612889174000031
            ],
            [
              122.96225052200009,
              10.625645578000046
            ],
            [
              122.96352923000006,
              10.642239110000048
            ],
            [
              122.97051979600008,
              10.644702207000023
            ]
          ]
        ]
      }
    },
    {
      "type": "Feature",
      "properties": {
        "geo_id": "geo_ph_0062",
        "name": "Bacolod",
        "psgc": "1830200000",
        "boundary_level": "huc",
        "component": "Pahanocoy",
        "source_correspondence_code": "184501000"
      },
      "geometry": {
        "type": "Polygon",
        "coordinates": [
          [
            [
              122.94410567700004,
              10.613930246000052
            ],
            [
              122.93787736000002,
              10.603991975000042
            ],
            [
              122.91839384700006,
              10.61290740000004
            ],
            [
              122.918264141,
              10.612969014000043
            ],
            [
              122.91805241600002,
              10.61336123700005
            ],
            [
              122.9229931750001,
              10.62410890700005
            ],
            [
              122.94410567700004,
              10.613930246000052
            ]
          ]
        ]
      }
    },
    {
      "type": "Feature",
      "properties": {
        "geo_id": "geo_ph_0062",
        "name": "Bacolod",
        "psgc": "1830200000",
        "boundary_level": "huc",
        "component": "Punta Taytay",
        "source_correspondence_code": "184501000"
      },
      "geometry": {
        "type": "Polygon",
        "coordinates": [
          [
            [
              122.90691458300012,
              10.59455482800007
            ],
            [
              122.91428658400002,
              10.60574393500002
            ],
            [
              122.91435860100012,
              10.605813572000045
            ],
            [
              122.9143962930001,
              10.605850019000059
            ],
            [
              122.90691458300012,
              10.59455482800007
            ]
          ]
        ]
      }
    },
    {
      "type": "Feature",
      "properties": {
        "geo_id": "geo_ph_0062",
        "name": "Bacolod",
        "psgc": "1830200000",
        "boundary_level": "huc",
        "component": "Singcang-Airport",
        "source_correspondence_code": "184501000"
      },
      "geometry": {
        "type": "Polygon",
        "coordinates": [
          [
            [
              122.93459884700007,
              10.665012770000033
            ],
            [
              122.93974037800001,
              10.660838729000034
            ],
            [
              122.94113419400003,
              10.659059476000039
            ],
            [
              122.94432536300008,
              10.65422746400003
            ],
            [
              122.94689777100007,
              10.653864476000024
            ],
            [
              122.94250451200003,
              10.646238759000028
            ],
            [
              122.93923317000008,
              10.641093725000076
            ],
            [
              122.924463392,
              10.646274635000054
            ],
            [
              122.93397186700008,
              10.665058854000051
            ],
            [
              122.93422264000003,
              10.665176780000024
            ],
            [
              122.93459884700007,
              10.665012770000033
            ]
          ]
        ]
      }
    },
    {
      "type": "Feature",
      "properties": {
        "geo_id": "geo_ph_0062",
        "name": "Bacolod",
        "psgc": "1830200000",
        "boundary_level": "huc",
        "component": "Sum-ag",
        "source_correspondence_code": "184501000"
      },
      "geometry": {
        "type": "Polygon",
        "coordinates": [
          [
            [
              122.91839384700006,
              10.61290740000004
            ],
            [
              122.93787736000002,
              10.603991975000042
            ],
            [
              122.93230960300002,
              10.592446296000048
            ],
            [
              122.90691458300012,
              10.59455482800007
            ],
            [
              122.9143962930001,
              10.605850019000059
            ],
            [
              122.91839384700006,
              10.61290740000004
            ]
          ]
        ]
      }
    },
    {
      "type": "Feature",
      "properties": {
        "geo_id": "geo_ph_0062",
        "name": "Bacolod",
        "psgc": "1830200000",
        "boundary_level": "huc",
        "component": "Taculing",
        "source_correspondence_code": "184501000"
      },
      "geometry": {
        "type": "Polygon",
        "coordinates": [
          [
            [
              122.95924744500007,
              10.663844346000076
            ],
            [
              122.96248874000003,
              10.659553078000044
            ],
            [
              122.97275363200004,
              10.653248149000035
            ],
            [
              122.97051979600008,
              10.644702207000023
            ],
            [
              122.96352923000006,
              10.642239110000048
            ],
            [
              122.94250451200003,
              10.646238759000028
            ],
            [
              122.94689777100007,
              10.653864476000024
            ],
            [
              122.9540301610001,
              10.658492425000077
            ],
            [
              122.95802840700003,
              10.662449982000055
            ],
            [
              122.95910680300005,
              10.663333779000027
            ],
            [
              122.95924744500007,
              10.663844346000076
            ]
          ]
        ]
      }
    },
    {
      "type": "Feature",
      "properties": {
        "geo_id": "geo_ph_0062",
        "name": "Bacolod",
        "psgc": "1830200000",
        "boundary_level": "huc",
        "component": "Tangub",
        "source_correspondence_code": "184501000"
      },
      "geometry": {
        "type": "Polygon",
        "coordinates": [
          [
            [
              122.924463392,
              10.646274635000054
            ],
            [
              122.93923317000008,
              10.641093725000076
            ],
            [
              122.96225052200009,
              10.625645578000046
            ],
            [
              122.96008119400005,
              10.612889174000031
            ],
            [
              122.94410567700004,
              10.613930246000052
            ],
            [
              122.9229931750001,
              10.62410890700005
            ],
            [
              122.924463392,
              10.646274635000054
            ]
          ]
        ]
      }
    },
    {
      "type": "Feature",
      "properties": {
        "geo_id": "geo_ph_0062",
        "name": "Bacolod",
        "psgc": "1830200000",
        "boundary_level": "huc",
        "component": "Vista Alegre",
        "source_correspondence_code": "184501000"
      },
      "geometry": {
        "type": "Polygon",
        "coordinates": [
          [
            [
              123.03093204800007,
              10.63274526300006
            ],
            [
              123.01875458900008,
              10.624861147000047
            ],
            [
              123.00287978400002,
              10.625468506000061
            ],
            [
              122.97051979600008,
              10.644702207000023
            ],
            [
              122.97275363200004,
              10.653248149000035
            ],
            [
              122.98220431700008,
              10.65631090100004
            ],
            [
              123.00254634700002,
              10.65966852400004
            ],
            [
              123.01603022900008,
              10.662414554000065
            ],
            [
              123.03093204800007,
              10.63274526300006
            ]
          ]
        ]
      }
    },
    {
      "type": "Feature",
      "properties": {
        "geo_id": "geo_ph_0062",
        "name": "Bacolod",
        "psgc": "1830200000",
        "boundary_level": "huc",
        "component": "Handumanan",
        "source_correspondence_code": "184501000"
      },
      "geometry": {
        "type": "Polygon",
        "coordinates": [
          [
            [
              122.97021225500009,
              10.607138459000055
            ],
            [
              122.9616551790001,
              10.594183711000028
            ],
            [
              122.96304247600006,
              10.610790776000044
            ],
            [
              122.97021225500009,
              10.607138459000055
            ]
          ]
        ]
      }
    },
    {
      "type": "Feature",
      "properties": {
        "geo_id": "geo_ph_0062",
        "name": "Bacolod",
        "psgc": "1830200000",
        "boundary_level": "huc",
        "component": "Banago",
        "source_correspondence_code": "184501000"
      },
      "geometry": {
        "type": "Polygon",
        "coordinates": [
          [
            [
              122.96161394400008,
              10.71272773100003
            ],
            [
              122.9620979660001,
              10.69860593200002
            ],
            [
              122.95653889300002,
              10.688581079000073
            ],
            [
              122.95118144900005,
              10.693167359000029
            ],
            [
              122.96161394400008,
              10.71272773100003
            ]
          ]
        ]
      }
    },
    {
      "type": "Feature",
      "properties": {
        "geo_id": "geo_ph_0062",
        "name": "Bacolod",
        "psgc": "1830200000",
        "boundary_level": "huc",
        "component": "Bata",
        "source_correspondence_code": "184501000"
      },
      "geometry": {
        "type": "Polygon",
        "coordinates": [
          [
            [
              122.982558046,
              10.70566483400006
            ],
            [
              122.9870872240001,
              10.691903858000046
            ],
            [
              122.9620979660001,
              10.69860593200002
            ],
            [
              122.96161394400008,
              10.71272773100003
            ],
            [
              122.982558046,
              10.70566483400006
            ]
          ]
        ]
      }
    },
    {
      "type": "Feature",
      "properties": {
        "geo_id": "geo_ph_0062",
        "name": "Bacolod",
        "psgc": "1830200000",
        "boundary_level": "huc",
        "component": "Barangay 1 (Pob.)",
        "source_correspondence_code": "184501000"
      },
      "geometry": {
        "type": "Polygon",
        "coordinates": [
          [
            [
              122.95118144900005,
              10.693167359000029
            ],
            [
              122.95653889300002,
              10.688581079000073
            ],
            [
              122.95752894000009,
              10.686982408000063
            ],
            [
              122.95631714700005,
              10.684031808000043
            ],
            [
              122.95404039800007,
              10.684798795000063
            ],
            [
              122.95294922500011,
              10.686622233000037
            ],
            [
              122.95127554700002,
              10.68863456500003
            ],
            [
              122.95118144900005,
              10.693167359000029
            ]
          ]
        ]
      }
    },
    {
      "type": "Feature",
      "properties": {
        "geo_id": "geo_ph_0062",
        "name": "Bacolod",
        "psgc": "1830200000",
        "boundary_level": "huc",
        "component": "Barangay 2 (Pob.)",
        "source_correspondence_code": "184501000"
      },
      "geometry": {
        "type": "Polygon",
        "coordinates": [
          [
            [
              122.95294922500011,
              10.686622233000037
            ],
            [
              122.9504964350001,
              10.682523741000068
            ],
            [
              122.94892423200008,
              10.678125823000073
            ],
            [
              122.94951455700004,
              10.68092402600007
            ],
            [
              122.95127554700002,
              10.68863456500003
            ],
            [
              122.95294922500011,
              10.686622233000037
            ]
          ]
        ]
      }
    },
    {
      "type": "Feature",
      "properties": {
        "geo_id": "geo_ph_0062",
        "name": "Bacolod",
        "psgc": "1830200000",
        "boundary_level": "huc",
        "component": "Barangay 3 (Pob.)",
        "source_correspondence_code": "184501000"
      },
      "geometry": {
        "type": "Polygon",
        "coordinates": [
          [
            [
              122.95404039800007,
              10.684798795000063
            ],
            [
              122.95286014300007,
              10.68194036400007
            ],
            [
              122.9504964350001,
              10.682523741000068
            ],
            [
              122.95294922500011,
              10.686622233000037
            ],
            [
              122.95404039800007,
              10.684798795000063
            ]
          ]
        ]
      }
    },
    {
      "type": "Feature",
      "properties": {
        "geo_id": "geo_ph_0062",
        "name": "Bacolod",
        "psgc": "1830200000",
        "boundary_level": "huc",
        "component": "Barangay 4 (Pob.)",
        "source_correspondence_code": "184501000"
      },
      "geometry": {
        "type": "Polygon",
        "coordinates": [
          [
            [
              122.95317976000001,
              10.676458659000048
            ],
            [
              122.95097495700008,
              10.677335990000074
            ],
            [
              122.95286014300007,
              10.68194036400007
            ],
            [
              122.95404039800007,
              10.684798795000063
            ],
            [
              122.95631714700005,
              10.684031808000043
            ],
            [
              122.95504057900007,
              10.680913322000038
            ],
            [
              122.95317976000001,
              10.676458659000048
            ]
          ]
        ]
      }
    },
    {
      "type": "Feature",
      "properties": {
        "geo_id": "geo_ph_0062",
        "name": "Bacolod",
        "psgc": "1830200000",
        "boundary_level": "huc",
        "component": "Barangay 5 (Pob.)",
        "source_correspondence_code": "184501000"
      },
      "geometry": {
        "type": "Polygon",
        "coordinates": [
          [
            [
              122.95941510000011,
              10.679062650000049
            ],
            [
              122.95504057900007,
              10.680913322000038
            ],
            [
              122.95631714700005,
              10.684031808000043
            ],
            [
              122.95752894000009,
              10.686982408000063
            ],
            [
              122.95805455700008,
              10.686544903000026
            ],
            [
              122.95941510000011,
              10.679062650000049
            ]
          ]
        ]
      }
    },
    {
      "type": "Feature",
      "properties": {
        "geo_id": "geo_ph_0062",
        "name": "Bacolod",
        "psgc": "1830200000",
        "boundary_level": "huc",
        "component": "Barangay 8 (Pob.)",
        "source_correspondence_code": "184501000"
      },
      "geometry": {
        "type": "Polygon",
        "coordinates": [
          [
            [
              122.9458010080001,
              10.687325402000056
            ],
            [
              122.94647231300007,
              10.686509902000068
            ],
            [
              122.94778569400012,
              10.684864515000072
            ],
            [
              122.94790690400009,
              10.684361745000047
            ],
            [
              122.94897572800005,
              10.68135512300006
            ],
            [
              122.94948261600007,
              10.68097061800006
            ],
            [
              122.94951455700004,
              10.68092402600007
            ],
            [
              122.94892423200008,
              10.678125823000073
            ],
            [
              122.95097495700008,
              10.677335990000074
            ],
            [
              122.94887670300011,
              10.67256696000004
            ],
            [
              122.94252945700009,
              10.67896394500002
            ],
            [
              122.9458010080001,
              10.687325402000056
            ]
          ]
        ]
      }
    },
    {
      "type": "Feature",
      "properties": {
        "geo_id": "geo_ph_0062",
        "name": "Bacolod",
        "psgc": "1830200000",
        "boundary_level": "huc",
        "component": "Estefania",
        "source_correspondence_code": "184501000"
      },
      "geometry": {
        "type": "Polygon",
        "coordinates": [
          [
            [
              122.982558046,
              10.70566483400006
            ],
            [
              122.99919630300008,
              10.69994379800005
            ],
            [
              123.0088633900001,
              10.684599905000027
            ],
            [
              123.01185177900004,
              10.672189378000041
            ],
            [
              123.00254634700002,
              10.65966852400004
            ],
            [
              122.98220431700008,
              10.65631090100004
            ],
            [
              122.98089985100012,
              10.676554315000033
            ],
            [
              122.9870872240001,
              10.691903858000046
            ],
            [
              122.982558046,
              10.70566483400006
            ]
          ]
        ]
      }
    },
    {
      "type": "Feature",
      "properties": {
        "geo_id": "geo_ph_0062",
        "name": "Bacolod",
        "psgc": "1830200000",
        "boundary_level": "huc",
        "component": "Granada",
        "source_correspondence_code": "184501000"
      },
      "geometry": {
        "type": "Polygon",
        "coordinates": [
          [
            [
              123.05715206900004,
              10.679668832000061
            ],
            [
              123.07157809600005,
              10.664251640000032
            ],
            [
              123.07511590500008,
              10.64529576700005
            ],
            [
              123.04134135900006,
              10.631646683000042
            ],
            [
              123.03093204800007,
              10.63274526300006
            ],
            [
              123.01603022900008,
              10.662414554000065
            ],
            [
              123.00254634700002,
              10.65966852400004
            ],
            [
              123.01185177900004,
              10.672189378000041
            ],
            [
              123.0088633900001,
              10.684599905000027
            ],
            [
              123.04982497700007,
              10.684967264000022
            ],
            [
              123.05715206900004,
              10.679668832000061
            ]
          ]
        ]
      }
    },
    {
      "type": "Feature",
      "properties": {
        "geo_id": "geo_ph_0062",
        "name": "Bacolod",
        "psgc": "1830200000",
        "boundary_level": "huc",
        "component": "Mandalagan",
        "source_correspondence_code": "184501000"
      },
      "geometry": {
        "type": "Polygon",
        "coordinates": [
          [
            [
              122.9870872240001,
              10.691903858000046
            ],
            [
              122.98089985100012,
              10.676554315000033
            ],
            [
              122.95805455700008,
              10.686544903000026
            ],
            [
              122.95752894000009,
              10.686982408000063
            ],
            [
              122.95653889300002,
              10.688581079000073
            ],
            [
              122.9620979660001,
              10.69860593200002
            ],
            [
              122.9870872240001,
              10.691903858000046
            ]
          ]
        ]
      }
    },
    {
      "type": "Feature",
      "properties": {
        "geo_id": "geo_ph_0062",
        "name": "Bacolod",
        "psgc": "1830200000",
        "boundary_level": "huc",
        "component": "Villamonte",
        "source_correspondence_code": "184501000"
      },
      "geometry": {
        "type": "Polygon",
        "coordinates": [
          [
            [
              122.98089985100012,
              10.676554315000033
            ],
            [
              122.98220431700008,
              10.65631090100004
            ],
            [
              122.97275363200004,
              10.653248149000035
            ],
            [
              122.96248874000003,
              10.659553078000044
            ],
            [
              122.95901769700004,
              10.666550834000077
            ],
            [
              122.95796012900007,
              10.666986518000044
            ],
            [
              122.95564338600002,
              10.669397506000053
            ],
            [
              122.95792124900004,
              10.673535525000034
            ],
            [
              122.95941510000011,
              10.679062650000049
            ],
            [
              122.95805455700008,
              10.686544903000026
            ],
            [
              122.98089985100012,
              10.676554315000033
            ]
          ]
        ]
      }
    }
  ]
}
