{
  "type": "FeatureCollection",
  "features": [
    {
      "type": "Feature",
      "properties": {
        "geo_id": "geo_ph_0048",
        "name": "Occidental Mindoro / Apo Reef",
        "component": "Sablayan gateway municipality",
        "source_psgc": "1705109000",
        "source_boundary_level": "municipality"
      },
      "geometry": {
        "type": "Polygon",
        "coordinates": [
          [
            [
              121.26094981900009,
              12.686051228000055
            ],
            [
              121.25874112900009,
              12.756897567000067
            ],
            [
              121.24702429300011,
              12.826554369000064
            ],
            [
              121.24529862100007,
              12.923056417000057
            ],
            [
              121.23957866800005,
              13.010270545000026
            ],
            [
              121.24088143300004,
              13.065091710000045
            ],
            [
              121.18545674800009,
              13.081633324000055
            ],
            [
              121.16962748800006,
              13.093317855000066
            ],
            [
              121.11848852900006,
              13.105488950000051
            ],
            [
              121.00383125200007,
              13.180538426000057
            ],
            [
              120.9471219200001,
              13.09784445400004
            ],
            [
              120.927898174,
              13.039589393000025
            ],
            [
              120.91586104400005,
              13.025144838000074
            ],
            [
              120.91750823000007,
              12.976236080000033
            ],
            [
              120.89124814200012,
              12.952771884000072
            ],
            [
              120.86950009200005,
              12.970837594000045
            ],
            [
              120.8384503860001,
              12.983385613000051
            ],
            [
              120.77251824100007,
              12.977137682000034
            ],
            [
              120.76838196000006,
              12.966085669000051
            ],
            [
              120.7796215420001,
              12.917398886000058
            ],
            [
              120.782458571,
              12.86918232600004
            ],
            [
              120.77305419000004,
              12.845372235000069
            ],
            [
              120.78393965600003,
              12.823705027000074
            ],
            [
              120.78899065000009,
              12.734430004000048
            ],
            [
              120.80423164600008,
              12.72022516800007
            ],
            [
              120.83655768500012,
              12.727594016000069
            ],
            [
              120.85945118000006,
              12.712935992000043
            ],
            [
              120.87015031000011,
              12.68273848600006
            ],
            [
              120.88309714800006,
              12.671412537000036
            ],
            [
              120.93691449900007,
              12.696189784000067
            ],
            [
              120.95959823800001,
              12.697421984000073
            ],
            [
              121.12065881,
              12.688989942000033
            ],
            [
              121.19789160200003,
              12.687733387000037
            ],
            [
              121.26094981900009,
              12.686051228000055
            ]
          ]
        ]
      }
    },
    {
      "type": "Feature",
      "properties": {
        "geo_id": "geo_ph_0048",
        "name": "Occidental Mindoro / Apo Reef",
        "component": "Apo Reef Natural Park",
        "source_boundary_level": "protected_area",
        "source_crs": "WGS84 / EPSG:4326",
        "boundary_basis": "UKHO Weekly Notices to Mariners 38/2023; positions correspond to Proclamation 868 ARNP boundary"
      },
      "geometry": {
        "type": "Polygon",
        "coordinates": [
          [
            [
              120.4575,
              12.745
            ],
            [
              120.5635,
              12.685167
            ],
            [
              120.5005,
              12.594667
            ],
            [
              120.3975,
              12.653667
            ],
            [
              120.4575,
              12.745
            ]
          ]
        ]
      }
    }
  ]
}
