{
  "type": "FeatureCollection",
  "features": [
    {
      "type": "Feature",
      "properties": {
        "geo_id": "geo_kh_0039",
        "name": "Kandal",
        "boundary_level": "province",
        "osm_type": "relation",
        "osm_id": 2200251,
        "source_checked_at": "2026-10-01"
      },
      "geometry": {
        "type": "Polygon",
        "coordinates": [
          [
            [
              104.656215,
              11.43571
            ],
            [
              104.657223,
              11.434928
            ],
            [
              104.66144,
              11.434557
            ],
            [
              104.66812,
              11.42739
            ],
            [
              104.67374,
              11.426245
            ],
            [
              104.677757,
              11.421636
            ],
            [
              104.681664,
              11.422544
            ],
            [
              104.683773,
              11.427764
            ],
            [
              104.687697,
              11.429981
            ],
            [
              104.688083,
              11.43391
            ],
            [
              104.689835,
              11.436707
            ],
            [
              104.695932,
              11.435653
            ],
            [
              104.697169,
              11.430375
            ],
            [
              104.698432,
              11.429556
            ],
            [
              104.702799,
              11.428978
            ],
            [
              104.707137,
              11.429929
            ],
            [
              104.711995,
              11.433543
            ],
            [
              104.71511,
              11.433636
            ],
            [
              104.720255,
              11.43933
            ],
            [
              104.721811,
              11.439095
            ],
            [
              104.722736,
              11.437874
            ],
            [
              104.722261,
              11.43483
            ],
            [
              104.723453,
              11.433597
            ],
            [
              104.72465,
              11.433478
            ],
            [
              104.727679,
              11.436731
            ],
            [
              104.729506,
              11.436529
            ],
            [
              104.730823,
              11.4344
            ],
            [
              104.734196,
              11.432124
            ],
            [
              104.734882,
              11.428847
            ],
            [
              104.736028,
              11.427763
            ],
            [
              104.739124,
              11.429062
            ],
            [
              104.740087,
              11.428795
            ],
            [
              104.741345,
              11.426332
            ],
            [
              104.749814,
              11.424458
            ],
            [
              104.751254,
              11.426301
            ],
            [
              104.752099,
              11.431032
            ],
            [
              104.753602,
              11.432081
            ],
            [
              104.75398,
              11.427633
            ],
            [
              104.755496,
              11.427088
            ],
            [
              104.757294,
              11.427556
            ],
            [
              104.7581,
              11.424281
            ],
            [
              104.759075,
              11.426266
            ],
            [
              104.761115,
              11.427442
            ],
            [
              104.763822,
              11.427169
            ],
            [
              104.764573,
              11.425794
            ],
            [
              104.762725,
              11.424096
            ],
            [
              104.762821,
              11.423286
            ],
            [
              104.76768,
              11.421319
            ],
            [
              104.769166,
              11.422242
            ],
            [
              104.77111,
              11.425665
            ],
            [
              104.774013,
              11.427176
            ],
            [
              104.772338,
              11.430205
            ],
            [
              104.773271,
              11.430985
            ],
            [
              104.776435,
              11.428253
            ],
            [
              104.774235,
              11.424875
            ],
            [
              104.77426,
              11.423278
            ],
            [
              104.772768,
              11.421454
            ],
            [
              104.773179,
              11.421022
            ],
            [
              104.775761,
              11.421605
            ],
            [
              104.777988,
              11.420627
            ],
            [
              104.778516,
              11.42277
            ],
            [
              104.780332,
              11.421779
            ],
            [
              104.782778,
              11.422527
            ],
            [
              104.781222,
              11.418081
            ],
            [
              104.77861,
              11.416646
            ],
            [
              104.780343,
              11.415749
            ],
            [
              104.783225,
              11.416217
            ],
            [
              104.785149,
              11.415696
            ],
            [
              104.786493,
              11.417091
            ],
            [
              104.786798,
              11.418284
            ],
            [
              104.785274,
              11.419986
            ],
            [
              104.786504,
              11.422447
            ],
            [
              104.785633,
              11.424132
            ],
            [
              104.786109,
              11.424702
            ],
            [
              104.787663,
              11.424439
            ],
            [
              104.789648,
              11.422453
            ],
            [
              104.792352,
              11.424419
            ],
            [
              104.791747,
              11.421258
            ],
            [
              104.792614,
              11.420605
            ],
            [
              104.781742,
              11.403141
            ],
            [
              104.737667,
              11.35809
            ],
            [
              104.732334,
              11.351192
            ],
            [
              104.754845,
              11.336756
            ],
            [
              104.757718,
              11.337044
            ],
            [
              104.759995,
              11.338109
            ],
            [
              104.771345,
              11.345815
            ],
            [
              104.77713,
              11.345976
            ],
            [
              104.784787,
              11.349095
            ],
            [
              104.791349,
              11.349949
            ],
            [
              104.800532,
              11.35304
            ],
            [
              104.808323,
              11.352521
            ],
            [
              104.815793,
              11.348004
            ],
            [
              104.818786,
              11.347936
            ],
            [
              104.82078,
              11.34714
            ],
            [
              104.821623,
              11.345984
            ],
            [
              104.830782,
              11.345206
            ],
            [
              104.834947,
              11.341984
            ],
            [
              104.847514,
              11.343239
            ],
            [
              104.852992,
              11.341687
            ],
            [
              104.856027,
              11.343759
            ],
            [
              104.858293,
              11.343842
            ],
            [
              104.85821,
              11.347261
            ],
            [
              104.859597,
              11.347103
            ],
            [
              104.860559,
              11.348743
            ],
            [
              104.863618,
              11.350293
            ],
            [
              104.865695,
              11.349624
            ],
            [
              104.867921,
              11.351452
            ],
            [
              104.869214,
              11.350515
            ],
            [
              104.872486,
              11.350369
            ],
            [
              104.874969,
              11.351496
            ],
            [
              104.874398,
              11.348478
            ],
            [
              104.876236,
              11.3467
            ],
            [
              104.877477,
              11.348181
            ],
            [
              104.879139,
              11.348065
            ],
            [
              104.880075,
              11.349309
            ],
            [
              104.882906,
              11.347366
            ],
            [
              104.883501,
              11.349477
            ],
            [
              104.884274,
              11.349673
            ],
            [
              104.886204,
              11.349241
            ],
            [
              104.887236,
              11.347375
            ],
            [
              104.890522,
              11.3497
            ],
            [
              104.891927,
              11.348224
            ],
            [
              104.893271,
              11.349516
            ],
            [
              104.895013,
              11.349193
            ],
            [
              104.91613,
              11.326955
            ],
            [
              104.917661,
              11.32721
            ],
            [
              104.920411,
              11.329782
            ],
            [
              104.923693,
              11.328544
            ],
            [
              104.925264,
              11.326715
            ],
            [
              104.927313,
              11.326687
            ],
            [
              104.928747,
              11.327974
            ],
            [
              104.930934,
              11.3277
            ],
            [
              104.931028,
              11.328409
            ],
            [
              104.932895,
              11.329393
            ],
            [
              104.938502,
              11.328235
            ],
            [
              104.939256,
              11.326612
            ],
            [
              104.939473,
              11.29844
            ],
            [
              104.936431,
              11.287775
            ],
            [
              104.927069,
              11.270421
            ],
            [
              104.92812,
              11.26499
            ],
            [
              104.9337,
              11.250655
            ],
            [
              104.938112,
              11.244052
            ],
            [
              104.940804,
              11.24167
            ],
            [
              104.958277,
              11.233895
            ],
            [
              104.98052,
              11.221036
            ],
            [
              104.982986,
              11.209518
            ],
            [
              104.985231,
              11.203822
            ],
            [
              104.982653,
              11.190639
            ],
            [
              104.979564,
              11.183157
            ],
            [
              104.98656,
              11.17367
            ],
            [
              104.996125,
              11.172528
            ],
            [
              105.017597,
              11.173108
            ],
            [
              105.018802,
              11.172216
            ],
            [
              105.019792,
              11.16867
            ],
            [
              105.017859,
              11.167877
            ],
            [
              105.017845,
              11.166096
            ],
            [
              105.016773,
              11.165242
            ],
            [
              105.014208,
              11.165897
            ],
            [
              105.013829,
              11.16347
            ],
            [
              105.012346,
              11.160916
            ],
            [
              105.017243,
              11.163084
            ],
            [
              105.023658,
              11.163756
            ],
            [
              105.026686,
              11.161159
            ],
            [
              105.025547,
              11.158755
            ],
            [
              105.019337,
              11.156496
            ],
            [
              105.020636,
              11.154456
            ],
            [
              105.019641,
              11.151683
            ],
            [
              105.021299,
              11.14966
            ],
            [
              105.021221,
              11.148813
            ],
            [
              105.018841,
              11.146945
            ],
            [
              105.019055,
              11.140628
            ],
            [
              105.016324,
              11.136198
            ],
            [
              105.019074,
              11.131075
            ],
            [
              105.019191,
              11.127704
            ],
            [
              105.018625,
              11.125759
            ],
            [
              105.017319,
              11.124835
            ],
            [
              105.015739,
              11.124912
            ],
            [
              105.015583,
              11.123159
            ],
            [
              105.017584,
              11.118185
            ],
            [
              105.020048,
              11.11715
            ],
            [
              105.019984,
              11.116064
            ],
            [
              105.019247,
              11.116061
            ],
            [
              105.017786,
              11.114319
            ],
            [
              105.017298,
              11.111661
            ],
            [
              105.016927,
              11.107405
            ],
            [
              105.017824,
              11.102609
            ],
            [
              105.01761,
              11.099469
            ],
            [
              105.015386,
              11.097062
            ],
            [
              105.010745,
              11.095213
            ],
            [
              105.01094,
              11.086585
            ],
            [
              105.009867,
              11.081308
            ],
            [
              105.006299,
              11.076955
            ],
            [
              105.006289,
              11.072691
            ],
            [
              105.003062,
              11.066709
            ],
            [
              105.001403,
              11.057285
            ],
            [
              105.000809,
              11.056806
            ],
            [
              104.997392,
              11.05768
            ],
            [
              104.99576,
              11.055472
            ],
            [
              104.996015,
              11.054063
            ],
            [
              104.998244,
              11.052328
            ],
            [
              104.998747,
              11.049836
            ],
            [
              104.993318,
              11.039672
            ],
            [
              104.992502,
              11.036201
            ],
            [
              104.992596,
              11.035421
            ],
            [
              104.994071,
              11.034813
            ],
            [
              104.994853,
              11.032458
            ],
            [
              104.997557,
              11.030332
            ],
            [
              104.997898,
              11.028449
            ],
            [
              104.990594,
              11.006808
            ],
            [
              104.99257,
              11.001133
            ],
            [
              104.994064,
              10.999165
            ],
            [
              104.990884,
              10.995935
            ],
            [
              104.98957,
              10.990828
            ],
            [
              104.993141,
              10.990105
            ],
            [
              104.997927,
              10.986481
            ],
            [
              104.998911,
              10.980869
            ],
            [
              104.997815,
              10.97699
            ],
            [
              105.000141,
              10.974659
            ],
            [
              105.000543,
              10.971168
            ],
            [
              105.003202,
              10.969129
            ],
            [
              105.004166,
              10.964804
            ],
            [
              105.020757,
              10.9321
            ],
            [
              105.035876,
              10.899048
            ],
            [
              105.037281,
              10.896707
            ],
            [
              105.040566,
              10.897971
            ],
            [
              105.041964,
              10.89976
            ],
            [
              105.045462,
              10.902027
            ],
            [
              105.041619,
              10.910974
            ],
            [
              105.045019,
              10.914915
            ],
            [
              105.0528,
              10.9176
            ],
            [
              105.052879,
              10.921166
            ],
            [
              105.051629,
              10.924311
            ],
            [
              105.050709,
              10.92471
            ],
            [
              105.051449,
              10.928122
            ],
            [
              105.053112,
              10.93006
            ],
            [
              105.057347,
              10.932185
            ],
            [
              105.060647,
              10.934987
            ],
            [
              105.068218,
              10.938558
            ],
            [
              105.071808,
              10.938436
            ],
            [
              105.0763,
              10.936604
            ],
            [
              105.07599,
              10.935141
            ],
            [
              105.076487,
              10.934965
            ],
            [
              105.077841,
              10.934714
            ],
            [
              105.078815,
              10.935443
            ],
            [
              105.079334,
              10.93711
            ],
            [
              105.078165,
              10.941012
            ],
            [
              105.079695,
              10.947451
            ],
            [
              105.078938,
              10.951439
            ],
            [
              105.079684,
              10.952848
            ],
            [
              105.081915,
              10.954233
            ],
            [
              105.082455,
              10.95678
            ],
            [
              105.089732,
              10.954864
            ],
            [
              105.097693,
              10.954913
            ],
            [
              105.102507,
              10.956302
            ],
            [
              105.1101,
              10.960819
            ],
            [
              105.114057,
              10.962259
            ],
            [
              105.116307,
              10.962022
            ],
            [
              105.117532,
              10.960477
            ],
            [
              105.118263,
              10.948171
            ],
            [
              105.117701,
              10.944638
            ],
            [
              105.115726,
              10.941045
            ],
            [
              105.106471,
              10.930509
            ],
            [
              105.102174,
              10.923576
            ],
            [
              105.099277,
              10.920781
            ],
            [
              105.100021,
              10.91995
            ],
            [
              105.108862,
              10.917606
            ],
            [
              105.112199,
              10.918681
            ],
            [
              105.114914,
              10.921807
            ],
            [
              105.15868,
              10.913199
            ],
            [
              105.187235,
              10.91156
            ],
            [
              105.188212,
              10.916752
            ],
            [
              105.188026,
              10.919991
            ],
            [
              105.186324,
              10.936599
            ],
            [
              105.183492,
              10.952568
            ],
            [
              105.18508,
              10.971106
            ],
            [
              105.189285,
              10.981555
            ],
            [
              105.191024,
              11.001744
            ],
            [
              105.195765,
              11.023945
            ],
            [
              105.196624,
              11.033411
            ],
            [
              105.195808,
              11.058431
            ],
            [
              105.194028,
              11.074762
            ],
            [
              105.193781,
              11.082482
            ],
            [
              105.194491,
              11.08723
            ],
            [
              105.229008,
              11.123566
            ],
            [
              105.237467,
              11.13794
            ],
            [
              105.244194,
              11.155113
            ],
            [
              105.246116,
              11.16894
            ],
            [
              105.245139,
              11.176255
            ],
            [
              105.246277,
              11.188506
            ],
            [
              105.246801,
              11.189786
            ],
            [
              105.250354,
              11.192969
            ],
            [
              105.258929,
              11.199336
            ],
            [
              105.262244,
              11.202784
            ],
            [
              105.275464,
              11.236249
            ],
            [
              105.278925,
              11.248749
            ],
            [
              105.280032,
              11.258749
            ],
            [
              105.279691,
              11.267373
            ],
            [
              105.274055,
              11.320535
            ],
            [
              105.270824,
              11.333461
            ],
            [
              105.265553,
              11.343848
            ],
            [
              105.260197,
              11.35772
            ],
            [
              105.256931,
              11.384491
            ],
            [
              105.255386,
              11.390558
            ],
            [
              105.268327,
              11.397277
            ],
            [
              105.283326,
              11.408567
            ],
            [
              105.290175,
              11.416118
            ],
            [
              105.292934,
              11.42053
            ],
            [
              105.297161,
              11.424039
            ],
            [
              105.297023,
              11.424899
            ],
            [
              105.293808,
              11.426885
            ],
            [
              105.291893,
              11.429256
            ],
            [
              105.291099,
              11.43565
            ],
            [
              105.286687,
              11.437221
            ],
            [
              105.282725,
              11.442396
            ],
            [
              105.283575,
              11.445579
            ],
            [
              105.286737,
              11.449454
            ],
            [
              105.282733,
              11.455134
            ],
            [
              105.279783,
              11.456319
            ],
            [
              105.278882,
              11.458187
            ],
            [
              105.278079,
              11.458599
            ],
            [
              105.276661,
              11.457909
            ],
            [
              105.273886,
              11.455332
            ],
            [
              105.270983,
              11.45159
            ],
            [
              105.270335,
              11.449337
            ],
            [
              105.263902,
              11.454209
            ],
            [
              105.262567,
              11.457359
            ],
            [
              105.261622,
              11.457738
            ],
            [
              105.260184,
              11.4565
            ],
            [
              105.259143,
              11.454003
            ],
            [
              105.255497,
              11.450509
            ],
            [
              105.251114,
              11.453531
            ],
            [
              105.249364,
              11.456013
            ],
            [
              105.246071,
              11.455876
            ],
            [
              105.244674,
              11.456539
            ],
            [
              105.245328,
              11.461121
            ],
            [
              105.242914,
              11.461124
            ],
            [
              105.241265,
              11.463678
            ],
            [
              105.23998,
              11.463352
            ],
            [
              105.238727,
              11.461945
            ],
            [
              105.23694,
              11.462322
            ],
            [
              105.23461,
              11.467814
            ],
            [
              105.231005,
              11.471236
            ],
            [
              105.228173,
              11.472353
            ],
            [
              105.226239,
              11.474221
            ],
            [
              105.227782,
              11.476904
            ],
            [
              105.226548,
              11.480028
            ],
            [
              105.227948,
              11.485035
            ],
            [
              105.227452,
              11.486169
            ],
            [
              105.217924,
              11.490583
            ],
            [
              105.216499,
              11.487853
            ],
            [
              105.215252,
              11.487305
            ],
            [
              105.213408,
              11.48787
            ],
            [
              105.212979,
              11.489152
            ],
            [
              105.213471,
              11.490906
            ],
            [
              105.210572,
              11.497702
            ],
            [
              105.212218,
              11.498299
            ],
            [
              105.212744,
              11.49956
            ],
            [
              105.213041,
              11.502377
            ],
            [
              105.212438,
              11.504943
            ],
            [
              105.209648,
              11.507668
            ],
            [
              105.205882,
              11.509529
            ],
            [
              105.205129,
              11.51058
            ],
            [
              105.201582,
              11.518488
            ],
            [
              105.199949,
              11.52021
            ],
            [
              105.199737,
              11.523111
            ],
            [
              105.198286,
              11.523618
            ],
            [
              105.19613,
              11.521597
            ],
            [
              105.192836,
              11.520884
            ],
            [
              105.18833,
              11.521421
            ],
            [
              105.185806,
              11.519038
            ],
            [
              105.177597,
              11.520258
            ],
            [
              105.175069,
              11.522144
            ],
            [
              105.172589,
              11.525594
            ],
            [
              105.168044,
              11.529088
            ],
            [
              105.158797,
              11.532822
            ],
            [
              105.15262,
              11.532029
            ],
            [
              105.145893,
              11.527526
            ],
            [
              105.144715,
              11.527526
            ],
            [
              105.141178,
              11.529861
            ],
            [
              105.138046,
              11.529861
            ],
            [
              105.137956,
              11.531437
            ],
            [
              105.136918,
              11.532583
            ],
            [
              105.131132,
              11.534443
            ],
            [
              105.128757,
              11.536758
            ],
            [
              105.129648,
              11.541321
            ],
            [
              105.131313,
              11.543589
            ],
            [
              105.130002,
              11.547164
            ],
            [
              105.131351,
              11.547812
            ],
            [
              105.134467,
              11.547416
            ],
            [
              105.13534,
              11.548359
            ],
            [
              105.135385,
              11.549898
            ],
            [
              105.132574,
              11.553262
            ],
            [
              105.129991,
              11.554609
            ],
            [
              105.124308,
              11.553345
            ],
            [
              105.114294,
              11.571719
            ],
            [
              105.114344,
              11.573191
            ],
            [
              105.118073,
              11.574666
            ],
            [
              105.118889,
              11.577061
            ],
            [
              105.11653,
              11.579997
            ],
            [
              105.118075,
              11.582734
            ],
            [
              105.118069,
              11.585379
            ],
            [
              105.114906,
              11.590594
            ],
            [
              105.112576,
              11.596818
            ],
            [
              105.11335,
              11.603918
            ],
            [
              105.111383,
              11.608294
            ],
            [
              105.111552,
              11.609564
            ],
            [
              105.113443,
              11.611453
            ],
            [
              105.11326,
              11.613381
            ],
            [
              105.1089,
              11.616411
            ],
            [
              105.103995,
              11.622164
            ],
            [
              105.105881,
              11.627881
            ],
            [
              105.112601,
              11.632385
            ],
            [
              105.113252,
              11.634495
            ],
            [
              105.111222,
              11.639426
            ],
            [
              105.111273,
              11.641479
            ],
            [
              105.11244,
              11.642245
            ],
            [
              105.11726,
              11.642809
            ],
            [
              105.121324,
              11.645678
            ],
            [
              105.130469,
              11.648939
            ],
            [
              105.132338,
              11.650253
            ],
            [
              105.132667,
              11.654195
            ],
            [
              105.13077,
              11.660456
            ],
            [
              105.124217,
              11.663694
            ],
            [
              105.121461,
              11.668109
            ],
            [
              105.121847,
              11.670597
            ],
            [
              105.125354,
              11.672877
            ],
            [
              105.124991,
              11.674743
            ],
            [
              105.12657,
              11.676765
            ],
            [
              105.12769,
              11.680125
            ],
            [
              105.126575,
              11.690131
            ],
            [
              105.126974,
              11.692018
            ],
            [
              105.129748,
              11.695981
            ],
            [
              105.131751,
              11.697018
            ],
            [
              105.134237,
              11.700323
            ],
            [
              105.138024,
              11.701349
            ],
            [
              105.144115,
              11.699111
            ],
            [
              105.146259,
              11.699307
            ],
            [
              105.14811,
              11.701432
            ],
            [
              105.147471,
              11.705953
            ],
            [
              105.147925,
              11.706754
            ],
            [
              105.149511,
              11.707378
            ],
            [
              105.154131,
              11.706757
            ],
            [
              105.155981,
              11.707747
            ],
            [
              105.157501,
              11.711577
            ],
            [
              105.157603,
              11.717291
            ],
            [
              105.154006,
              11.726193
            ],
            [
              105.154905,
              11.727802
            ],
            [
              105.159221,
              11.730307
            ],
            [
              105.160194,
              11.732838
            ],
            [
              105.160137,
              11.735522
            ],
            [
              105.150443,
              11.734217
            ],
            [
              105.14383,
              11.73456
            ],
            [
              105.125634,
              11.741442
            ],
            [
              105.12099,
              11.741922
            ],
            [
              105.112633,
              11.739524
            ],
            [
              105.106985,
              11.734627
            ],
            [
              105.101541,
              11.734448
            ],
            [
              105.098166,
              11.735302
            ],
            [
              105.095987,
              11.737001
            ],
            [
              105.090253,
              11.747803
            ],
            [
              105.087951,
              11.75035
            ],
            [
              105.082584,
              11.75094
            ],
            [
              105.05637,
              11.751127
            ],
            [
              105.051495,
              11.751353
            ],
            [
              105.049459,
              11.752116
            ],
            [
              105.048633,
              11.758121
            ],
            [
              105.048876,
              11.768622
            ],
            [
              105.046677,
              11.77506
            ],
            [
              105.048579,
              11.779454
            ],
            [
              105.049006,
              11.785718
            ],
            [
              105.051066,
              11.788573
            ],
            [
              105.049617,
              11.792443
            ],
            [
              105.051715,
              11.793419
            ],
            [
              105.051601,
              11.796688
            ],
            [
              105.052326,
              11.800144
            ],
            [
              105.053432,
              11.801759
            ],
            [
              105.055111,
              11.802848
            ],
            [
              105.057932,
              11.801232
            ],
            [
              105.058771,
              11.80142
            ],
            [
              105.061442,
              11.805251
            ],
            [
              105.066454,
              11.808152
            ],
            [
              105.06677,
              11.812205
            ],
            [
              105.065062,
              11.816638
            ],
            [
              105.048424,
              11.832493
            ],
            [
              105.042247,
              11.841848
            ],
            [
              105.038751,
              11.849446
            ],
            [
              105.037395,
              11.850339
            ],
            [
              105.013891,
              11.85273
            ],
            [
              105.006498,
              11.853989
            ],
            [
              105.004,
              11.855106
            ],
            [
              105.004581,
              11.857915
            ],
            [
              104.99836,
              11.866523
            ],
            [
              104.998014,
              11.873187
            ],
            [
              104.994558,
              11.874419
            ],
            [
              104.99449,
              11.876817
            ],
            [
              104.991807,
              11.879943
            ],
            [
              104.988997,
              11.879613
            ],
            [
              104.986529,
              11.881052
            ],
            [
              104.984146,
              11.875857
            ],
            [
              104.975323,
              11.864813
            ],
            [
              104.972371,
              11.861992
            ],
            [
              104.9631,
              11.857185
            ],
            [
              104.963333,
              11.858353
            ],
            [
              104.958887,
              11.86236
            ],
            [
              104.958055,
              11.864566
            ],
            [
              104.959008,
              11.865494
            ],
            [
              104.9574,
              11.868125
            ],
            [
              104.9572,
              11.869533
            ],
            [
              104.95783,
              11.869466
            ],
            [
              104.958054,
              11.871478
            ],
            [
              104.956757,
              11.871729
            ],
            [
              104.957898,
              11.874492
            ],
            [
              104.956202,
              11.875398
            ],
            [
              104.954868,
              11.87508
            ],
            [
              104.95394,
              11.870728
            ],
            [
              104.952885,
              11.869221
            ],
            [
              104.953889,
              11.866045
            ],
            [
              104.953642,
              11.863622
            ],
            [
              104.951414,
              11.86166
            ],
            [
              104.949752,
              11.860863
            ],
            [
              104.949319,
              11.861419
            ],
            [
              104.946649,
              11.85514
            ],
            [
              104.944409,
              11.855041
            ],
            [
              104.945741,
              11.84802
            ],
            [
              104.944622,
              11.846163
            ],
            [
              104.944434,
              11.843947
            ],
            [
              104.941075,
              11.843302
            ],
            [
              104.940842,
              11.84269
            ],
            [
              104.942652,
              11.840759
            ],
            [
              104.940912,
              11.838333
            ],
            [
              104.939834,
              11.833864
            ],
            [
              104.93651,
              11.833287
            ],
            [
              104.934779,
              11.832035
            ],
            [
              104.932925,
              11.831719
            ],
            [
              104.93159,
              11.830373
            ],
            [
              104.928676,
              11.824063
            ],
            [
              104.922477,
              11.819681
            ],
            [
              104.921155,
              11.817909
            ],
            [
              104.920863,
              11.81225
            ],
            [
              104.918845,
              11.809489
            ],
            [
              104.910978,
              11.808063
            ],
            [
              104.910119,
              11.807154
            ],
            [
              104.903992,
              11.808259
            ],
            [
              104.902632,
              11.809736
            ],
            [
              104.900627,
              11.815216
            ],
            [
              104.891856,
              11.820857
            ],
            [
              104.891137,
              11.822472
            ],
            [
              104.887921,
              11.821876
            ],
            [
              104.884667,
              11.825075
            ],
            [
              104.883502,
              11.824145
            ],
            [
              104.883523,
              11.821988
            ],
            [
              104.882678,
              11.820378
            ],
            [
              104.882052,
              11.819618
            ],
            [
              104.880709,
              11.819855
            ],
            [
              104.879514,
              11.818497
            ],
            [
              104.875214,
              11.820182
            ],
            [
              104.875398,
              11.820779
            ],
            [
              104.872928,
              11.820162
            ],
            [
              104.869711,
              11.822343
            ],
            [
              104.868463,
              11.822316
            ],
            [
              104.868943,
              11.824819
            ],
            [
              104.865662,
              11.828275
            ],
            [
              104.861653,
              11.827584
            ],
            [
              104.860015,
              11.82868
            ],
            [
              104.857914,
              11.831772
            ],
            [
              104.855096,
              11.83322
            ],
            [
              104.852763,
              11.833338
            ],
            [
              104.852428,
              11.832626
            ],
            [
              104.852493,
              11.828334
            ],
            [
              104.851746,
              11.825806
            ],
            [
              104.847445,
              11.825022
            ],
            [
              104.846667,
              11.824262
            ],
            [
              104.842471,
              11.823697
            ],
            [
              104.839926,
              11.824169
            ],
            [
              104.837808,
              11.823026
            ],
            [
              104.835924,
              11.824523
            ],
            [
              104.833315,
              11.823527
            ],
            [
              104.832678,
              11.825269
            ],
            [
              104.831177,
              11.82637
            ],
            [
              104.832379,
              11.82971
            ],
            [
              104.831959,
              11.832279
            ],
            [
              104.833678,
              11.836566
            ],
            [
              104.831481,
              11.840071
            ],
            [
              104.831432,
              11.843124
            ],
            [
              104.831781,
              11.846121
            ],
            [
              104.833375,
              11.849764
            ],
            [
              104.836777,
              11.869
            ],
            [
              104.831937,
              11.873965
            ],
            [
              104.827591,
              11.880652
            ],
            [
              104.814319,
              11.892817
            ],
            [
              104.810279,
              11.894313
            ],
            [
              104.802514,
              11.891562
            ],
            [
              104.788119,
              11.889257
            ],
            [
              104.782937,
              11.885988
            ],
            [
              104.781958,
              11.884649
            ],
            [
              104.780859,
              11.88038
            ],
            [
              104.779776,
              11.879973
            ],
            [
              104.772041,
              11.88736
            ],
            [
              104.76395,
              11.880957
            ],
            [
              104.768472,
              11.870503
            ],
            [
              104.771614,
              11.867708
            ],
            [
              104.771893,
              11.866575
            ],
            [
              104.771756,
              11.863879
            ],
            [
              104.770447,
              11.864073
            ],
            [
              104.769092,
              11.861974
            ],
            [
              104.769229,
              11.859831
            ],
            [
              104.770834,
              11.859087
            ],
            [
              104.772275,
              11.857173
            ],
            [
              104.769711,
              11.852241
            ],
            [
              104.77268,
              11.850306
            ],
            [
              104.7753,
              11.849561
            ],
            [
              104.775729,
              11.847431
            ],
            [
              104.778404,
              11.84328
            ],
            [
              104.78235,
              11.839123
            ],
            [
              104.780941,
              11.837819
            ],
            [
              104.779131,
              11.838079
            ],
            [
              104.777006,
              11.835892
            ],
            [
              104.773036,
              11.835238
            ],
            [
              104.773299,
              11.834541
            ],
            [
              104.772671,
              11.834398
            ],
            [
              104.771963,
              11.835297
            ],
            [
              104.770412,
              11.83401
            ],
            [
              104.769239,
              11.835938
            ],
            [
              104.768352,
              11.836011
            ],
            [
              104.765065,
              11.831084
            ],
            [
              104.757157,
              11.827618
            ],
            [
              104.754324,
              11.827502
            ],
            [
              104.752664,
              11.828611
            ],
            [
              104.752351,
              11.830307
            ],
            [
              104.750395,
              11.829478
            ],
            [
              104.75072,
              11.831598
            ],
            [
              104.743801,
              11.830578
            ],
            [
              104.742354,
              11.829552
            ],
            [
              104.740357,
              11.829747
            ],
            [
              104.739932,
              11.827694
            ],
            [
              104.739282,
              11.828943
            ],
            [
              104.73791,
              11.82852
            ],
            [
              104.738347,
              11.827507
            ],
            [
              104.737807,
              11.826888
            ],
            [
              104.74649,
              11.823642
            ],
            [
              104.751497,
              11.82353
            ],
            [
              104.751206,
              11.800277
            ],
            [
              104.728849,
              11.73337
            ],
            [
              104.719448,
              11.711627
            ],
            [
              104.702937,
              11.685761
            ],
            [
              104.699158,
              11.677587
            ],
            [
              104.696134,
              11.669017
            ],
            [
              104.694467,
              11.656276
            ],
            [
              104.688979,
              11.645092
            ],
            [
              104.687352,
              11.636435
            ],
            [
              104.687564,
              11.63211
            ],
            [
              104.683485,
              11.619752
            ],
            [
              104.679069,
              11.596919
            ],
            [
              104.679198,
              11.580101
            ],
            [
              104.68067,
              11.562438
            ],
            [
              104.671315,
              11.527651
            ],
            [
              104.663899,
              11.493233
            ],
            [
              104.662743,
              11.474669
            ],
            [
              104.658159,
              11.447974
            ],
            [
              104.656215,
              11.43571
            ]
          ],
          [
            [
              104.720405,
              11.565597
            ],
            [
              104.720996,
              11.567751
            ],
            [
              104.722742,
              11.56727
            ],
            [
              104.723042,
              11.571736
            ],
            [
              104.723858,
              11.572061
            ],
            [
              104.723884,
              11.573869
            ],
            [
              104.726602,
              11.573869
            ],
            [
              104.726527,
              11.576332
            ],
            [
              104.727998,
              11.576405
            ],
            [
              104.728726,
              11.575685
            ],
            [
              104.729356,
              11.577103
            ],
            [
              104.733247,
              11.579426
            ],
            [
              104.733031,
              11.581736
            ],
            [
              104.735452,
              11.582498
            ],
            [
              104.732833,
              11.586446
            ],
            [
              104.731558,
              11.590304
            ],
            [
              104.731592,
              11.591899
            ],
            [
              104.735726,
              11.600331
            ],
            [
              104.734645,
              11.60302
            ],
            [
              104.73443,
              11.606805
            ],
            [
              104.739245,
              11.619517
            ],
            [
              104.741834,
              11.629448
            ],
            [
              104.744626,
              11.634991
            ],
            [
              104.744157,
              11.645521
            ],
            [
              104.747807,
              11.651965
            ],
            [
              104.747028,
              11.658962
            ],
            [
              104.752693,
              11.666045
            ],
            [
              104.780056,
              11.669129
            ],
            [
              104.780216,
              11.671339
            ],
            [
              104.794244,
              11.672401
            ],
            [
              104.797049,
              11.671512
            ],
            [
              104.800534,
              11.672612
            ],
            [
              104.812059,
              11.673209
            ],
            [
              104.81369,
              11.673924
            ],
            [
              104.811222,
              11.675636
            ],
            [
              104.809937,
              11.678547
            ],
            [
              104.811201,
              11.681502
            ],
            [
              104.816958,
              11.688304
            ],
            [
              104.817087,
              11.689316
            ],
            [
              104.814551,
              11.691389
            ],
            [
              104.815877,
              11.699622
            ],
            [
              104.815282,
              11.703799
            ],
            [
              104.818208,
              11.708442
            ],
            [
              104.822102,
              11.708828
            ],
            [
              104.82315,
              11.707893
            ],
            [
              104.824193,
              11.708703
            ],
            [
              104.823292,
              11.711876
            ],
            [
              104.821341,
              11.713517
            ],
            [
              104.826418,
              11.717996
            ],
            [
              104.828727,
              11.718177
            ],
            [
              104.830092,
              11.717912
            ],
            [
              104.831243,
              11.715339
            ],
            [
              104.832916,
              11.714498
            ],
            [
              104.833639,
              11.712107
            ],
            [
              104.83471,
              11.711288
            ],
            [
              104.835598,
              11.711199
            ],
            [
              104.838452,
              11.713427
            ],
            [
              104.840888,
              11.712948
            ],
            [
              104.842551,
              11.704895
            ],
            [
              104.851748,
              11.68368
            ],
            [
              104.862427,
              11.667028
            ],
            [
              104.867064,
              11.667127
            ],
            [
              104.866466,
              11.669007
            ],
            [
              104.868196,
              11.670352
            ],
            [
              104.866191,
              11.670526
            ],
            [
              104.864165,
              11.69229
            ],
            [
              104.869397,
              11.707275
            ],
            [
              104.878251,
              11.704345
            ],
            [
              104.878065,
              11.696502
            ],
            [
              104.88071,
              11.696181
            ],
            [
              104.895915,
              11.701019
            ],
            [
              104.905725,
              11.6952
            ],
            [
              104.908855,
              11.699344
            ],
            [
              104.911461,
              11.710001
            ],
            [
              104.916554,
              11.717791
            ],
            [
              104.91704,
              11.723767
            ],
            [
              104.921297,
              11.724897
            ],
            [
              104.926078,
              11.727486
            ],
            [
              104.935193,
              11.734952
            ],
            [
              104.93945,
              11.734906
            ],
            [
              104.945325,
              11.733515
            ],
            [
              104.947214,
              11.730826
            ],
            [
              104.951561,
              11.728666
            ],
            [
              104.963101,
              11.718838
            ],
            [
              104.967335,
              11.716072
            ],
            [
              104.967964,
              11.7146
            ],
            [
              104.967215,
              11.705432
            ],
            [
              104.963881,
              11.693514
            ],
            [
              104.951728,
              11.668695
            ],
            [
              104.947246,
              11.655165
            ],
            [
              104.945941,
              11.654335
            ],
            [
              104.937557,
              11.642352
            ],
            [
              104.932579,
              11.626435
            ],
            [
              104.933695,
              11.622135
            ],
            [
              104.932824,
              11.6208
            ],
            [
              104.943753,
              11.586732
            ],
            [
              104.946711,
              11.561886
            ],
            [
              104.955485,
              11.555595
            ],
            [
              104.964802,
              11.551292
            ],
            [
              104.96757,
              11.548929
            ],
            [
              104.979515,
              11.544974
            ],
            [
              104.994342,
              11.543124
            ],
            [
              105.0037,
              11.543602
            ],
            [
              105.011277,
              11.541435
            ],
            [
              105.013409,
              11.540098
            ],
            [
              105.025746,
              11.527832
            ],
            [
              105.031012,
              11.525971
            ],
            [
              105.037376,
              11.524863
            ],
            [
              105.028859,
              11.516523
            ],
            [
              105.023998,
              11.501691
            ],
            [
              105.015253,
              11.466175
            ],
            [
              105.003446,
              11.465824
            ],
            [
              104.994308,
              11.464714
            ],
            [
              104.98735,
              11.46298
            ],
            [
              104.975742,
              11.462392
            ],
            [
              104.966998,
              11.464039
            ],
            [
              104.961942,
              11.466952
            ],
            [
              104.953203,
              11.479883
            ],
            [
              104.945926,
              11.494509
            ],
            [
              104.921373,
              11.484444
            ],
            [
              104.919406,
              11.475556
            ],
            [
              104.919039,
              11.466472
            ],
            [
              104.923473,
              11.452842
            ],
            [
              104.921951,
              11.451749
            ],
            [
              104.923054,
              11.448804
            ],
            [
              104.923035,
              11.429022
            ],
            [
              104.917576,
              11.428889
            ],
            [
              104.9167,
              11.430031
            ],
            [
              104.913521,
              11.430257
            ],
            [
              104.912564,
              11.431094
            ],
            [
              104.913086,
              11.432393
            ],
            [
              104.912083,
              11.433104
            ],
            [
              104.907922,
              11.43535
            ],
            [
              104.905685,
              11.435727
            ],
            [
              104.901447,
              11.434986
            ],
            [
              104.896579,
              11.435485
            ],
            [
              104.88861,
              11.430203
            ],
            [
              104.887247,
              11.4305
            ],
            [
              104.885167,
              11.434264
            ],
            [
              104.882766,
              11.435892
            ],
            [
              104.88056,
              11.436238
            ],
            [
              104.872311,
              11.42009
            ],
            [
              104.868149,
              11.420085
            ],
            [
              104.868091,
              11.427927
            ],
            [
              104.846527,
              11.427889
            ],
            [
              104.844954,
              11.428984
            ],
            [
              104.843973,
              11.427817
            ],
            [
              104.829724,
              11.427819
            ],
            [
              104.828352,
              11.432366
            ],
            [
              104.822104,
              11.432645
            ],
            [
              104.822175,
              11.435415
            ],
            [
              104.819241,
              11.436707
            ],
            [
              104.81799,
              11.432403
            ],
            [
              104.816016,
              11.430809
            ],
            [
              104.810619,
              11.430005
            ],
            [
              104.804839,
              11.431593
            ],
            [
              104.801513,
              11.434153
            ],
            [
              104.800986,
              11.436323
            ],
            [
              104.797584,
              11.440294
            ],
            [
              104.797686,
              11.441901
            ],
            [
              104.799119,
              11.443049
            ],
            [
              104.799354,
              11.444831
            ],
            [
              104.797117,
              11.444909
            ],
            [
              104.794907,
              11.443502
            ],
            [
              104.793162,
              11.44349
            ],
            [
              104.792271,
              11.444921
            ],
            [
              104.792332,
              11.446477
            ],
            [
              104.790947,
              11.447613
            ],
            [
              104.788668,
              11.444967
            ],
            [
              104.787803,
              11.444982
            ],
            [
              104.786361,
              11.447007
            ],
            [
              104.783614,
              11.447581
            ],
            [
              104.78231,
              11.449254
            ],
            [
              104.782268,
              11.450276
            ],
            [
              104.785145,
              11.454287
            ],
            [
              104.784514,
              11.455446
            ],
            [
              104.78354,
              11.45609
            ],
            [
              104.779671,
              11.455798
            ],
            [
              104.777815,
              11.457801
            ],
            [
              104.774252,
              11.457738
            ],
            [
              104.774684,
              11.462153
            ],
            [
              104.775779,
              11.463485
            ],
            [
              104.778826,
              11.464517
            ],
            [
              104.778452,
              11.466332
            ],
            [
              104.777333,
              11.466955
            ],
            [
              104.771381,
              11.461873
            ],
            [
              104.769186,
              11.461959
            ],
            [
              104.765718,
              11.463847
            ],
            [
              104.764354,
              11.463543
            ],
            [
              104.763616,
              11.46273
            ],
            [
              104.765507,
              11.459606
            ],
            [
              104.764097,
              11.457534
            ],
            [
              104.760309,
              11.457266
            ],
            [
              104.758327,
              11.458955
            ],
            [
              104.75688,
              11.45891
            ],
            [
              104.755641,
              11.457848
            ],
            [
              104.755744,
              11.456513
            ],
            [
              104.76024,
              11.452619
            ],
            [
              104.760253,
              11.451394
            ],
            [
              104.759384,
              11.450547
            ],
            [
              104.755159,
              11.451166
            ],
            [
              104.754388,
              11.451885
            ],
            [
              104.753812,
              11.456624
            ],
            [
              104.751634,
              11.456588
            ],
            [
              104.747907,
              11.455011
            ],
            [
              104.744318,
              11.454864
            ],
            [
              104.744868,
              11.477996
            ],
            [
              104.746227,
              11.478926
            ],
            [
              104.746305,
              11.483748
            ],
            [
              104.748341,
              11.48448
            ],
            [
              104.748512,
              11.48639
            ],
            [
              104.7496,
              11.486406
            ],
            [
              104.749882,
              11.489135
            ],
            [
              104.758502,
              11.488973
            ],
            [
              104.758892,
              11.491469
            ],
            [
              104.762215,
              11.491233
            ],
            [
              104.763065,
              11.496034
            ],
            [
              104.765729,
              11.498925
            ],
            [
              104.764173,
              11.499906
            ],
            [
              104.764348,
              11.50371
            ],
            [
              104.767241,
              11.503986
            ],
            [
              104.767763,
              11.50747
            ],
            [
              104.766344,
              11.508874
            ],
            [
              104.766108,
              11.510241
            ],
            [
              104.76697,
              11.511584
            ],
            [
              104.76373,
              11.515632
            ],
            [
              104.762953,
              11.520964
            ],
            [
              104.763422,
              11.522634
            ],
            [
              104.76305,
              11.52335
            ],
            [
              104.761548,
              11.523214
            ],
            [
              104.759949,
              11.524318
            ],
            [
              104.759919,
              11.527073
            ],
            [
              104.755231,
              11.526408
            ],
            [
              104.753879,
              11.527255
            ],
            [
              104.752332,
              11.526399
            ],
            [
              104.751034,
              11.526714
            ],
            [
              104.751069,
              11.528305
            ],
            [
              104.746163,
              11.527976
            ],
            [
              104.745359,
              11.529393
            ],
            [
              104.74483,
              11.533686
            ],
            [
              104.745981,
              11.535103
            ],
            [
              104.745701,
              11.538583
            ],
            [
              104.746442,
              11.538709
            ],
            [
              104.747407,
              11.541989
            ],
            [
              104.748461,
              11.54249
            ],
            [
              104.74848,
              11.543818
            ],
            [
              104.749457,
              11.544028
            ],
            [
              104.74965,
              11.547549
            ],
            [
              104.747912,
              11.548474
            ],
            [
              104.745015,
              11.547686
            ],
            [
              104.743159,
              11.54797
            ],
            [
              104.741818,
              11.549042
            ],
            [
              104.740101,
              11.546514
            ],
            [
              104.734179,
              11.546015
            ],
            [
              104.731417,
              11.543302
            ],
            [
              104.72925,
              11.5442
            ],
            [
              104.726701,
              11.54407
            ],
            [
              104.723911,
              11.542493
            ],
            [
              104.721937,
              11.54325
            ],
            [
              104.72272,
              11.547054
            ],
            [
              104.72543,
              11.550522
            ],
            [
              104.722967,
              11.555202
            ],
            [
              104.723016,
              11.559528
            ],
            [
              104.721283,
              11.560825
            ],
            [
              104.721669,
              11.56278
            ],
            [
              104.723375,
              11.564231
            ],
            [
              104.722881,
              11.564925
            ],
            [
              104.720918,
              11.564746
            ],
            [
              104.720405,
              11.565597
            ]
          ]
        ]
      }
    }
  ]
}
