{
  "type": "FeatureCollection",
  "features": [
    {
      "type": "Feature",
      "properties": {
        "geo_id": "geo_bn_0004",
        "name": "Tutong",
        "boundary_level": "district",
        "osm_type": "relation",
        "osm_id": 3853886,
        "source_checked_at": "2026-10-01"
      },
      "geometry": {
        "type": "Polygon",
        "coordinates": [
          [
            [
              114.37871,
              4.856956
            ],
            [
              114.518094,
              4.707502
            ],
            [
              114.522058,
              4.708684
            ],
            [
              114.523423,
              4.708158
            ],
            [
              114.526036,
              4.704006
            ],
            [
              114.523632,
              4.694847
            ],
            [
              114.522211,
              4.686135
            ],
            [
              114.526615,
              4.680637
            ],
            [
              114.53711,
              4.674084
            ],
            [
              114.538339,
              4.663851
            ],
            [
              114.533039,
              4.635215
            ],
            [
              114.533045,
              4.618616
            ],
            [
              114.54105,
              4.601812
            ],
            [
              114.559447,
              4.59941
            ],
            [
              114.582495,
              4.59804
            ],
            [
              114.595517,
              4.577731
            ],
            [
              114.590815,
              4.54732
            ],
            [
              114.596809,
              4.522334
            ],
            [
              114.62797,
              4.503033
            ],
            [
              114.650966,
              4.480166
            ],
            [
              114.672515,
              4.453088
            ],
            [
              114.696686,
              4.429664
            ],
            [
              114.715983,
              4.405866
            ],
            [
              114.731685,
              4.376607
            ],
            [
              114.739488,
              4.346066
            ],
            [
              114.758143,
              4.320021
            ],
            [
              114.794163,
              4.300239
            ],
            [
              114.826433,
              4.273493
            ],
            [
              114.828499,
              4.276276
            ],
            [
              114.828669,
              4.278202
            ],
            [
              114.830934,
              4.280439
            ],
            [
              114.831981,
              4.283015
            ],
            [
              114.834726,
              4.285241
            ],
            [
              114.838636,
              4.291509
            ],
            [
              114.840901,
              4.293605
            ],
            [
              114.843269,
              4.297817
            ],
            [
              114.843761,
              4.300599
            ],
            [
              114.847427,
              4.303629
            ],
            [
              114.848089,
              4.306153
            ],
            [
              114.851236,
              4.307395
            ],
            [
              114.851406,
              4.30898
            ],
            [
              114.85084,
              4.310113
            ],
            [
              114.851895,
              4.312793
            ],
            [
              114.85357,
              4.314116
            ],
            [
              114.855349,
              4.314696
            ],
            [
              114.854914,
              4.316268
            ],
            [
              114.85571,
              4.318154
            ],
            [
              114.860541,
              4.322639
            ],
            [
              114.865877,
              4.33087
            ],
            [
              114.867739,
              4.332463
            ],
            [
              114.870236,
              4.3369
            ],
            [
              114.870434,
              4.33908
            ],
            [
              114.872161,
              4.340581
            ],
            [
              114.872599,
              4.343943
            ],
            [
              114.871896,
              4.345329
            ],
            [
              114.872813,
              4.346895
            ],
            [
              114.873344,
              4.349672
            ],
            [
              114.875123,
              4.350644
            ],
            [
              114.875729,
              4.353266
            ],
            [
              114.877202,
              4.354626
            ],
            [
              114.876805,
              4.358307
            ],
            [
              114.878504,
              4.363347
            ],
            [
              114.878334,
              4.367821
            ],
            [
              114.880175,
              4.37068
            ],
            [
              114.880273,
              4.374431
            ],
            [
              114.879155,
              4.376174
            ],
            [
              114.879977,
              4.377674
            ],
            [
              114.87958,
              4.380534
            ],
            [
              114.880749,
              4.382933
            ],
            [
              114.880854,
              4.384414
            ],
            [
              114.880005,
              4.386396
            ],
            [
              114.87957,
              4.39222
            ],
            [
              114.877825,
              4.394098
            ],
            [
              114.88228,
              4.401693
            ],
            [
              114.881515,
              4.404817
            ],
            [
              114.88261,
              4.4097
            ],
            [
              114.883397,
              4.411022
            ],
            [
              114.882666,
              4.414428
            ],
            [
              114.883516,
              4.416609
            ],
            [
              114.883289,
              4.418676
            ],
            [
              114.883827,
              4.420318
            ],
            [
              114.882836,
              4.425415
            ],
            [
              114.881618,
              4.426101
            ],
            [
              114.877584,
              4.426556
            ],
            [
              114.873489,
              4.424674
            ],
            [
              114.871454,
              4.424792
            ],
            [
              114.868141,
              4.423829
            ],
            [
              114.862761,
              4.421281
            ],
            [
              114.850698,
              4.423008
            ],
            [
              114.847272,
              4.421224
            ],
            [
              114.845686,
              4.421168
            ],
            [
              114.842194,
              4.423164
            ],
            [
              114.839372,
              4.425557
            ],
            [
              114.835554,
              4.426204
            ],
            [
              114.831585,
              4.428332
            ],
            [
              114.829546,
              4.429663
            ],
            [
              114.828498,
              4.431277
            ],
            [
              114.827762,
              4.436656
            ],
            [
              114.826495,
              4.440311
            ],
            [
              114.827446,
              4.442772
            ],
            [
              114.82561,
              4.446057
            ],
            [
              114.826658,
              4.448605
            ],
            [
              114.82527,
              4.450418
            ],
            [
              114.824336,
              4.455429
            ],
            [
              114.82125,
              4.459705
            ],
            [
              114.822071,
              4.461942
            ],
            [
              114.820995,
              4.467039
            ],
            [
              114.821278,
              4.470041
            ],
            [
              114.820485,
              4.471881
            ],
            [
              114.820655,
              4.473467
            ],
            [
              114.818645,
              4.475873
            ],
            [
              114.818079,
              4.478847
            ],
            [
              114.81805,
              4.483434
            ],
            [
              114.818985,
              4.486633
            ],
            [
              114.818333,
              4.490286
            ],
            [
              114.818786,
              4.492325
            ],
            [
              114.81822,
              4.493684
            ],
            [
              114.819608,
              4.496034
            ],
            [
              114.818475,
              4.498328
            ],
            [
              114.819282,
              4.501056
            ],
            [
              114.81885,
              4.507026
            ],
            [
              114.819511,
              4.508551
            ],
            [
              114.818673,
              4.511345
            ],
            [
              114.819918,
              4.513937
            ],
            [
              114.818317,
              4.518967
            ],
            [
              114.818876,
              4.522498
            ],
            [
              114.818241,
              4.524988
            ],
            [
              114.819486,
              4.527554
            ],
            [
              114.818088,
              4.530704
            ],
            [
              114.819918,
              4.535659
            ],
            [
              114.819435,
              4.539444
            ],
            [
              114.817606,
              4.541883
            ],
            [
              114.818469,
              4.545312
            ],
            [
              114.816894,
              4.548056
            ],
            [
              114.818876,
              4.55141
            ],
            [
              114.817403,
              4.555526
            ],
            [
              114.819003,
              4.558066
            ],
            [
              114.816996,
              4.561776
            ],
            [
              114.814887,
              4.563986
            ],
            [
              114.814811,
              4.568686
            ],
            [
              114.817097,
              4.572471
            ],
            [
              114.816666,
              4.580271
            ],
            [
              114.818215,
              4.584056
            ],
            [
              114.813998,
              4.586978
            ],
            [
              114.814277,
              4.588832
            ],
            [
              114.816615,
              4.591475
            ],
            [
              114.816005,
              4.594092
            ],
            [
              114.814633,
              4.595209
            ],
            [
              114.809806,
              4.596505
            ],
            [
              114.808764,
              4.597445
            ],
            [
              114.808561,
              4.599223
            ],
            [
              114.809044,
              4.600417
            ],
            [
              114.811331,
              4.602602
            ],
            [
              114.809578,
              4.604762
            ],
            [
              114.808993,
              4.60654
            ],
            [
              114.809146,
              4.609157
            ],
            [
              114.808561,
              4.611571
            ],
            [
              114.809654,
              4.615356
            ],
            [
              114.80813,
              4.617719
            ],
            [
              114.80818,
              4.619827
            ],
            [
              114.807342,
              4.622825
            ],
            [
              114.807748,
              4.626001
            ],
            [
              114.806529,
              4.627805
            ],
            [
              114.801651,
              4.632378
            ],
            [
              114.800076,
              4.635427
            ],
            [
              114.799415,
              4.639288
            ],
            [
              114.800864,
              4.643759
            ],
            [
              114.800305,
              4.648815
            ],
            [
              114.800661,
              4.657656
            ],
            [
              114.797587,
              4.659791
            ],
            [
              114.797332,
              4.664262
            ],
            [
              114.799721,
              4.667819
            ],
            [
              114.799594,
              4.670385
            ],
            [
              114.802134,
              4.674272
            ],
            [
              114.802287,
              4.675364
            ],
            [
              114.801067,
              4.676736
            ],
            [
              114.797637,
              4.677981
            ],
            [
              114.790803,
              4.677854
            ],
            [
              114.789558,
              4.678311
            ],
            [
              114.788161,
              4.680064
            ],
            [
              114.785519,
              4.691293
            ],
            [
              114.781962,
              4.692539
            ],
            [
              114.778151,
              4.692919
            ],
            [
              114.775813,
              4.694419
            ],
            [
              114.775077,
              4.696096
            ],
            [
              114.775483,
              4.700237
            ],
            [
              114.777592,
              4.704581
            ],
            [
              114.781733,
              4.707909
            ],
            [
              114.783232,
              4.713346
            ],
            [
              114.783054,
              4.716801
            ],
            [
              114.782292,
              4.718478
            ],
            [
              114.781123,
              4.719189
            ],
            [
              114.770732,
              4.721374
            ],
            [
              114.76964,
              4.722746
            ],
            [
              114.769741,
              4.723991
            ],
            [
              114.770773,
              4.725707
            ],
            [
              114.775839,
              4.728132
            ],
            [
              114.778837,
              4.731536
            ],
            [
              114.783079,
              4.734331
            ],
            [
              114.779342,
              4.746628
            ],
            [
              114.772096,
              4.766307
            ],
            [
              114.774753,
              4.770721
            ],
            [
              114.7757,
              4.780503
            ],
            [
              114.778425,
              4.79425
            ],
            [
              114.79278,
              4.823961
            ],
            [
              114.796938,
              4.837525
            ],
            [
              114.80428,
              4.856462
            ],
            [
              114.80396,
              4.858705
            ],
            [
              114.801204,
              4.863024
            ],
            [
              114.799104,
              4.873209
            ],
            [
              114.793759,
              4.882846
            ],
            [
              114.795276,
              4.887752
            ],
            [
              114.793546,
              4.89184
            ],
            [
              114.776421,
              4.908956
            ],
            [
              114.66109,
              5.092284
            ],
            [
              114.652849,
              5.082772
            ],
            [
              114.645432,
              5.073054
            ],
            [
              114.633674,
              5.054602
            ],
            [
              114.592586,
              5.029161
            ],
            [
              114.56486,
              5.011165
            ],
            [
              114.550978,
              5.001087
            ],
            [
              114.535092,
              4.987301
            ],
            [
              114.518032,
              4.969818
            ],
            [
              114.510078,
              4.962718
            ],
            [
              114.485167,
              4.942379
            ],
            [
              114.471697,
              4.932906
            ],
            [
              114.459626,
              4.922871
            ],
            [
              114.450556,
              4.914181
            ],
            [
              114.437665,
              4.899686
            ],
            [
              114.432292,
              4.894641
            ],
            [
              114.397558,
              4.867879
            ],
            [
              114.379534,
              4.857445
            ],
            [
              114.37871,
              4.856956
            ]
          ]
        ]
      }
    }
  ]
}
