{
  "type": "FeatureCollection",
  "features": [
    {
      "type": "Feature",
      "properties": {
        "geo_id": "geo_kh_0031",
        "name": "Banteay Meanchey",
        "boundary_level": "province",
        "osm_type": "relation",
        "osm_id": 2200390,
        "source_checked_at": "2026-10-01"
      },
      "geometry": {
        "type": "Polygon",
        "coordinates": [
          [
            [
              102.333828,
              13.537473
            ],
            [
              102.335588,
              13.537342
            ],
            [
              102.335774,
              13.535962
            ],
            [
              102.338652,
              13.532647
            ],
            [
              102.341412,
              13.532759
            ],
            [
              102.345244,
              13.529713
            ],
            [
              102.346416,
              13.529575
            ],
            [
              102.346957,
              13.528432
            ],
            [
              102.346476,
              13.527345
            ],
            [
              102.347597,
              13.52668
            ],
            [
              102.347993,
              13.523964
            ],
            [
              102.350468,
              13.523814
            ],
            [
              102.349702,
              13.52227
            ],
            [
              102.350979,
              13.520845
            ],
            [
              102.350987,
              13.519282
            ],
            [
              102.352905,
              13.518585
            ],
            [
              102.354998,
              13.515371
            ],
            [
              102.357113,
              13.514386
            ],
            [
              102.357463,
              13.513015
            ],
            [
              102.35893,
              13.511771
            ],
            [
              102.358745,
              13.510877
            ],
            [
              102.357521,
              13.51044
            ],
            [
              102.359709,
              13.507398
            ],
            [
              102.360992,
              13.507845
            ],
            [
              102.362965,
              13.506757
            ],
            [
              102.363293,
              13.504318
            ],
            [
              102.361842,
              13.5047
            ],
            [
              102.360564,
              13.502461
            ],
            [
              102.36057,
              13.500155
            ],
            [
              102.362232,
              13.498419
            ],
            [
              102.362097,
              13.497103
            ],
            [
              102.361202,
              13.497094
            ],
            [
              102.361593,
              13.495599
            ],
            [
              102.360926,
              13.492854
            ],
            [
              102.362953,
              13.49159
            ],
            [
              102.362445,
              13.489936
            ],
            [
              102.360715,
              13.488367
            ],
            [
              102.361334,
              13.486637
            ],
            [
              102.360833,
              13.483778
            ],
            [
              102.359284,
              13.483507
            ],
            [
              102.358894,
              13.481544
            ],
            [
              102.357039,
              13.479263
            ],
            [
              102.358009,
              13.47788
            ],
            [
              102.357961,
              13.476114
            ],
            [
              102.686813,
              13.479363
            ],
            [
              102.687723,
              13.380313
            ],
            [
              102.70132,
              13.390814
            ],
            [
              102.71478,
              13.39926
            ],
            [
              102.727387,
              13.405234
            ],
            [
              102.735619,
              13.407543
            ],
            [
              102.744975,
              13.412292
            ],
            [
              102.746274,
              13.410886
            ],
            [
              102.849192,
              13.382579
            ],
            [
              102.860038,
              13.387744
            ],
            [
              102.921206,
              13.369504
            ],
            [
              102.92164,
              13.368995
            ],
            [
              102.920716,
              13.365918
            ],
            [
              102.922356,
              13.364918
            ],
            [
              102.924815,
              13.365615
            ],
            [
              102.983983,
              13.361072
            ],
            [
              102.986805,
              13.37611
            ],
            [
              102.987502,
              13.378312
            ],
            [
              102.988714,
              13.379447
            ],
            [
              102.992198,
              13.381048
            ],
            [
              102.996376,
              13.379912
            ],
            [
              102.996362,
              13.377863
            ],
            [
              102.998547,
              13.376254
            ],
            [
              103.000161,
              13.375568
            ],
            [
              103.002016,
              13.375787
            ],
            [
              103.003875,
              13.377017
            ],
            [
              103.004245,
              13.378187
            ],
            [
              103.003389,
              13.380329
            ],
            [
              103.00376,
              13.381648
            ],
            [
              103.008606,
              13.381987
            ],
            [
              103.011544,
              13.382982
            ],
            [
              103.015348,
              13.387959
            ],
            [
              103.016221,
              13.391564
            ],
            [
              103.019756,
              13.39345
            ],
            [
              103.029921,
              13.395245
            ],
            [
              103.030009,
              13.396626
            ],
            [
              103.036341,
              13.398017
            ],
            [
              103.038898,
              13.395293
            ],
            [
              103.041258,
              13.394429
            ],
            [
              103.042405,
              13.391357
            ],
            [
              103.044644,
              13.392114
            ],
            [
              103.059528,
              13.392082
            ],
            [
              103.059524,
              13.392745
            ],
            [
              103.061298,
              13.393507
            ],
            [
              103.065091,
              13.393982
            ],
            [
              103.069067,
              13.39586
            ],
            [
              103.070903,
              13.395558
            ],
            [
              103.075911,
              13.396494
            ],
            [
              103.076814,
              13.398243
            ],
            [
              103.079235,
              13.399
            ],
            [
              103.084693,
              13.397616
            ],
            [
              103.087651,
              13.398695
            ],
            [
              103.088843,
              13.398224
            ],
            [
              103.09202,
              13.398728
            ],
            [
              103.094967,
              13.401073
            ],
            [
              103.096144,
              13.401087
            ],
            [
              103.097781,
              13.406744
            ],
            [
              103.098783,
              13.406989
            ],
            [
              103.102452,
              13.402681
            ],
            [
              103.105785,
              13.40489
            ],
            [
              103.111648,
              13.406589
            ],
            [
              103.111748,
              13.409588
            ],
            [
              103.112356,
              13.411123
            ],
            [
              103.11333,
              13.411324
            ],
            [
              103.115829,
              13.409368
            ],
            [
              103.122512,
              13.410843
            ],
            [
              103.124245,
              13.412177
            ],
            [
              103.128663,
              13.411426
            ],
            [
              103.147787,
              13.411927
            ],
            [
              103.150375,
              13.410823
            ],
            [
              103.151584,
              13.406989
            ],
            [
              103.154153,
              13.405145
            ],
            [
              103.155066,
              13.402808
            ],
            [
              103.158013,
              13.403375
            ],
            [
              103.16032,
              13.406486
            ],
            [
              103.163165,
              13.407502
            ],
            [
              103.166007,
              13.411885
            ],
            [
              103.168875,
              13.410764
            ],
            [
              103.17235,
              13.411259
            ],
            [
              103.173611,
              13.41032
            ],
            [
              103.175235,
              13.41108
            ],
            [
              103.177914,
              13.409879
            ],
            [
              103.179686,
              13.40996
            ],
            [
              103.181194,
              13.409215
            ],
            [
              103.181573,
              13.40796
            ],
            [
              103.184975,
              13.405985
            ],
            [
              103.186072,
              13.401324
            ],
            [
              103.187315,
              13.399408
            ],
            [
              103.190852,
              13.39857
            ],
            [
              103.197791,
              13.39394
            ],
            [
              103.204284,
              13.39307
            ],
            [
              103.207256,
              13.391914
            ],
            [
              103.210974,
              13.391763
            ],
            [
              103.215622,
              13.38863
            ],
            [
              103.220881,
              13.387286
            ],
            [
              103.246929,
              13.384394
            ],
            [
              103.256505,
              13.384217
            ],
            [
              103.279707,
              13.386839
            ],
            [
              103.284125,
              13.38628
            ],
            [
              103.293339,
              13.383306
            ],
            [
              103.300066,
              13.382043
            ],
            [
              103.309893,
              13.381384
            ],
            [
              103.314043,
              13.381778
            ],
            [
              103.331489,
              13.380297
            ],
            [
              103.34688,
              13.380123
            ],
            [
              103.352056,
              13.381535
            ],
            [
              103.365653,
              13.377091
            ],
            [
              103.369396,
              13.375281
            ],
            [
              103.370977,
              13.373741
            ],
            [
              103.375498,
              13.372527
            ],
            [
              103.383246,
              13.367811
            ],
            [
              103.388586,
              13.362396
            ],
            [
              103.394875,
              13.357935
            ],
            [
              103.397716,
              13.36122
            ],
            [
              103.39992,
              13.362097
            ],
            [
              103.407874,
              13.363624
            ],
            [
              103.413222,
              13.363682
            ],
            [
              103.414615,
              13.36471
            ],
            [
              103.415552,
              13.367227
            ],
            [
              103.414013,
              13.368495
            ],
            [
              103.415257,
              13.371624
            ],
            [
              103.414967,
              13.373608
            ],
            [
              103.411376,
              13.37949
            ],
            [
              103.411981,
              13.379613
            ],
            [
              103.412195,
              13.38143
            ],
            [
              103.411685,
              13.382563
            ],
            [
              103.412482,
              13.382636
            ],
            [
              103.411778,
              13.384278
            ],
            [
              103.412768,
              13.384939
            ],
            [
              103.412456,
              13.386539
            ],
            [
              103.410072,
              13.39063
            ],
            [
              103.4092,
              13.393732
            ],
            [
              103.407632,
              13.395298
            ],
            [
              103.40807,
              13.397303
            ],
            [
              103.406473,
              13.397958
            ],
            [
              103.406395,
              13.39904
            ],
            [
              103.402642,
              13.400306
            ],
            [
              103.402195,
              13.402492
            ],
            [
              103.40331,
              13.404145
            ],
            [
              103.401905,
              13.406936
            ],
            [
              103.400828,
              13.40737
            ],
            [
              103.400608,
              13.408864
            ],
            [
              103.399235,
              13.409684
            ],
            [
              103.397298,
              13.409078
            ],
            [
              103.396961,
              13.41264
            ],
            [
              103.395588,
              13.413394
            ],
            [
              103.394049,
              13.412807
            ],
            [
              103.394151,
              13.422173
            ],
            [
              103.393505,
              13.424223
            ],
            [
              103.395608,
              13.426437
            ],
            [
              103.395579,
              13.427749
            ],
            [
              103.397177,
              13.42988
            ],
            [
              103.398385,
              13.430719
            ],
            [
              103.398484,
              13.431467
            ],
            [
              103.397265,
              13.432341
            ],
            [
              103.398943,
              13.432912
            ],
            [
              103.400918,
              13.435622
            ],
            [
              103.401718,
              13.443144
            ],
            [
              103.402518,
              13.444029
            ],
            [
              103.401821,
              13.445792
            ],
            [
              103.402885,
              13.452755
            ],
            [
              103.405734,
              13.455289
            ],
            [
              103.406097,
              13.457323
            ],
            [
              103.40814,
              13.457675
            ],
            [
              103.411532,
              13.461192
            ],
            [
              103.413905,
              13.461597
            ],
            [
              103.414294,
              13.463059
            ],
            [
              103.413696,
              13.464328
            ],
            [
              103.414344,
              13.465961
            ],
            [
              103.411198,
              13.467235
            ],
            [
              103.410569,
              13.467837
            ],
            [
              103.410962,
              13.468756
            ],
            [
              103.405385,
              13.470519
            ],
            [
              103.401586,
              13.470835
            ],
            [
              103.402284,
              13.472756
            ],
            [
              103.399142,
              13.475994
            ],
            [
              103.40014,
              13.477172
            ],
            [
              103.403842,
              13.478383
            ],
            [
              103.403418,
              13.479517
            ],
            [
              103.401442,
              13.479521
            ],
            [
              103.401109,
              13.480079
            ],
            [
              103.401572,
              13.483442
            ],
            [
              103.403971,
              13.48387
            ],
            [
              103.400751,
              13.486983
            ],
            [
              103.404235,
              13.489669
            ],
            [
              103.40393,
              13.49116
            ],
            [
              103.401579,
              13.491855
            ],
            [
              103.403376,
              13.493634
            ],
            [
              103.401972,
              13.496238
            ],
            [
              103.40215,
              13.498207
            ],
            [
              103.403357,
              13.49925
            ],
            [
              103.403827,
              13.498931
            ],
            [
              103.405987,
              13.494753
            ],
            [
              103.4085,
              13.493509
            ],
            [
              103.40866,
              13.495243
            ],
            [
              103.407263,
              13.498477
            ],
            [
              103.407584,
              13.499786
            ],
            [
              103.408885,
              13.500331
            ],
            [
              103.412355,
              13.499358
            ],
            [
              103.413493,
              13.5004
            ],
            [
              103.412423,
              13.502192
            ],
            [
              103.409755,
              13.501768
            ],
            [
              103.408416,
              13.502455
            ],
            [
              103.408619,
              13.503203
            ],
            [
              103.410589,
              13.504166
            ],
            [
              103.410922,
              13.506084
            ],
            [
              103.409307,
              13.50918
            ],
            [
              103.40568,
              13.512313
            ],
            [
              103.405592,
              13.515095
            ],
            [
              103.407,
              13.517141
            ],
            [
              103.408577,
              13.517286
            ],
            [
              103.410537,
              13.514686
            ],
            [
              103.413804,
              13.513654
            ],
            [
              103.414173,
              13.515506
            ],
            [
              103.4102,
              13.518484
            ],
            [
              103.410487,
              13.519538
            ],
            [
              103.411696,
              13.520292
            ],
            [
              103.414575,
              13.520192
            ],
            [
              103.414501,
              13.520921
            ],
            [
              103.411577,
              13.521733
            ],
            [
              103.411727,
              13.523499
            ],
            [
              103.412658,
              13.524286
            ],
            [
              103.414396,
              13.523703
            ],
            [
              103.415147,
              13.524527
            ],
            [
              103.415132,
              13.525269
            ],
            [
              103.412571,
              13.526949
            ],
            [
              103.412145,
              13.52844
            ],
            [
              103.413057,
              13.529515
            ],
            [
              103.415611,
              13.528869
            ],
            [
              103.417951,
              13.530135
            ],
            [
              103.417186,
              13.531984
            ],
            [
              103.414396,
              13.53359
            ],
            [
              103.414721,
              13.534565
            ],
            [
              103.416711,
              13.534594
            ],
            [
              103.417645,
              13.53541
            ],
            [
              103.414173,
              13.539142
            ],
            [
              103.414718,
              13.54052
            ],
            [
              103.418175,
              13.542409
            ],
            [
              103.416958,
              13.545404
            ],
            [
              103.414099,
              13.547575
            ],
            [
              103.415631,
              13.549434
            ],
            [
              103.411349,
              13.549169
            ],
            [
              103.41006,
              13.549891
            ],
            [
              103.409592,
              13.551208
            ],
            [
              103.411051,
              13.554733
            ],
            [
              103.415557,
              13.560582
            ],
            [
              103.413031,
              13.562195
            ],
            [
              103.411941,
              13.561831
            ],
            [
              103.409758,
              13.558899
            ],
            [
              103.408108,
              13.559143
            ],
            [
              103.407006,
              13.560612
            ],
            [
              103.410067,
              13.561989
            ],
            [
              103.410024,
              13.56321
            ],
            [
              103.406803,
              13.562426
            ],
            [
              103.406016,
              13.563372
            ],
            [
              103.408845,
              13.565816
            ],
            [
              103.408805,
              13.566528
            ],
            [
              103.407324,
              13.567537
            ],
            [
              103.405612,
              13.56683
            ],
            [
              103.403768,
              13.567582
            ],
            [
              103.402559,
              13.569458
            ],
            [
              103.406262,
              13.570805
            ],
            [
              103.413198,
              13.570985
            ],
            [
              103.416972,
              13.577321
            ],
            [
              103.417496,
              13.579479
            ],
            [
              103.417231,
              13.58019
            ],
            [
              103.416295,
              13.579964
            ],
            [
              103.412886,
              13.576226
            ],
            [
              103.411535,
              13.575878
            ],
            [
              103.409153,
              13.576864
            ],
            [
              103.407678,
              13.579535
            ],
            [
              103.407846,
              13.582964
            ],
            [
              103.408467,
              13.583375
            ],
            [
              103.412444,
              13.58262
            ],
            [
              103.413028,
              13.583608
            ],
            [
              103.409522,
              13.586538
            ],
            [
              103.404031,
              13.588013
            ],
            [
              103.403627,
              13.588757
            ],
            [
              103.404299,
              13.591951
            ],
            [
              103.406281,
              13.593847
            ],
            [
              103.412781,
              13.593983
            ],
            [
              103.414812,
              13.596034
            ],
            [
              103.415232,
              13.59772
            ],
            [
              103.413661,
              13.602129
            ],
            [
              103.409395,
              13.604378
            ],
            [
              103.405776,
              13.605229
            ],
            [
              103.405797,
              13.606237
            ],
            [
              103.408366,
              13.608133
            ],
            [
              103.409059,
              13.609836
            ],
            [
              103.40828,
              13.612609
            ],
            [
              103.406052,
              13.610341
            ],
            [
              103.404563,
              13.612723
            ],
            [
              103.401245,
              13.614058
            ],
            [
              103.400532,
              13.608512
            ],
            [
              103.398207,
              13.607541
            ],
            [
              103.39531,
              13.607954
            ],
            [
              103.394165,
              13.609296
            ],
            [
              103.394542,
              13.610122
            ],
            [
              103.398331,
              13.612043
            ],
            [
              103.398393,
              13.614236
            ],
            [
              103.395504,
              13.617478
            ],
            [
              103.389231,
              13.621495
            ],
            [
              103.390908,
              13.623076
            ],
            [
              103.39303,
              13.622897
            ],
            [
              103.396624,
              13.624269
            ],
            [
              103.395253,
              13.630706
            ],
            [
              103.397427,
              13.633271
            ],
            [
              103.399599,
              13.633611
            ],
            [
              103.401074,
              13.632499
            ],
            [
              103.405579,
              13.63155
            ],
            [
              103.408814,
              13.633792
            ],
            [
              103.404248,
              13.636277
            ],
            [
              103.404683,
              13.640112
            ],
            [
              103.403605,
              13.641763
            ],
            [
              103.39873,
              13.641726
            ],
            [
              103.396229,
              13.644808
            ],
            [
              103.396564,
              13.646622
            ],
            [
              103.397892,
              13.648334
            ],
            [
              103.401826,
              13.65109
            ],
            [
              103.399958,
              13.65482
            ],
            [
              103.40062,
              13.655929
            ],
            [
              103.40628,
              13.658425
            ],
            [
              103.405761,
              13.661268
            ],
            [
              103.40631,
              13.663738
            ],
            [
              103.408226,
              13.665276
            ],
            [
              103.412944,
              13.665689
            ],
            [
              103.413807,
              13.667806
            ],
            [
              103.412454,
              13.670957
            ],
            [
              103.41333,
              13.67253
            ],
            [
              103.415482,
              13.672116
            ],
            [
              103.41955,
              13.672934
            ],
            [
              103.420829,
              13.673655
            ],
            [
              103.421818,
              13.676384
            ],
            [
              103.424162,
              13.678821
            ],
            [
              103.426234,
              13.67959
            ],
            [
              103.430018,
              13.679695
            ],
            [
              103.431505,
              13.680684
            ],
            [
              103.434419,
              13.684421
            ],
            [
              103.437778,
              13.686825
            ],
            [
              103.43959,
              13.690482
            ],
            [
              103.439735,
              13.691301
            ],
            [
              103.437162,
              13.693826
            ],
            [
              103.433742,
              13.694434
            ],
            [
              103.431345,
              13.695922
            ],
            [
              103.43299,
              13.697653
            ],
            [
              103.43287,
              13.698362
            ],
            [
              103.428756,
              13.700781
            ],
            [
              103.429522,
              13.704016
            ],
            [
              103.42916,
              13.705222
            ],
            [
              103.422389,
              13.706907
            ],
            [
              103.420878,
              13.709755
            ],
            [
              103.421339,
              13.71314
            ],
            [
              103.423326,
              13.716511
            ],
            [
              103.419985,
              13.720954
            ],
            [
              103.420363,
              13.722941
            ],
            [
              103.421608,
              13.723754
            ],
            [
              103.425506,
              13.722854
            ],
            [
              103.428405,
              13.724512
            ],
            [
              103.427831,
              13.725799
            ],
            [
              103.424701,
              13.727573
            ],
            [
              103.421567,
              13.72835
            ],
            [
              103.421414,
              13.73095
            ],
            [
              103.422133,
              13.732371
            ],
            [
              103.424743,
              13.733314
            ],
            [
              103.427193,
              13.732674
            ],
            [
              103.430213,
              13.736351
            ],
            [
              103.427305,
              13.737154
            ],
            [
              103.421953,
              13.734576
            ],
            [
              103.41865,
              13.736026
            ],
            [
              103.418381,
              13.736725
            ],
            [
              103.419357,
              13.738353
            ],
            [
              103.421849,
              13.738439
            ],
            [
              103.424294,
              13.741062
            ],
            [
              103.424034,
              13.744809
            ],
            [
              103.423128,
              13.744818
            ],
            [
              103.421416,
              13.742481
            ],
            [
              103.420424,
              13.742873
            ],
            [
              103.42002,
              13.744171
            ],
            [
              103.422207,
              13.747162
            ],
            [
              103.424184,
              13.747893
            ],
            [
              103.425877,
              13.750985
            ],
            [
              103.428818,
              13.749035
            ],
            [
              103.431587,
              13.753901
            ],
            [
              103.424664,
              13.753592
            ],
            [
              103.42268,
              13.75491
            ],
            [
              103.422519,
              13.755437
            ],
            [
              103.424963,
              13.754839
            ],
            [
              103.425253,
              13.755387
            ],
            [
              103.423346,
              13.758189
            ],
            [
              103.424918,
              13.762069
            ],
            [
              103.423286,
              13.764909
            ],
            [
              103.423891,
              13.767034
            ],
            [
              103.421845,
              13.768777
            ],
            [
              103.42055,
              13.768207
            ],
            [
              103.418486,
              13.771167
            ],
            [
              103.415258,
              13.769233
            ],
            [
              103.413979,
              13.769677
            ],
            [
              103.411249,
              13.77214
            ],
            [
              103.40969,
              13.776515
            ],
            [
              103.411876,
              13.778658
            ],
            [
              103.412737,
              13.777723
            ],
            [
              103.413217,
              13.774424
            ],
            [
              103.414606,
              13.773904
            ],
            [
              103.415301,
              13.774881
            ],
            [
              103.415054,
              13.777682
            ],
            [
              103.415907,
              13.779085
            ],
            [
              103.4187,
              13.777364
            ],
            [
              103.42088,
              13.774273
            ],
            [
              103.422837,
              13.773948
            ],
            [
              103.423192,
              13.776005
            ],
            [
              103.419586,
              13.779567
            ],
            [
              103.421003,
              13.780085
            ],
            [
              103.424564,
              13.777769
            ],
            [
              103.424547,
              13.779365
            ],
            [
              103.425703,
              13.781305
            ],
            [
              103.425407,
              13.784796
            ],
            [
              103.424579,
              13.786522
            ],
            [
              103.421996,
              13.788891
            ],
            [
              103.422089,
              13.78963
            ],
            [
              103.425806,
              13.790469
            ],
            [
              103.42777,
              13.792394
            ],
            [
              103.428079,
              13.796117
            ],
            [
              103.427646,
              13.79756
            ],
            [
              103.425971,
              13.797866
            ],
            [
              103.425195,
              13.796241
            ],
            [
              103.425926,
              13.793416
            ],
            [
              103.424513,
              13.792379
            ],
            [
              103.423743,
              13.794929
            ],
            [
              103.420945,
              13.797516
            ],
            [
              103.422613,
              13.797635
            ],
            [
              103.424533,
              13.799659
            ],
            [
              103.427972,
              13.80077
            ],
            [
              103.432148,
              13.800481
            ],
            [
              103.434095,
              13.801353
            ],
            [
              103.435038,
              13.802864
            ],
            [
              103.434324,
              13.804095
            ],
            [
              103.431849,
              13.802642
            ],
            [
              103.429262,
              13.802565
            ],
            [
              103.429104,
              13.808196
            ],
            [
              103.432006,
              13.807469
            ],
            [
              103.434203,
              13.808224
            ],
            [
              103.434064,
              13.80968
            ],
            [
              103.435554,
              13.812207
            ],
            [
              103.439696,
              13.811529
            ],
            [
              103.440079,
              13.816303
            ],
            [
              103.441756,
              13.816965
            ],
            [
              103.440993,
              13.818469
            ],
            [
              103.439671,
              13.818805
            ],
            [
              103.435012,
              13.815955
            ],
            [
              103.430481,
              13.817431
            ],
            [
              103.429159,
              13.820733
            ],
            [
              103.431044,
              13.821919
            ],
            [
              103.432896,
              13.82454
            ],
            [
              103.432205,
              13.825395
            ],
            [
              103.427343,
              13.823694
            ],
            [
              103.425516,
              13.824514
            ],
            [
              103.42741,
              13.826175
            ],
            [
              103.425864,
              13.828901
            ],
            [
              103.424687,
              13.833581
            ],
            [
              103.421249,
              13.833785
            ],
            [
              103.421131,
              13.834564
            ],
            [
              103.422725,
              13.836424
            ],
            [
              103.426113,
              13.835937
            ],
            [
              103.426306,
              13.836636
            ],
            [
              103.424398,
              13.839824
            ],
            [
              103.425716,
              13.841678
            ],
            [
              103.425789,
              13.843235
            ],
            [
              103.423989,
              13.843974
            ],
            [
              103.421492,
              13.842539
            ],
            [
              103.418019,
              13.843633
            ],
            [
              103.419512,
              13.844559
            ],
            [
              103.422158,
              13.844557
            ],
            [
              103.422917,
              13.845334
            ],
            [
              103.425831,
              13.852536
            ],
            [
              103.42551,
              13.853744
            ],
            [
              103.422622,
              13.852427
            ],
            [
              103.421775,
              13.853146
            ],
            [
              103.421736,
              13.857967
            ],
            [
              103.42321,
              13.859927
            ],
            [
              103.424327,
              13.859898
            ],
            [
              103.426709,
              13.857176
            ],
            [
              103.427728,
              13.85733
            ],
            [
              103.428273,
              13.858623
            ],
            [
              103.426079,
              13.861392
            ],
            [
              103.427955,
              13.863759
            ],
            [
              103.427042,
              13.865996
            ],
            [
              103.427628,
              13.866709
            ],
            [
              103.430442,
              13.865721
            ],
            [
              103.43116,
              13.866543
            ],
            [
              103.431026,
              13.868481
            ],
            [
              103.428707,
              13.872508
            ],
            [
              103.428627,
              13.874653
            ],
            [
              103.426906,
              13.875719
            ],
            [
              103.424715,
              13.875873
            ],
            [
              103.424782,
              13.876619
            ],
            [
              103.429696,
              13.880633
            ],
            [
              103.431356,
              13.879915
            ],
            [
              103.433319,
              13.877637
            ],
            [
              103.434605,
              13.877844
            ],
            [
              103.435336,
              13.879445
            ],
            [
              103.433884,
              13.880641
            ],
            [
              103.434686,
              13.882104
            ],
            [
              103.433813,
              13.882958
            ],
            [
              103.435582,
              13.884878
            ],
            [
              103.434679,
              13.886019
            ],
            [
              103.435033,
              13.887946
            ],
            [
              103.434047,
              13.88904
            ],
            [
              103.434187,
              13.891125
            ],
            [
              103.435177,
              13.892138
            ],
            [
              103.434963,
              13.891239
            ],
            [
              103.436424,
              13.891341
            ],
            [
              103.437977,
              13.890479
            ],
            [
              103.438389,
              13.893795
            ],
            [
              103.437221,
              13.894617
            ],
            [
              103.437218,
              13.895861
            ],
            [
              103.438756,
              13.896217
            ],
            [
              103.440784,
              13.895261
            ],
            [
              103.442571,
              13.898647
            ],
            [
              103.442728,
              13.899588
            ],
            [
              103.439323,
              13.902442
            ],
            [
              103.436695,
              13.903642
            ],
            [
              103.436659,
              13.90472
            ],
            [
              103.437576,
              13.904612
            ],
            [
              103.439738,
              13.906013
            ],
            [
              103.437462,
              13.909119
            ],
            [
              103.435037,
              13.910423
            ],
            [
              103.435399,
              13.911262
            ],
            [
              103.436997,
              13.911636
            ],
            [
              103.440815,
              13.910643
            ],
            [
              103.440962,
              13.911393
            ],
            [
              103.439145,
              13.916346
            ],
            [
              103.435626,
              13.918648
            ],
            [
              103.426869,
              13.919499
            ],
            [
              103.411519,
              13.928385
            ],
            [
              103.403016,
              13.928956
            ],
            [
              103.397076,
              13.930986
            ],
            [
              103.390946,
              13.93191
            ],
            [
              103.386311,
              13.935432
            ],
            [
              103.361226,
              13.969198
            ],
            [
              103.343479,
              14.00044
            ],
            [
              103.342027,
              14.001619
            ],
            [
              103.332603,
              14.014999
            ],
            [
              103.331423,
              14.021667
            ],
            [
              103.328237,
              14.027002
            ],
            [
              103.316127,
              14.011598
            ],
            [
              103.308956,
              14.000906
            ],
            [
              103.277595,
              13.966185
            ],
            [
              103.26451,
              13.955014
            ],
            [
              103.25848,
              13.952673
            ],
            [
              103.250433,
              13.951529
            ],
            [
              103.218929,
              13.950063
            ],
            [
              103.211461,
              13.947844
            ],
            [
              103.207155,
              13.944891
            ],
            [
              103.203556,
              13.938419
            ],
            [
              103.198133,
              13.949768
            ],
            [
              103.191878,
              13.960701
            ],
            [
              103.171148,
              13.993678
            ],
            [
              103.170391,
              13.996979
            ],
            [
              103.170839,
              13.999868
            ],
            [
              103.172194,
              14.001734
            ],
            [
              103.177097,
              14.002829
            ],
            [
              103.186554,
              14.01051
            ],
            [
              103.188916,
              14.016407
            ],
            [
              103.193538,
              14.024237
            ],
            [
              103.193763,
              14.028856
            ],
            [
              103.195554,
              14.03532
            ],
            [
              103.195615,
              14.039007
            ],
            [
              103.19397,
              14.042581
            ],
            [
              103.187168,
              14.049378
            ],
            [
              103.185901,
              14.052877
            ],
            [
              103.186275,
              14.054088
            ],
            [
              103.189912,
              14.057771
            ],
            [
              103.196506,
              14.062203
            ],
            [
              103.19959,
              14.066856
            ],
            [
              103.201444,
              14.078787
            ],
            [
              103.199963,
              14.08242
            ],
            [
              103.200158,
              14.083801
            ],
            [
              103.203789,
              14.088048
            ],
            [
              103.205524,
              14.091478
            ],
            [
              103.208969,
              14.103233
            ],
            [
              103.2105,
              14.106054
            ],
            [
              103.210618,
              14.109844
            ],
            [
              103.209549,
              14.110739
            ],
            [
              103.208761,
              14.110423
            ],
            [
              103.204977,
              14.108402
            ],
            [
              103.204088,
              14.10723
            ],
            [
              103.196949,
              14.108478
            ],
            [
              103.195956,
              14.109763
            ],
            [
              103.194853,
              14.108517
            ],
            [
              103.185381,
              14.105471
            ],
            [
              103.182216,
              14.106544
            ],
            [
              103.175927,
              14.106474
            ],
            [
              103.173014,
              14.108666
            ],
            [
              103.169809,
              14.109522
            ],
            [
              103.168899,
              14.110793
            ],
            [
              103.164259,
              14.1122
            ],
            [
              103.16052,
              14.111496
            ],
            [
              103.158569,
              14.108306
            ],
            [
              103.157483,
              14.107735
            ],
            [
              103.15275,
              14.111564
            ],
            [
              103.150965,
              14.111743
            ],
            [
              103.146702,
              14.110488
            ],
            [
              103.144439,
              14.110877
            ],
            [
              103.143871,
              14.109
            ],
            [
              103.142125,
              14.108345
            ],
            [
              103.134777,
              14.110408
            ],
            [
              103.134501,
              14.111473
            ],
            [
              103.132609,
              14.112143
            ],
            [
              103.130517,
              14.112029
            ],
            [
              103.130417,
              14.11138
            ],
            [
              103.124755,
              14.109191
            ],
            [
              103.12069,
              14.111779
            ],
            [
              103.118277,
              14.114704
            ],
            [
              103.112894,
              14.115963
            ],
            [
              103.110346,
              14.115762
            ],
            [
              103.109356,
              14.119656
            ],
            [
              103.108148,
              14.120612
            ],
            [
              103.105289,
              14.121217
            ],
            [
              103.104686,
              14.123085
            ],
            [
              103.100289,
              14.125305
            ],
            [
              103.098474,
              14.129528
            ],
            [
              103.094863,
              14.13115
            ],
            [
              103.09388,
              14.13232
            ],
            [
              103.091544,
              14.132463
            ],
            [
              103.091013,
              14.134152
            ],
            [
              103.086257,
              14.137118
            ],
            [
              103.086153,
              14.139638
            ],
            [
              103.084189,
              14.13937
            ],
            [
              103.082282,
              14.140555
            ],
            [
              103.081357,
              14.14367
            ],
            [
              103.081571,
              14.146166
            ],
            [
              103.079725,
              14.149809
            ],
            [
              103.080811,
              14.151668
            ],
            [
              103.079065,
              14.15491
            ],
            [
              103.079307,
              14.156613
            ],
            [
              103.076751,
              14.158978
            ],
            [
              103.075775,
              14.163877
            ],
            [
              103.03187,
              14.250228
            ],
            [
              103.031638,
              14.247121
            ],
            [
              103.03317,
              14.239051
            ],
            [
              103.031971,
              14.237511
            ],
            [
              103.027381,
              14.234806
            ],
            [
              103.022078,
              14.228506
            ],
            [
              103.021148,
              14.228378
            ],
            [
              103.019154,
              14.23035
            ],
            [
              103.017091,
              14.231231
            ],
            [
              103.013276,
              14.230824
            ],
            [
              103.009788,
              14.224181
            ],
            [
              103.004281,
              14.220464
            ],
            [
              102.999274,
              14.214164
            ],
            [
              102.997202,
              14.213519
            ],
            [
              102.992375,
              14.213961
            ],
            [
              102.989554,
              14.213139
            ],
            [
              102.986104,
              14.214887
            ],
            [
              102.979407,
              14.212528
            ],
            [
              102.977707,
              14.213172
            ],
            [
              102.976496,
              14.212819
            ],
            [
              102.971577,
              14.210482
            ],
            [
              102.968385,
              14.21052
            ],
            [
              102.964688,
              14.212254
            ],
            [
              102.962451,
              14.212217
            ],
            [
              102.959826,
              14.210215
            ],
            [
              102.953974,
              14.208307
            ],
            [
              102.951739,
              14.206146
            ],
            [
              102.951864,
              14.205091
            ],
            [
              102.956778,
              14.198854
            ],
            [
              102.956917,
              14.19751
            ],
            [
              102.956168,
              14.196737
            ],
            [
              102.951262,
              14.196006
            ],
            [
              102.944711,
              14.198503
            ],
            [
              102.938482,
              14.194848
            ],
            [
              102.938406,
              14.193929
            ],
            [
              102.940559,
              14.190509
            ],
            [
              102.940811,
              14.186195
            ],
            [
              102.937946,
              14.183045
            ],
            [
              102.936476,
              14.180081
            ],
            [
              102.930318,
              14.17566
            ],
            [
              102.932827,
              14.173655
            ],
            [
              102.937356,
              14.165107
            ],
            [
              102.937181,
              14.161214
            ],
            [
              102.939049,
              14.15815
            ],
            [
              102.940982,
              14.152294
            ],
            [
              102.940407,
              14.148399
            ],
            [
              102.936303,
              14.142129
            ],
            [
              102.934004,
              14.140977
            ],
            [
              102.932569,
              14.138856
            ],
            [
              102.930221,
              14.137934
            ],
            [
              102.929948,
              14.136497
            ],
            [
              102.926815,
              14.134871
            ],
            [
              102.924961,
              14.132138
            ],
            [
              102.923569,
              14.127182
            ],
            [
              102.924315,
              14.124678
            ],
            [
              102.923597,
              14.11739
            ],
            [
              102.924333,
              14.115454
            ],
            [
              102.923999,
              14.111245
            ],
            [
              102.924641,
              14.110439
            ],
            [
              102.923165,
              14.105986
            ],
            [
              102.920066,
              14.104763
            ],
            [
              102.920339,
              14.103527
            ],
            [
              102.910959,
              14.095234
            ],
            [
              102.90785,
              14.095593
            ],
            [
              102.906734,
              14.091579
            ],
            [
              102.904235,
              14.090335
            ],
            [
              102.904613,
              14.088432
            ],
            [
              102.900727,
              14.083413
            ],
            [
              102.900963,
              14.076113
            ],
            [
              102.901918,
              14.072204
            ],
            [
              102.901143,
              14.072062
            ],
            [
              102.900847,
              14.070498
            ],
            [
              102.902134,
              14.069749
            ],
            [
              102.90248,
              14.067329
            ],
            [
              102.900734,
              14.066136
            ],
            [
              102.898835,
              14.061462
            ],
            [
              102.899331,
              14.057621
            ],
            [
              102.897666,
              14.054888
            ],
            [
              102.897792,
              14.051836
            ],
            [
              102.898025,
              14.050483
            ],
            [
              102.900348,
              14.0478
            ],
            [
              102.899633,
              14.043777
            ],
            [
              102.903509,
              14.041333
            ],
            [
              102.90392,
              14.037857
            ],
            [
              102.901545,
              14.035718
            ],
            [
              102.904681,
              14.031135
            ],
            [
              102.907068,
              14.029588
            ],
            [
              102.906874,
              14.028749
            ],
            [
              102.908254,
              14.026382
            ],
            [
              102.908299,
              14.021193
            ],
            [
              102.911061,
              14.019902
            ],
            [
              102.911986,
              14.018714
            ],
            [
              102.911348,
              14.017309
            ],
            [
              102.909322,
              14.015964
            ],
            [
              102.907666,
              14.017262
            ],
            [
              102.901359,
              14.015569
            ],
            [
              102.898925,
              14.013488
            ],
            [
              102.89911,
              14.012157
            ],
            [
              102.896334,
              14.010269
            ],
            [
              102.893953,
              14.007372
            ],
            [
              102.885521,
              14.010544
            ],
            [
              102.882353,
              14.009181
            ],
            [
              102.881088,
              14.004823
            ],
            [
              102.87993,
              14.003759
            ],
            [
              102.872698,
              14.003219
            ],
            [
              102.868969,
              14.004974
            ],
            [
              102.863476,
              14.00441
            ],
            [
              102.86265,
              14.001285
            ],
            [
              102.848808,
              13.987809
            ],
            [
              102.815627,
              13.965435
            ],
            [
              102.813222,
              13.957625
            ],
            [
              102.810958,
              13.953302
            ],
            [
              102.808187,
              13.948959
            ],
            [
              102.803027,
              13.943026
            ],
            [
              102.798325,
              13.942264
            ],
            [
              102.793115,
              13.937717
            ],
            [
              102.78291,
              13.932816
            ],
            [
              102.766252,
              13.856377
            ],
            [
              102.755999,
              13.84655
            ],
            [
              102.72322,
              13.79326
            ],
            [
              102.724308,
              13.789528
            ],
            [
              102.732489,
              13.784846
            ],
            [
              102.733199,
              13.782167
            ],
            [
              102.73203,
              13.770888
            ],
            [
              102.710853,
              13.769643
            ],
            [
              102.701746,
              13.768042
            ],
            [
              102.688584,
              13.751928
            ],
            [
              102.664228,
              13.742011
            ],
            [
              102.634722,
              13.726442
            ],
            [
              102.599764,
              13.70946
            ],
            [
              102.590991,
              13.706775
            ],
            [
              102.588682,
              13.704299
            ],
            [
              102.580588,
              13.700478
            ],
            [
              102.577571,
              13.697636
            ],
            [
              102.576775,
              13.696298
            ],
            [
              102.578168,
              13.694844
            ],
            [
              102.577004,
              13.693002
            ],
            [
              102.574775,
              13.692189
            ],
            [
              102.571574,
              13.692139
            ],
            [
              102.569049,
              13.690995
            ],
            [
              102.566756,
              13.686955
            ],
            [
              102.562842,
              13.683982
            ],
            [
              102.555897,
              13.670398
            ],
            [
              102.550725,
              13.665276
            ],
            [
              102.550573,
              13.66358
            ],
            [
              102.551159,
              13.662956
            ],
            [
              102.548021,
              13.658426
            ],
            [
              102.549309,
              13.658948
            ],
            [
              102.550147,
              13.658294
            ],
            [
              102.552139,
              13.656434
            ],
            [
              102.552614,
              13.654444
            ],
            [
              102.554994,
              13.653604
            ],
            [
              102.554389,
              13.652504
            ],
            [
              102.557667,
              13.652335
            ],
            [
              102.558112,
              13.651683
            ],
            [
              102.556604,
              13.650381
            ],
            [
              102.55799,
              13.650207
            ],
            [
              102.55758,
              13.648859
            ],
            [
              102.560037,
              13.648432
            ],
            [
              102.561001,
              13.649392
            ],
            [
              102.560849,
              13.648224
            ],
            [
              102.562014,
              13.646894
            ],
            [
              102.562567,
              13.648006
            ],
            [
              102.563416,
              13.647775
            ],
            [
              102.564187,
              13.64572
            ],
            [
              102.56579,
              13.646147
            ],
            [
              102.566075,
              13.644527
            ],
            [
              102.568958,
              13.644128
            ],
            [
              102.570314,
              13.643055
            ],
            [
              102.571408,
              13.635232
            ],
            [
              102.57184,
              13.634878
            ],
            [
              102.572581,
              13.635571
            ],
            [
              102.572506,
              13.633112
            ],
            [
              102.573934,
              13.633047
            ],
            [
              102.573809,
              13.631414
            ],
            [
              102.575621,
              13.629432
            ],
            [
              102.578955,
              13.630211
            ],
            [
              102.578802,
              13.628212
            ],
            [
              102.58191,
              13.628009
            ],
            [
              102.583945,
              13.63012
            ],
            [
              102.585987,
              13.628427
            ],
            [
              102.586845,
              13.629714
            ],
            [
              102.590248,
              13.624786
            ],
            [
              102.592203,
              13.625507
            ],
            [
              102.592535,
              13.626954
            ],
            [
              102.594356,
              13.624574
            ],
            [
              102.594581,
              13.622594
            ],
            [
              102.595696,
              13.622668
            ],
            [
              102.59629,
              13.623577
            ],
            [
              102.598467,
              13.622757
            ],
            [
              102.599886,
              13.623235
            ],
            [
              102.600141,
              13.622146
            ],
            [
              102.601506,
              13.622374
            ],
            [
              102.601911,
              13.619666
            ],
            [
              102.602892,
              13.61901
            ],
            [
              102.604617,
              13.619717
            ],
            [
              102.606471,
              13.61656
            ],
            [
              102.61065,
              13.615089
            ],
            [
              102.611148,
              13.617221
            ],
            [
              102.612887,
              13.615782
            ],
            [
              102.613666,
              13.616453
            ],
            [
              102.614042,
              13.613835
            ],
            [
              102.615476,
              13.614137
            ],
            [
              102.616359,
              13.613079
            ],
            [
              102.616738,
              13.613584
            ],
            [
              102.621324,
              13.613091
            ],
            [
              102.622771,
              13.610731
            ],
            [
              102.624193,
              13.610908
            ],
            [
              102.624201,
              13.608714
            ],
            [
              102.621725,
              13.608851
            ],
            [
              102.620799,
              13.607776
            ],
            [
              102.619926,
              13.607893
            ],
            [
              102.619687,
              13.608694
            ],
            [
              102.617389,
              13.607505
            ],
            [
              102.613184,
              13.608543
            ],
            [
              102.613288,
              13.606826
            ],
            [
              102.610821,
              13.605373
            ],
            [
              102.607978,
              13.605758
            ],
            [
              102.606501,
              13.607137
            ],
            [
              102.604228,
              13.606549
            ],
            [
              102.601551,
              13.607541
            ],
            [
              102.60114,
              13.606972
            ],
            [
              102.598165,
              13.606881
            ],
            [
              102.597728,
              13.608232
            ],
            [
              102.596609,
              13.608484
            ],
            [
              102.592436,
              13.607591
            ],
            [
              102.591163,
              13.606575
            ],
            [
              102.588883,
              13.607951
            ],
            [
              102.584326,
              13.606559
            ],
            [
              102.579897,
              13.606146
            ],
            [
              102.577215,
              13.604049
            ],
            [
              102.574931,
              13.603706
            ],
            [
              102.573725,
              13.602669
            ],
            [
              102.572858,
              13.601136
            ],
            [
              102.5734,
              13.597138
            ],
            [
              102.570901,
              13.596176
            ],
            [
              102.569145,
              13.591353
            ],
            [
              102.570156,
              13.589247
            ],
            [
              102.570102,
              13.585849
            ],
            [
              102.567758,
              13.583867
            ],
            [
              102.564185,
              13.582779
            ],
            [
              102.562761,
              13.579073
            ],
            [
              102.561717,
              13.578469
            ],
            [
              102.559479,
              13.57912
            ],
            [
              102.556347,
              13.578401
            ],
            [
              102.553101,
              13.575115
            ],
            [
              102.549366,
              13.577339
            ],
            [
              102.546582,
              13.574729
            ],
            [
              102.544782,
              13.575477
            ],
            [
              102.545054,
              13.574084
            ],
            [
              102.543824,
              13.572601
            ],
            [
              102.539946,
              13.569697
            ],
            [
              102.541018,
              13.569038
            ],
            [
              102.540451,
              13.568655
            ],
            [
              102.538504,
              13.568253
            ],
            [
              102.537562,
              13.567176
            ],
            [
              102.535848,
              13.567652
            ],
            [
              102.535148,
              13.566603
            ],
            [
              102.534081,
              13.567262
            ],
            [
              102.53121,
              13.565582
            ],
            [
              102.527667,
              13.567153
            ],
            [
              102.527912,
              13.565872
            ],
            [
              102.52685,
              13.564516
            ],
            [
              102.526264,
              13.56449
            ],
            [
              102.525682,
              13.565965
            ],
            [
              102.524092,
              13.564892
            ],
            [
              102.521284,
              13.56708
            ],
            [
              102.518946,
              13.567057
            ],
            [
              102.51922,
              13.568027
            ],
            [
              102.516861,
              13.567575
            ],
            [
              102.510706,
              13.569322
            ],
            [
              102.510972,
              13.568226
            ],
            [
              102.509783,
              13.567444
            ],
            [
              102.507951,
              13.568906
            ],
            [
              102.506491,
              13.568202
            ],
            [
              102.504602,
              13.569669
            ],
            [
              102.500624,
              13.571043
            ],
            [
              102.49671,
              13.569413
            ],
            [
              102.490083,
              13.572062
            ],
            [
              102.483846,
              13.570632
            ],
            [
              102.482684,
              13.571839
            ],
            [
              102.481109,
              13.571681
            ],
            [
              102.480132,
              13.572518
            ],
            [
              102.479162,
              13.570678
            ],
            [
              102.477115,
              13.571434
            ],
            [
              102.477266,
              13.570124
            ],
            [
              102.475714,
              13.567587
            ],
            [
              102.474709,
              13.568023
            ],
            [
              102.472395,
              13.566736
            ],
            [
              102.471824,
              13.564858
            ],
            [
              102.46966,
              13.56558
            ],
            [
              102.469652,
              13.567178
            ],
            [
              102.466628,
              13.565324
            ],
            [
              102.465599,
              13.565748
            ],
            [
              102.46415,
              13.565257
            ],
            [
              102.463061,
              13.565969
            ],
            [
              102.462508,
              13.564227
            ],
            [
              102.460848,
              13.563716
            ],
            [
              102.459151,
              13.561951
            ],
            [
              102.453904,
              13.563154
            ],
            [
              102.453138,
              13.561724
            ],
            [
              102.449022,
              13.561007
            ],
            [
              102.44634,
              13.561586
            ],
            [
              102.444852,
              13.560727
            ],
            [
              102.444192,
              13.563893
            ],
            [
              102.443124,
              13.562836
            ],
            [
              102.441856,
              13.562745
            ],
            [
              102.441016,
              13.560937
            ],
            [
              102.438844,
              13.559799
            ],
            [
              102.436381,
              13.561121
            ],
            [
              102.433741,
              13.56132
            ],
            [
              102.432555,
              13.562435
            ],
            [
              102.431143,
              13.56207
            ],
            [
              102.428488,
              13.566612
            ],
            [
              102.427078,
              13.566511
            ],
            [
              102.427139,
              13.567832
            ],
            [
              102.42514,
              13.568219
            ],
            [
              102.425567,
              13.569169
            ],
            [
              102.424752,
              13.569786
            ],
            [
              102.423329,
              13.569546
            ],
            [
              102.421045,
              13.571305
            ],
            [
              102.418424,
              13.570996
            ],
            [
              102.417822,
              13.57067
            ],
            [
              102.418273,
              13.569988
            ],
            [
              102.415207,
              13.570949
            ],
            [
              102.414624,
              13.569
            ],
            [
              102.411748,
              13.568983
            ],
            [
              102.411523,
              13.567537
            ],
            [
              102.410191,
              13.566998
            ],
            [
              102.405208,
              13.568863
            ],
            [
              102.404884,
              13.568109
            ],
            [
              102.402583,
              13.568062
            ],
            [
              102.402588,
              13.567418
            ],
            [
              102.399802,
              13.567055
            ],
            [
              102.399467,
              13.566415
            ],
            [
              102.397693,
              13.567443
            ],
            [
              102.39711,
              13.566656
            ],
            [
              102.395874,
              13.56753
            ],
            [
              102.392561,
              13.567263
            ],
            [
              102.391906,
              13.568637
            ],
            [
              102.390641,
              13.568134
            ],
            [
              102.389799,
              13.570415
            ],
            [
              102.387693,
              13.571229
            ],
            [
              102.38721,
              13.572187
            ],
            [
              102.386695,
              13.572342
            ],
            [
              102.386535,
              13.571619
            ],
            [
              102.384878,
              13.572623
            ],
            [
              102.38263,
              13.57199
            ],
            [
              102.38119,
              13.573578
            ],
            [
              102.381106,
              13.574648
            ],
            [
              102.379599,
              13.57534
            ],
            [
              102.378654,
              13.57481
            ],
            [
              102.37812,
              13.57663
            ],
            [
              102.375548,
              13.577689
            ],
            [
              102.373906,
              13.575605
            ],
            [
              102.371254,
              13.574906
            ],
            [
              102.370964,
              13.575448
            ],
            [
              102.37189,
              13.576656
            ],
            [
              102.369762,
              13.576596
            ],
            [
              102.366649,
              13.577938
            ],
            [
              102.364779,
              13.577299
            ],
            [
              102.363661,
              13.575758
            ],
            [
              102.36425,
              13.574799
            ],
            [
              102.36324,
              13.573511
            ],
            [
              102.360827,
              13.572833
            ],
            [
              102.359905,
              13.570992
            ],
            [
              102.358323,
              13.571306
            ],
            [
              102.359727,
              13.569534
            ],
            [
              102.358472,
              13.568524
            ],
            [
              102.359291,
              13.568251
            ],
            [
              102.358546,
              13.567662
            ],
            [
              102.358677,
              13.56666
            ],
            [
              102.359877,
              13.566331
            ],
            [
              102.359266,
              13.564691
            ],
            [
              102.358361,
              13.565492
            ],
            [
              102.357102,
              13.565159
            ],
            [
              102.357015,
              13.565873
            ],
            [
              102.355402,
              13.564188
            ],
            [
              102.355476,
              13.563336
            ],
            [
              102.353707,
              13.563675
            ],
            [
              102.346568,
              13.561101
            ],
            [
              102.342513,
              13.560543
            ],
            [
              102.342072,
              13.558627
            ],
            [
              102.340087,
              13.559657
            ],
            [
              102.339797,
              13.557557
            ],
            [
              102.338002,
              13.556484
            ],
            [
              102.338081,
              13.554954
            ],
            [
              102.338905,
              13.555176
            ],
            [
              102.338945,
              13.554418
            ],
            [
              102.337469,
              13.552352
            ],
            [
              102.338875,
              13.552098
            ],
            [
              102.338634,
              13.551365
            ],
            [
              102.337584,
              13.549675
            ],
            [
              102.336991,
              13.550185
            ],
            [
              102.336611,
              13.549752
            ],
            [
              102.337397,
              13.548539
            ],
            [
              102.337283,
              13.546391
            ],
            [
              102.337971,
              13.546005
            ],
            [
              102.335249,
              13.544871
            ],
            [
              102.333848,
              13.540725
            ],
            [
              102.334926,
              13.540565
            ],
            [
              102.335197,
              13.539437
            ],
            [
              102.333987,
              13.538161
            ],
            [
              102.333828,
              13.537473
            ]
          ]
        ]
      }
    }
  ]
}
