{
  "type": "FeatureCollection",
  "features": [
    {
      "type": "Feature",
      "properties": {
        "geo_id": "geo_bn_0001",
        "name": "Brunei-Muara",
        "boundary_level": "district",
        "osm_type": "relation",
        "osm_id": 3853885,
        "source_checked_at": "2026-10-01"
      },
      "geometry": {
        "type": "Polygon",
        "coordinates": [
          [
            [
              114.66109,
              5.092284
            ],
            [
              114.776421,
              4.908956
            ],
            [
              114.793546,
              4.89184
            ],
            [
              114.795155,
              4.888858
            ],
            [
              114.795276,
              4.887752
            ],
            [
              114.793759,
              4.882846
            ],
            [
              114.799104,
              4.873209
            ],
            [
              114.801204,
              4.863024
            ],
            [
              114.80396,
              4.858705
            ],
            [
              114.80428,
              4.856462
            ],
            [
              114.796938,
              4.837525
            ],
            [
              114.79278,
              4.823961
            ],
            [
              114.778425,
              4.79425
            ],
            [
              114.7757,
              4.780503
            ],
            [
              114.774753,
              4.770721
            ],
            [
              114.772096,
              4.766307
            ],
            [
              114.779342,
              4.746628
            ],
            [
              114.783079,
              4.734331
            ],
            [
              114.789665,
              4.73768
            ],
            [
              114.788912,
              4.735615
            ],
            [
              114.789182,
              4.730496
            ],
            [
              114.791288,
              4.732431
            ],
            [
              114.800981,
              4.736377
            ],
            [
              114.802483,
              4.740128
            ],
            [
              114.807419,
              4.740886
            ],
            [
              114.813757,
              4.74011
            ],
            [
              114.820451,
              4.743807
            ],
            [
              114.823854,
              4.744993
            ],
            [
              114.82572,
              4.747011
            ],
            [
              114.828941,
              4.753157
            ],
            [
              114.831438,
              4.754017
            ],
            [
              114.834005,
              4.756972
            ],
            [
              114.834296,
              4.758082
            ],
            [
              114.836635,
              4.760294
            ],
            [
              114.842472,
              4.771598
            ],
            [
              114.846883,
              4.785606
            ],
            [
              114.85085,
              4.7914
            ],
            [
              114.853728,
              4.7942
            ],
            [
              114.858511,
              4.797505
            ],
            [
              114.874767,
              4.803261
            ],
            [
              114.896272,
              4.816056
            ],
            [
              114.898533,
              4.815988
            ],
            [
              114.913887,
              4.810165
            ],
            [
              114.914058,
              4.809107
            ],
            [
              114.918739,
              4.808848
            ],
            [
              114.919489,
              4.80995
            ],
            [
              114.93415,
              4.814967
            ],
            [
              114.9387,
              4.814153
            ],
            [
              114.939233,
              4.809461
            ],
            [
              114.94269,
              4.807764
            ],
            [
              114.946682,
              4.812915
            ],
            [
              114.948781,
              4.813926
            ],
            [
              114.950765,
              4.81204
            ],
            [
              114.953312,
              4.812759
            ],
            [
              114.955101,
              4.811573
            ],
            [
              114.957454,
              4.812332
            ],
            [
              114.958738,
              4.811904
            ],
            [
              114.960663,
              4.812196
            ],
            [
              114.962743,
              4.810776
            ],
            [
              114.965232,
              4.810873
            ],
            [
              114.971296,
              4.80825
            ],
            [
              114.972813,
              4.811277
            ],
            [
              114.975248,
              4.814278
            ],
            [
              114.977209,
              4.821188
            ],
            [
              114.980496,
              4.82462
            ],
            [
              114.981604,
              4.828161
            ],
            [
              114.987779,
              4.838606
            ],
            [
              114.987763,
              4.8399
            ],
            [
              114.984793,
              4.843245
            ],
            [
              114.983538,
              4.845693
            ],
            [
              114.983617,
              4.850045
            ],
            [
              114.984433,
              4.850978
            ],
            [
              114.990305,
              4.853389
            ],
            [
              114.992405,
              4.855489
            ],
            [
              114.99225,
              4.857161
            ],
            [
              114.987894,
              4.868711
            ],
            [
              114.988011,
              4.871861
            ],
            [
              114.992406,
              4.876839
            ],
            [
              115.000106,
              4.883644
            ],
            [
              115.015286,
              4.894062
            ],
            [
              115.025019,
              4.896608
            ],
            [
              115.028804,
              4.896014
            ],
            [
              115.030641,
              4.894105
            ],
            [
              115.029656,
              4.885501
            ],
            [
              115.030454,
              4.88343
            ],
            [
              115.03428,
              4.881926
            ],
            [
              115.041667,
              4.880556
            ],
            [
              115.045833,
              4.877222
            ],
            [
              115.066944,
              4.870833
            ],
            [
              115.085906,
              4.939093
            ],
            [
              115.132222,
              4.962222
            ],
            [
              115.144722,
              4.986944
            ],
            [
              115.149167,
              5.001667
            ],
            [
              115.154444,
              5.013611
            ],
            [
              115.164167,
              5.028333
            ],
            [
              115.176667,
              5.036944
            ],
            [
              115.208611,
              5.066667
            ],
            [
              115.238435,
              5.098976
            ],
            [
              115.232222,
              5.096667
            ],
            [
              115.107778,
              5.117222
            ],
            [
              115.064722,
              5.155556
            ],
            [
              114.928889,
              5.150833
            ],
            [
              114.889668,
              5.199126
            ],
            [
              114.860353,
              5.18762
            ],
            [
              114.840625,
              5.178822
            ],
            [
              114.827458,
              5.175361
            ],
            [
              114.814999,
              5.17362
            ],
            [
              114.802668,
              5.171096
            ],
            [
              114.781559,
              5.164833
            ],
            [
              114.764103,
              5.157642
            ],
            [
              114.746682,
              5.148407
            ],
            [
              114.727707,
              5.140913
            ],
            [
              114.710311,
              5.131994
            ],
            [
              114.694376,
              5.121794
            ],
            [
              114.679288,
              5.10998
            ],
            [
              114.662929,
              5.094254
            ],
            [
              114.66109,
              5.092284
            ]
          ]
        ]
      }
    }
  ]
}
