{
  "type": "FeatureCollection",
  "features": [
    {
      "type": "Feature",
      "properties": {
        "geo_id": "geo_kh_0033",
        "name": "Battambang",
        "boundary_level": "province",
        "osm_type": "relation",
        "osm_id": 6608542,
        "source_checked_at": "2026-10-01"
      },
      "geometry": {
        "type": "Polygon",
        "coordinates": [
          [
            [
              102.345081,
              13.346887
            ],
            [
              102.345733,
              13.345548
            ],
            [
              102.348086,
              13.344572
            ],
            [
              102.349141,
              13.342626
            ],
            [
              102.351403,
              13.340993
            ],
            [
              102.35157,
              13.33923
            ],
            [
              102.350432,
              13.335966
            ],
            [
              102.352238,
              13.333978
            ],
            [
              102.351801,
              13.332324
            ],
            [
              102.352326,
              13.330582
            ],
            [
              102.354399,
              13.329226
            ],
            [
              102.355849,
              13.325872
            ],
            [
              102.35731,
              13.324662
            ],
            [
              102.35754,
              13.32105
            ],
            [
              102.359644,
              13.313693
            ],
            [
              102.357149,
              13.305651
            ],
            [
              102.350026,
              13.291574
            ],
            [
              102.3493,
              13.286649
            ],
            [
              102.349927,
              13.281098
            ],
            [
              102.349406,
              13.277356
            ],
            [
              102.35146,
              13.272673
            ],
            [
              102.357559,
              13.271198
            ],
            [
              102.362443,
              13.26857
            ],
            [
              102.367061,
              13.262876
            ],
            [
              102.366476,
              13.255416
            ],
            [
              102.36764,
              13.252714
            ],
            [
              102.367391,
              13.248707
            ],
            [
              102.368745,
              13.247044
            ],
            [
              102.369668,
              13.243815
            ],
            [
              102.370556,
              13.236774
            ],
            [
              102.378522,
              13.227168
            ],
            [
              102.379663,
              13.222332
            ],
            [
              102.386678,
              13.217174
            ],
            [
              102.386284,
              13.215379
            ],
            [
              102.388009,
              13.214201
            ],
            [
              102.386744,
              13.212686
            ],
            [
              102.38904,
              13.209354
            ],
            [
              102.388726,
              13.206528
            ],
            [
              102.389669,
              13.202346
            ],
            [
              102.393231,
              13.199175
            ],
            [
              102.394232,
              13.191297
            ],
            [
              102.393769,
              13.188101
            ],
            [
              102.391566,
              13.185303
            ],
            [
              102.392622,
              13.182787
            ],
            [
              102.393143,
              13.177258
            ],
            [
              102.3962,
              13.175346
            ],
            [
              102.398413,
              13.170808
            ],
            [
              102.39791,
              13.168071
            ],
            [
              102.399348,
              13.161139
            ],
            [
              102.398675,
              13.158985
            ],
            [
              102.399026,
              13.156602
            ],
            [
              102.400794,
              13.154527
            ],
            [
              102.401611,
              13.151194
            ],
            [
              102.404906,
              13.148846
            ],
            [
              102.405913,
              13.145251
            ],
            [
              102.411063,
              13.143931
            ],
            [
              102.416547,
              13.139535
            ],
            [
              102.418099,
              13.136633
            ],
            [
              102.417781,
              13.132969
            ],
            [
              102.416866,
              13.131685
            ],
            [
              102.417549,
              13.126399
            ],
            [
              102.416472,
              13.124794
            ],
            [
              102.416583,
              13.122993
            ],
            [
              102.420061,
              13.119843
            ],
            [
              102.421715,
              13.117206
            ],
            [
              102.422727,
              13.116859
            ],
            [
              102.423033,
              13.112924
            ],
            [
              102.42457,
              13.11164
            ],
            [
              102.424965,
              13.108188
            ],
            [
              102.426204,
              13.107418
            ],
            [
              102.427795,
              13.107937
            ],
            [
              102.430166,
              13.105111
            ],
            [
              102.431281,
              13.105052
            ],
            [
              102.431517,
              13.103608
            ],
            [
              102.433251,
              13.101314
            ],
            [
              102.433324,
              13.097148
            ],
            [
              102.432659,
              13.095454
            ],
            [
              102.433201,
              13.092704
            ],
            [
              102.435264,
              13.089014
            ],
            [
              102.439611,
              13.085561
            ],
            [
              102.442958,
              13.085074
            ],
            [
              102.444465,
              13.087072
            ],
            [
              102.446024,
              13.086468
            ],
            [
              102.447345,
              13.084833
            ],
            [
              102.44951,
              13.084314
            ],
            [
              102.449118,
              13.083576
            ],
            [
              102.44999,
              13.083148
            ],
            [
              102.456605,
              13.083113
            ],
            [
              102.459499,
              13.082173
            ],
            [
              102.494368,
              13.013414
            ],
            [
              102.496593,
              13.012403
            ],
            [
              102.505307,
              13.005429
            ],
            [
              102.525226,
              13.005664
            ],
            [
              102.530128,
              13.002475
            ],
            [
              102.530015,
              13.001602
            ],
            [
              102.528576,
              13.000497
            ],
            [
              102.52707,
              13.002048
            ],
            [
              102.525384,
              13.002119
            ],
            [
              102.525306,
              13.001012
            ],
            [
              102.526307,
              12.999723
            ],
            [
              102.520964,
              12.999919
            ],
            [
              102.520325,
              12.998852
            ],
            [
              102.520855,
              12.998236
            ],
            [
              102.522856,
              12.998645
            ],
            [
              102.522512,
              12.996984
            ],
            [
              102.516013,
              12.996329
            ],
            [
              102.515422,
              12.994987
            ],
            [
              102.516873,
              12.992646
            ],
            [
              102.515964,
              12.991555
            ],
            [
              102.513587,
              12.991466
            ],
            [
              102.512693,
              12.994851
            ],
            [
              102.511776,
              12.995557
            ],
            [
              102.508237,
              12.995841
            ],
            [
              102.507472,
              12.994144
            ],
            [
              102.506147,
              12.994196
            ],
            [
              102.504022,
              12.992745
            ],
            [
              102.501599,
              12.992244
            ],
            [
              102.500924,
              12.991303
            ],
            [
              102.500658,
              12.988016
            ],
            [
              102.49934,
              12.986729
            ],
            [
              102.496516,
              12.986982
            ],
            [
              102.494322,
              12.985513
            ],
            [
              102.48732,
              12.983243
            ],
            [
              102.486428,
              12.980755
            ],
            [
              102.562429,
              12.980693
            ],
            [
              102.571491,
              12.999803
            ],
            [
              102.571961,
              13.000138
            ],
            [
              102.573202,
              12.998579
            ],
            [
              102.574513,
              13.000644
            ],
            [
              102.574123,
              13.002109
            ],
            [
              102.574632,
              13.002571
            ],
            [
              102.575674,
              13.001474
            ],
            [
              102.576671,
              13.00222
            ],
            [
              102.576964,
              13.004092
            ],
            [
              102.576011,
              13.007091
            ],
            [
              102.579543,
              13.007681
            ],
            [
              102.579435,
              13.01237
            ],
            [
              102.580165,
              13.015018
            ],
            [
              102.581315,
              13.016123
            ],
            [
              102.584439,
              13.014352
            ],
            [
              102.584906,
              13.014727
            ],
            [
              102.584037,
              13.01865
            ],
            [
              102.582089,
              13.018788
            ],
            [
              102.581697,
              13.020197
            ],
            [
              102.582609,
              13.021007
            ],
            [
              102.584295,
              13.020448
            ],
            [
              102.586475,
              13.023427
            ],
            [
              102.585553,
              13.025511
            ],
            [
              102.582733,
              13.023885
            ],
            [
              102.580946,
              13.024317
            ],
            [
              102.580914,
              13.025359
            ],
            [
              102.584688,
              13.027172
            ],
            [
              102.586727,
              13.029074
            ],
            [
              102.585291,
              13.030455
            ],
            [
              102.583883,
              13.028978
            ],
            [
              102.582419,
              13.02872
            ],
            [
              102.580245,
              13.031489
            ],
            [
              102.580866,
              13.033513
            ],
            [
              102.584119,
              13.035347
            ],
            [
              102.585561,
              13.037065
            ],
            [
              102.584643,
              13.038465
            ],
            [
              102.58194,
              13.039184
            ],
            [
              102.582999,
              13.044014
            ],
            [
              102.582544,
              13.046033
            ],
            [
              102.584163,
              13.048772
            ],
            [
              102.58162,
              13.0487
            ],
            [
              102.579274,
              13.051781
            ],
            [
              102.579966,
              13.054254
            ],
            [
              102.577895,
              13.060859
            ],
            [
              102.576656,
              13.060879
            ],
            [
              102.574718,
              13.057186
            ],
            [
              102.573008,
              13.06249
            ],
            [
              102.573803,
              13.063835
            ],
            [
              102.57611,
              13.064216
            ],
            [
              102.577693,
              13.065555
            ],
            [
              102.578557,
              13.074012
            ],
            [
              102.580079,
              13.074673
            ],
            [
              102.581485,
              13.073778
            ],
            [
              102.583077,
              13.074586
            ],
            [
              102.586105,
              13.074039
            ],
            [
              102.592831,
              13.081131
            ],
            [
              102.593134,
              13.082917
            ],
            [
              102.591926,
              13.084193
            ],
            [
              102.588882,
              13.082019
            ],
            [
              102.585888,
              13.081611
            ],
            [
              102.585899,
              13.085755
            ],
            [
              102.58952,
              13.087407
            ],
            [
              102.594606,
              13.087437
            ],
            [
              102.598318,
              13.086131
            ],
            [
              102.600053,
              13.086577
            ],
            [
              102.601724,
              13.089683
            ],
            [
              102.601462,
              13.090638
            ],
            [
              102.596958,
              13.093221
            ],
            [
              102.596931,
              13.094371
            ],
            [
              102.598994,
              13.095138
            ],
            [
              102.602536,
              13.094577
            ],
            [
              102.603053,
              13.09681
            ],
            [
              102.601991,
              13.098682
            ],
            [
              102.604762,
              13.101184
            ],
            [
              102.606397,
              13.100626
            ],
            [
              102.60773,
              13.097044
            ],
            [
              102.608764,
              13.096682
            ],
            [
              102.610813,
              13.097196
            ],
            [
              102.61235,
              13.098703
            ],
            [
              102.61453,
              13.09904
            ],
            [
              102.614522,
              13.100284
            ],
            [
              102.613478,
              13.101445
            ],
            [
              102.613878,
              13.102474
            ],
            [
              102.616741,
              13.102517
            ],
            [
              102.618069,
              13.100994
            ],
            [
              102.621673,
              13.100978
            ],
            [
              102.624764,
              13.104211
            ],
            [
              102.627284,
              13.104794
            ],
            [
              102.629366,
              13.103895
            ],
            [
              102.635386,
              13.106174
            ],
            [
              102.634983,
              13.110432
            ],
            [
              102.633332,
              13.112986
            ],
            [
              102.633888,
              13.11433
            ],
            [
              102.634917,
              13.114628
            ],
            [
              102.63828,
              13.113775
            ],
            [
              102.643442,
              13.115111
            ],
            [
              102.643918,
              13.114661
            ],
            [
              102.643542,
              13.111642
            ],
            [
              102.64449,
              13.111263
            ],
            [
              102.646259,
              13.113955
            ],
            [
              102.648177,
              13.114303
            ],
            [
              102.65043,
              13.11667
            ],
            [
              102.652326,
              13.115787
            ],
            [
              102.653806,
              13.113479
            ],
            [
              102.657311,
              13.114898
            ],
            [
              102.660152,
              13.113495
            ],
            [
              102.663755,
              13.11309
            ],
            [
              102.664301,
              13.113285
            ],
            [
              102.664289,
              13.115383
            ],
            [
              102.665676,
              13.115834
            ],
            [
              102.669725,
              13.113582
            ],
            [
              102.668229,
              13.112239
            ],
            [
              102.668414,
              13.111439
            ],
            [
              102.671599,
              13.110642
            ],
            [
              102.674219,
              13.111599
            ],
            [
              102.675923,
              13.110532
            ],
            [
              102.678008,
              13.11035
            ],
            [
              102.680385,
              13.111085
            ],
            [
              102.681251,
              13.109449
            ],
            [
              102.684851,
              13.107556
            ],
            [
              102.685594,
              13.102912
            ],
            [
              102.687062,
              13.100844
            ],
            [
              102.689781,
              13.10497
            ],
            [
              102.690634,
              13.103025
            ],
            [
              102.692347,
              13.10299
            ],
            [
              102.694259,
              13.101428
            ],
            [
              102.695945,
              13.101769
            ],
            [
              102.737332,
              13.044809
            ],
            [
              102.751341,
              13.026722
            ],
            [
              102.753195,
              12.749389
            ],
            [
              102.746221,
              12.743599
            ],
            [
              102.666554,
              12.689762
            ],
            [
              102.517837,
              12.663855
            ],
            [
              102.520443,
              12.661761
            ],
            [
              102.522469,
              12.661404
            ],
            [
              102.526378,
              12.657573
            ],
            [
              102.531444,
              12.654053
            ],
            [
              102.539502,
              12.652003
            ],
            [
              102.54452,
              12.656325
            ],
            [
              102.550407,
              12.655924
            ],
            [
              102.552385,
              12.652671
            ],
            [
              102.554267,
              12.652582
            ],
            [
              102.566812,
              12.657974
            ],
            [
              102.568501,
              12.657394
            ],
            [
              102.569852,
              12.654543
            ],
            [
              102.571589,
              12.653652
            ],
            [
              102.578923,
              12.65383
            ],
            [
              102.581143,
              12.652226
            ],
            [
              102.581481,
              12.647057
            ],
            [
              102.582687,
              12.644785
            ],
            [
              102.585968,
              12.643894
            ],
            [
              102.588091,
              12.640107
            ],
            [
              102.592144,
              12.638636
            ],
            [
              102.593109,
              12.63574
            ],
            [
              102.596632,
              12.633602
            ],
            [
              102.598755,
              12.630349
            ],
            [
              102.606185,
              12.628032
            ],
            [
              102.606909,
              12.625359
            ],
            [
              102.611638,
              12.621794
            ],
            [
              102.616994,
              12.61569
            ],
            [
              102.624714,
              12.61569
            ],
            [
              102.627464,
              12.614799
            ],
            [
              102.629346,
              12.612794
            ],
            [
              102.629056,
              12.610076
            ],
            [
              102.633737,
              12.609898
            ],
            [
              102.643291,
              12.612037
            ],
            [
              102.645269,
              12.611101
            ],
            [
              102.646668,
              12.608249
            ],
            [
              102.648067,
              12.599294
            ],
            [
              102.646909,
              12.595952
            ],
            [
              102.644352,
              12.595729
            ],
            [
              102.644111,
              12.59359
            ],
            [
              102.645462,
              12.589892
            ],
            [
              102.644449,
              12.585437
            ],
            [
              102.647735,
              12.583578
            ],
            [
              102.65159,
              12.582496
            ],
            [
              102.653576,
              12.582893
            ],
            [
              102.660156,
              12.581849
            ],
            [
              102.66186,
              12.58314
            ],
            [
              102.667609,
              12.573362
            ],
            [
              102.666789,
              12.570288
            ],
            [
              102.668237,
              12.567525
            ],
            [
              102.667851,
              12.563426
            ],
            [
              102.675667,
              12.559461
            ],
            [
              102.679337,
              12.554091
            ],
            [
              102.681506,
              12.552777
            ],
            [
              102.685124,
              12.548233
            ],
            [
              102.677549,
              12.543153
            ],
            [
              102.67726,
              12.539856
            ],
            [
              102.679141,
              12.53794
            ],
            [
              102.684805,
              12.537674
            ],
            [
              102.689929,
              12.533706
            ],
            [
              102.691928,
              12.533173
            ],
            [
              102.692748,
              12.532237
            ],
            [
              102.693038,
              12.529831
            ],
            [
              102.69738,
              12.527024
            ],
            [
              102.695209,
              12.524306
            ],
            [
              102.695113,
              12.520964
            ],
            [
              102.697236,
              12.519984
            ],
            [
              102.702021,
              12.520312
            ],
            [
              102.705008,
              12.519564
            ],
            [
              102.70568,
              12.516732
            ],
            [
              102.704715,
              12.514548
            ],
            [
              102.705873,
              12.512855
            ],
            [
              102.707224,
              12.511786
            ],
            [
              102.709926,
              12.511162
            ],
            [
              102.710601,
              12.509469
            ],
            [
              102.714558,
              12.507687
            ],
            [
              102.717115,
              12.507865
            ],
            [
              102.722133,
              12.512499
            ],
            [
              102.724256,
              12.513301
            ],
            [
              102.728502,
              12.512677
            ],
            [
              102.728937,
              12.509558
            ],
            [
              102.72334,
              12.502474
            ],
            [
              102.723484,
              12.499979
            ],
            [
              102.725657,
              12.495929
            ],
            [
              102.720012,
              12.491206
            ],
            [
              102.720687,
              12.488934
            ],
            [
              102.720349,
              12.486617
            ],
            [
              102.722183,
              12.484969
            ],
            [
              102.725078,
              12.48635
            ],
            [
              102.726526,
              12.48831
            ],
            [
              102.730096,
              12.490404
            ],
            [
              102.733763,
              12.489201
            ],
            [
              102.734391,
              12.486795
            ],
            [
              102.735404,
              12.485726
            ],
            [
              102.737334,
              12.485236
            ],
            [
              102.740084,
              12.482607
            ],
            [
              102.736996,
              12.474721
            ],
            [
              102.737479,
              12.473028
            ],
            [
              102.736562,
              12.465854
            ],
            [
              102.740663,
              12.466166
            ],
            [
              102.741918,
              12.465498
            ],
            [
              102.743896,
              12.461889
            ],
            [
              102.743365,
              12.459483
            ],
            [
              102.745585,
              12.457656
            ],
            [
              102.746309,
              12.457299
            ],
            [
              102.747177,
              12.458903
            ],
            [
              102.748383,
              12.459483
            ],
            [
              102.748769,
              12.461265
            ],
            [
              102.750024,
              12.462112
            ],
            [
              102.752147,
              12.461269
            ],
            [
              102.752726,
              12.458151
            ],
            [
              102.753884,
              12.456368
            ],
            [
              102.754753,
              12.45619
            ],
            [
              102.756924,
              12.457438
            ],
            [
              102.763052,
              12.456413
            ],
            [
              102.76532,
              12.456903
            ],
            [
              102.767684,
              12.452715
            ],
            [
              102.767732,
              12.450309
            ],
            [
              102.769421,
              12.448482
            ],
            [
              102.769132,
              12.441977
            ],
            [
              102.770821,
              12.441041
            ],
            [
              102.771641,
              12.438056
            ],
            [
              102.774488,
              12.43467
            ],
            [
              102.776514,
              12.435026
            ],
            [
              102.778686,
              12.436541
            ],
            [
              102.780809,
              12.435071
            ],
            [
              102.781774,
              12.430392
            ],
            [
              102.784234,
              12.426739
            ],
            [
              102.7838,
              12.42558
            ],
            [
              102.786261,
              12.420412
            ],
            [
              102.787419,
              12.415466
            ],
            [
              102.786695,
              12.407401
            ],
            [
              102.784427,
              12.403748
            ],
            [
              102.784665,
              12.401779
            ],
            [
              102.78722,
              12.397365
            ],
            [
              102.793737,
              12.389861
            ],
            [
              102.79595,
              12.383727
            ],
            [
              102.798533,
              12.380244
            ],
            [
              102.803892,
              12.376202
            ],
            [
              102.80807,
              12.374441
            ],
            [
              102.809565,
              12.371119
            ],
            [
              102.816051,
              12.37698
            ],
            [
              102.818403,
              12.377942
            ],
            [
              102.82002,
              12.380984
            ],
            [
              102.817284,
              12.385704
            ],
            [
              102.820905,
              12.394129
            ],
            [
              102.82589,
              12.397029
            ],
            [
              102.826971,
              12.402323
            ],
            [
              102.831516,
              12.404922
            ],
            [
              102.834835,
              12.408518
            ],
            [
              102.835598,
              12.4117
            ],
            [
              102.83677,
              12.412593
            ],
            [
              102.839103,
              12.413028
            ],
            [
              102.842822,
              12.409337
            ],
            [
              102.846759,
              12.409591
            ],
            [
              102.852417,
              12.407225
            ],
            [
              102.851863,
              12.404159
            ],
            [
              102.857482,
              12.403351
            ],
            [
              102.869457,
              12.398131
            ],
            [
              102.873426,
              12.397525
            ],
            [
              102.873406,
              12.401892
            ],
            [
              102.875173,
              12.402952
            ],
            [
              102.876307,
              12.406505
            ],
            [
              102.877707,
              12.407985
            ],
            [
              102.882107,
              12.407463
            ],
            [
              102.88295,
              12.408549
            ],
            [
              102.882525,
              12.412568
            ],
            [
              102.886817,
              12.414751
            ],
            [
              102.888206,
              12.413721
            ],
            [
              102.889638,
              12.414376
            ],
            [
              102.890142,
              12.4154
            ],
            [
              102.889684,
              12.418009
            ],
            [
              102.890457,
              12.41906
            ],
            [
              102.895041,
              12.421371
            ],
            [
              102.896895,
              12.424254
            ],
            [
              102.898244,
              12.424954
            ],
            [
              102.899587,
              12.428669
            ],
            [
              102.90254,
              12.429154
            ],
            [
              102.903062,
              12.433159
            ],
            [
              102.905216,
              12.434084
            ],
            [
              102.908357,
              12.430857
            ],
            [
              102.909883,
              12.431513
            ],
            [
              102.911143,
              12.430516
            ],
            [
              102.91188,
              12.428058
            ],
            [
              102.914723,
              12.430319
            ],
            [
              102.915268,
              12.431962
            ],
            [
              102.918132,
              12.430785
            ],
            [
              102.919973,
              12.431386
            ],
            [
              102.922429,
              12.434939
            ],
            [
              102.926705,
              12.43406
            ],
            [
              102.928017,
              12.43256
            ],
            [
              102.932009,
              12.432102
            ],
            [
              102.933998,
              12.43314
            ],
            [
              102.938914,
              12.431269
            ],
            [
              102.940537,
              12.431605
            ],
            [
              102.941156,
              12.430361
            ],
            [
              102.941775,
              12.430469
            ],
            [
              102.943229,
              12.432454
            ],
            [
              102.945191,
              12.432667
            ],
            [
              102.945634,
              12.434035
            ],
            [
              102.946897,
              12.43282
            ],
            [
              102.947549,
              12.43302
            ],
            [
              102.94941,
              12.43533
            ],
            [
              102.951178,
              12.436217
            ],
            [
              102.950612,
              12.437954
            ],
            [
              102.951584,
              12.438994
            ],
            [
              102.950622,
              12.440579
            ],
            [
              102.951071,
              12.441294
            ],
            [
              102.954745,
              12.443459
            ],
            [
              102.959625,
              12.444225
            ],
            [
              102.962273,
              12.446093
            ],
            [
              102.966621,
              12.447496
            ],
            [
              102.967663,
              12.44864
            ],
            [
              102.969495,
              12.44775
            ],
            [
              102.973042,
              12.451037
            ],
            [
              102.973812,
              12.454804
            ],
            [
              102.973476,
              12.458218
            ],
            [
              102.97716,
              12.463099
            ],
            [
              102.980864,
              12.469482
            ],
            [
              102.981967,
              12.472817
            ],
            [
              102.985596,
              12.474798
            ],
            [
              102.987964,
              12.479152
            ],
            [
              102.992943,
              12.481958
            ],
            [
              102.996652,
              12.485691
            ],
            [
              102.998833,
              12.485197
            ],
            [
              103.001733,
              12.48004
            ],
            [
              103.007148,
              12.477501
            ],
            [
              103.008342,
              12.476278
            ],
            [
              103.009023,
              12.470053
            ],
            [
              103.019493,
              12.455863
            ],
            [
              103.021076,
              12.447335
            ],
            [
              103.027745,
              12.447411
            ],
            [
              103.033161,
              12.443761
            ],
            [
              103.04373,
              12.442884
            ],
            [
              103.052884,
              12.439148
            ],
            [
              103.062246,
              12.438681
            ],
            [
              103.067042,
              12.437027
            ],
            [
              103.071057,
              12.43934
            ],
            [
              103.071465,
              12.440422
            ],
            [
              103.071692,
              12.446039
            ],
            [
              103.070429,
              12.457355
            ],
            [
              103.072001,
              12.45979
            ],
            [
              103.076529,
              12.460161
            ],
            [
              103.082049,
              12.464657
            ],
            [
              103.088342,
              12.46499
            ],
            [
              103.094982,
              12.462567
            ],
            [
              103.097282,
              12.463703
            ],
            [
              103.103159,
              12.463608
            ],
            [
              103.104408,
              12.464654
            ],
            [
              103.105018,
              12.468601
            ],
            [
              103.106032,
              12.469758
            ],
            [
              103.11442,
              12.473861
            ],
            [
              103.127565,
              12.48293
            ],
            [
              103.135473,
              12.484105
            ],
            [
              103.136052,
              12.484604
            ],
            [
              103.136272,
              12.488857
            ],
            [
              103.137281,
              12.489487
            ],
            [
              103.142903,
              12.489309
            ],
            [
              103.151558,
              12.483319
            ],
            [
              103.155727,
              12.48137
            ],
            [
              103.157952,
              12.480948
            ],
            [
              103.160328,
              12.48157
            ],
            [
              103.164427,
              12.485865
            ],
            [
              103.165278,
              12.488108
            ],
            [
              103.168665,
              12.49243
            ],
            [
              103.177652,
              12.499528
            ],
            [
              103.180405,
              12.503445
            ],
            [
              103.188202,
              12.507489
            ],
            [
              103.206408,
              12.511204
            ],
            [
              103.209494,
              12.513211
            ],
            [
              103.216729,
              12.520331
            ],
            [
              103.223079,
              12.525229
            ],
            [
              103.225441,
              12.526174
            ],
            [
              103.230707,
              12.526795
            ],
            [
              103.237655,
              12.524319
            ],
            [
              103.242665,
              12.520672
            ],
            [
              103.246699,
              12.519083
            ],
            [
              103.249023,
              12.519405
            ],
            [
              103.252231,
              12.522904
            ],
            [
              103.255155,
              12.528298
            ],
            [
              103.260885,
              12.530376
            ],
            [
              103.261884,
              12.529942
            ],
            [
              103.268908,
              12.533723
            ],
            [
              103.26968,
              12.53785
            ],
            [
              103.271557,
              12.541163
            ],
            [
              103.275222,
              12.543347
            ],
            [
              103.281292,
              12.54292
            ],
            [
              103.283768,
              12.548421
            ],
            [
              103.285059,
              12.549775
            ],
            [
              103.290417,
              12.549947
            ],
            [
              103.296067,
              12.548357
            ],
            [
              103.298507,
              12.54615
            ],
            [
              103.302651,
              12.545564
            ],
            [
              103.304092,
              12.547767
            ],
            [
              103.303336,
              12.549752
            ],
            [
              103.304201,
              12.551312
            ],
            [
              103.302788,
              12.55323
            ],
            [
              103.303296,
              12.558987
            ],
            [
              103.304013,
              12.559522
            ],
            [
              103.306475,
              12.559243
            ],
            [
              103.306467,
              12.560402
            ],
            [
              103.307597,
              12.561843
            ],
            [
              103.30824,
              12.561395
            ],
            [
              103.308294,
              12.559668
            ],
            [
              103.309475,
              12.559249
            ],
            [
              103.311049,
              12.559864
            ],
            [
              103.311219,
              12.561146
            ],
            [
              103.312439,
              12.561559
            ],
            [
              103.313878,
              12.559951
            ],
            [
              103.314059,
              12.556831
            ],
            [
              103.315499,
              12.557364
            ],
            [
              103.314907,
              12.559613
            ],
            [
              103.316199,
              12.560647
            ],
            [
              103.317865,
              12.559032
            ],
            [
              103.317847,
              12.557856
            ],
            [
              103.318654,
              12.557949
            ],
            [
              103.319735,
              12.56132
            ],
            [
              103.321141,
              12.560503
            ],
            [
              103.321742,
              12.558205
            ],
            [
              103.322328,
              12.558159
            ],
            [
              103.322848,
              12.560364
            ],
            [
              103.327086,
              12.560305
            ],
            [
              103.328801,
              12.559489
            ],
            [
              103.329446,
              12.56008
            ],
            [
              103.328864,
              12.561632
            ],
            [
              103.325317,
              12.562525
            ],
            [
              103.324709,
              12.563877
            ],
            [
              103.3241,
              12.56668
            ],
            [
              103.32595,
              12.568539
            ],
            [
              103.360542,
              12.56039
            ],
            [
              103.360361,
              12.557802
            ],
            [
              103.361817,
              12.553673
            ],
            [
              103.361903,
              12.551294
            ],
            [
              103.365351,
              12.551949
            ],
            [
              103.366469,
              12.550991
            ],
            [
              103.370265,
              12.550372
            ],
            [
              103.373503,
              12.550819
            ],
            [
              103.376357,
              12.552654
            ],
            [
              103.377701,
              12.554686
            ],
            [
              103.381828,
              12.557
            ],
            [
              103.382052,
              12.558485
            ],
            [
              103.383302,
              12.558758
            ],
            [
              103.38883,
              12.558116
            ],
            [
              103.391791,
              12.559848
            ],
            [
              103.403124,
              12.557381
            ],
            [
              103.411314,
              12.552236
            ],
            [
              103.440769,
              12.539525
            ],
            [
              103.443006,
              12.539194
            ],
            [
              103.443993,
              12.540476
            ],
            [
              103.448761,
              12.537945
            ],
            [
              103.454457,
              12.537139
            ],
            [
              103.458396,
              12.53569
            ],
            [
              103.46786,
              12.526259
            ],
            [
              103.472058,
              12.525096
            ],
            [
              103.476943,
              12.522298
            ],
            [
              103.47797,
              12.520936
            ],
            [
              103.481923,
              12.519397
            ],
            [
              103.486316,
              12.514882
            ],
            [
              103.490394,
              12.513896
            ],
            [
              103.492688,
              12.511955
            ],
            [
              103.495931,
              12.511344
            ],
            [
              103.506048,
              12.505917
            ],
            [
              103.511891,
              12.504182
            ],
            [
              103.514813,
              12.505132
            ],
            [
              103.522808,
              12.503787
            ],
            [
              103.524218,
              12.505263
            ],
            [
              103.538743,
              12.513744
            ],
            [
              103.545108,
              12.514749
            ],
            [
              103.562906,
              12.521292
            ],
            [
              103.580731,
              12.522234
            ],
            [
              103.588606,
              12.523403
            ],
            [
              103.602923,
              12.523057
            ],
            [
              103.606549,
              12.523928
            ],
            [
              103.610852,
              12.526077
            ],
            [
              103.611707,
              12.529765
            ],
            [
              103.612864,
              12.530127
            ],
            [
              103.612442,
              12.531627
            ],
            [
              103.615656,
              12.53382
            ],
            [
              103.613189,
              12.536217
            ],
            [
              103.613384,
              12.536824
            ],
            [
              103.615685,
              12.536975
            ],
            [
              103.613583,
              12.538482
            ],
            [
              103.614038,
              12.540425
            ],
            [
              103.614921,
              12.540766
            ],
            [
              103.616405,
              12.539342
            ],
            [
              103.618753,
              12.542224
            ],
            [
              103.618593,
              12.543397
            ],
            [
              103.619766,
              12.543801
            ],
            [
              103.619214,
              12.546241
            ],
            [
              103.621677,
              12.549903
            ],
            [
              103.622782,
              12.555046
            ],
            [
              103.622278,
              12.55539
            ],
            [
              103.623972,
              12.556751
            ],
            [
              103.622387,
              12.558979
            ],
            [
              103.622124,
              12.561175
            ],
            [
              103.623737,
              12.562399
            ],
            [
              103.625587,
              12.562161
            ],
            [
              103.626674,
              12.562969
            ],
            [
              103.631863,
              12.563761
            ],
            [
              103.634797,
              12.568287
            ],
            [
              103.633378,
              12.569765
            ],
            [
              103.634784,
              12.573455
            ],
            [
              103.636376,
              12.572893
            ],
            [
              103.637883,
              12.574235
            ],
            [
              103.638033,
              12.575341
            ],
            [
              103.638857,
              12.575772
            ],
            [
              103.640289,
              12.575152
            ],
            [
              103.643504,
              12.577781
            ],
            [
              103.642543,
              12.579755
            ],
            [
              103.64152,
              12.579932
            ],
            [
              103.64258,
              12.581447
            ],
            [
              103.640607,
              12.582115
            ],
            [
              103.641275,
              12.583549
            ],
            [
              103.639227,
              12.584027
            ],
            [
              103.639441,
              12.5857
            ],
            [
              103.637104,
              12.58849
            ],
            [
              103.637851,
              12.589826
            ],
            [
              103.637591,
              12.591508
            ],
            [
              103.634862,
              12.590937
            ],
            [
              103.633709,
              12.592525
            ],
            [
              103.632608,
              12.592608
            ],
            [
              103.633675,
              12.595013
            ],
            [
              103.631945,
              12.597787
            ],
            [
              103.63534,
              12.599219
            ],
            [
              103.635373,
              12.602642
            ],
            [
              103.637187,
              12.603014
            ],
            [
              103.639748,
              12.604856
            ],
            [
              103.641702,
              12.607724
            ],
            [
              103.641345,
              12.6092
            ],
            [
              103.640278,
              12.608849
            ],
            [
              103.639314,
              12.610503
            ],
            [
              103.637755,
              12.610857
            ],
            [
              103.634314,
              12.615277
            ],
            [
              103.636524,
              12.616501
            ],
            [
              103.634484,
              12.61767
            ],
            [
              103.634271,
              12.618693
            ],
            [
              103.635854,
              12.619848
            ],
            [
              103.635515,
              12.622435
            ],
            [
              103.6368,
              12.623875
            ],
            [
              103.635769,
              12.629337
            ],
            [
              103.639446,
              12.631139
            ],
            [
              103.638032,
              12.63372
            ],
            [
              103.639837,
              12.635313
            ],
            [
              103.645542,
              12.636444
            ],
            [
              103.646066,
              12.637826
            ],
            [
              103.644892,
              12.638882
            ],
            [
              103.645758,
              12.639367
            ],
            [
              103.646919,
              12.638576
            ],
            [
              103.647973,
              12.638854
            ],
            [
              103.649909,
              12.642344
            ],
            [
              103.645672,
              12.646406
            ],
            [
              103.645994,
              12.648627
            ],
            [
              103.644949,
              12.654882
            ],
            [
              103.645649,
              12.656253
            ],
            [
              103.644088,
              12.659397
            ],
            [
              103.645597,
              12.659756
            ],
            [
              103.644656,
              12.662254
            ],
            [
              103.645572,
              12.663883
            ],
            [
              103.645069,
              12.664955
            ],
            [
              103.642318,
              12.665214
            ],
            [
              103.64301,
              12.666435
            ],
            [
              103.641828,
              12.667378
            ],
            [
              103.640074,
              12.666131
            ],
            [
              103.641267,
              12.664789
            ],
            [
              103.640828,
              12.663708
            ],
            [
              103.639264,
              12.66427
            ],
            [
              103.637636,
              12.663742
            ],
            [
              103.61873,
              12.677713
            ],
            [
              103.636518,
              12.701663
            ],
            [
              103.634505,
              12.704321
            ],
            [
              103.634503,
              12.710044
            ],
            [
              103.633405,
              12.709506
            ],
            [
              103.633821,
              12.708867
            ],
            [
              103.629838,
              12.709383
            ],
            [
              103.630775,
              12.710419
            ],
            [
              103.630518,
              12.711175
            ],
            [
              103.631885,
              12.711886
            ],
            [
              103.631017,
              12.715776
            ],
            [
              103.62967,
              12.715258
            ],
            [
              103.62746,
              12.715986
            ],
            [
              103.626674,
              12.716994
            ],
            [
              103.627233,
              12.71822
            ],
            [
              103.625271,
              12.718625
            ],
            [
              103.622842,
              12.721202
            ],
            [
              103.623051,
              12.722019
            ],
            [
              103.625108,
              12.723104
            ],
            [
              103.622234,
              12.725388
            ],
            [
              103.624786,
              12.730915
            ],
            [
              103.623079,
              12.734419
            ],
            [
              103.624314,
              12.737102
            ],
            [
              103.623022,
              12.73871
            ],
            [
              103.622005,
              12.737661
            ],
            [
              103.621348,
              12.738027
            ],
            [
              103.62139,
              12.740201
            ],
            [
              103.620696,
              12.741304
            ],
            [
              103.621391,
              12.744468
            ],
            [
              103.621011,
              12.746493
            ],
            [
              103.619424,
              12.748617
            ],
            [
              103.620468,
              12.751783
            ],
            [
              103.621567,
              12.751887
            ],
            [
              103.622972,
              12.753939
            ],
            [
              103.622334,
              12.759474
            ],
            [
              103.62078,
              12.760157
            ],
            [
              103.619453,
              12.762453
            ],
            [
              103.619865,
              12.763297
            ],
            [
              103.621365,
              12.763292
            ],
            [
              103.622343,
              12.764069
            ],
            [
              103.621278,
              12.765259
            ],
            [
              103.619026,
              12.765968
            ],
            [
              103.619087,
              12.766761
            ],
            [
              103.622248,
              12.768971
            ],
            [
              103.621937,
              12.771567
            ],
            [
              103.624247,
              12.773421
            ],
            [
              103.622997,
              12.775097
            ],
            [
              103.622549,
              12.778427
            ],
            [
              103.623114,
              12.77918
            ],
            [
              103.625278,
              12.779492
            ],
            [
              103.62672,
              12.784454
            ],
            [
              103.62834,
              12.785208
            ],
            [
              103.62876,
              12.786408
            ],
            [
              103.63002,
              12.783755
            ],
            [
              103.631449,
              12.78384
            ],
            [
              103.633903,
              12.78741
            ],
            [
              103.634334,
              12.788703
            ],
            [
              103.633093,
              12.790597
            ],
            [
              103.634318,
              12.793118
            ],
            [
              103.634276,
              12.79474
            ],
            [
              103.636371,
              12.795958
            ],
            [
              103.634603,
              12.799872
            ],
            [
              103.63704,
              12.802948
            ],
            [
              103.636198,
              12.804869
            ],
            [
              103.639321,
              12.805341
            ],
            [
              103.640147,
              12.807857
            ],
            [
              103.644453,
              12.812482
            ],
            [
              103.643332,
              12.814149
            ],
            [
              103.645993,
              12.815087
            ],
            [
              103.643491,
              12.817681
            ],
            [
              103.64306,
              12.819504
            ],
            [
              103.64427,
              12.820276
            ],
            [
              103.643886,
              12.821043
            ],
            [
              103.631413,
              12.823524
            ],
            [
              103.632081,
              12.825498
            ],
            [
              103.630924,
              12.827267
            ],
            [
              103.631913,
              12.829901
            ],
            [
              103.629905,
              12.831304
            ],
            [
              103.629914,
              12.832511
            ],
            [
              103.630661,
              12.8349
            ],
            [
              103.630185,
              12.835447
            ],
            [
              103.631487,
              12.836415
            ],
            [
              103.632323,
              12.839036
            ],
            [
              103.633476,
              12.839715
            ],
            [
              103.632687,
              12.845123
            ],
            [
              103.637254,
              12.848475
            ],
            [
              103.637115,
              12.850336
            ],
            [
              103.639073,
              12.851244
            ],
            [
              103.639692,
              12.852435
            ],
            [
              103.643041,
              12.853726
            ],
            [
              103.643239,
              12.855913
            ],
            [
              103.646212,
              12.856165
            ],
            [
              103.647379,
              12.855581
            ],
            [
              103.652548,
              12.856604
            ],
            [
              103.656782,
              12.860367
            ],
            [
              103.658892,
              12.861345
            ],
            [
              103.662387,
              12.861131
            ],
            [
              103.663275,
              12.862394
            ],
            [
              103.668716,
              12.86418
            ],
            [
              103.671999,
              12.86309
            ],
            [
              103.675786,
              12.863948
            ],
            [
              103.678264,
              12.862493
            ],
            [
              103.679151,
              12.86386
            ],
            [
              103.680454,
              12.861529
            ],
            [
              103.682952,
              12.861453
            ],
            [
              103.683239,
              12.864009
            ],
            [
              103.684974,
              12.863948
            ],
            [
              103.686121,
              12.865179
            ],
            [
              103.690016,
              12.862751
            ],
            [
              103.691539,
              12.865907
            ],
            [
              103.691291,
              12.867077
            ],
            [
              103.692948,
              12.867774
            ],
            [
              103.693541,
              12.86924
            ],
            [
              103.695747,
              12.869967
            ],
            [
              103.696277,
              12.871847
            ],
            [
              103.695585,
              12.873944
            ],
            [
              103.696827,
              12.874016
            ],
            [
              103.696045,
              12.875765
            ],
            [
              103.697327,
              12.876401
            ],
            [
              103.697279,
              12.879621
            ],
            [
              103.697157,
              12.881068
            ],
            [
              103.695125,
              12.883518
            ],
            [
              103.696068,
              12.884081
            ],
            [
              103.695444,
              12.88643
            ],
            [
              103.696513,
              12.887282
            ],
            [
              103.698204,
              12.892108
            ],
            [
              103.696454,
              12.893479
            ],
            [
              103.696568,
              12.894838
            ],
            [
              103.695282,
              12.896606
            ],
            [
              103.696843,
              12.897417
            ],
            [
              103.697896,
              12.900763
            ],
            [
              103.701803,
              12.902428
            ],
            [
              103.701341,
              12.903895
            ],
            [
              103.702558,
              12.904115
            ],
            [
              103.702247,
              12.904709
            ],
            [
              103.699832,
              12.904707
            ],
            [
              103.699427,
              12.905242
            ],
            [
              103.701599,
              12.90706
            ],
            [
              103.701613,
              12.907854
            ],
            [
              103.699548,
              12.909084
            ],
            [
              103.699812,
              12.909604
            ],
            [
              103.703098,
              12.912367
            ],
            [
              103.700699,
              12.914076
            ],
            [
              103.700571,
              12.915053
            ],
            [
              103.703108,
              12.916679
            ],
            [
              103.705267,
              12.919612
            ],
            [
              103.707325,
              12.92005
            ],
            [
              103.709523,
              12.921637
            ],
            [
              103.711787,
              12.9267
            ],
            [
              103.71889,
              12.927824
            ],
            [
              103.721424,
              12.92761
            ],
            [
              103.723638,
              12.929889
            ],
            [
              103.729821,
              12.928439
            ],
            [
              103.731248,
              12.931859
            ],
            [
              103.732424,
              12.932573
            ],
            [
              103.73302,
              12.93695
            ],
            [
              103.732505,
              12.938899
            ],
            [
              103.731475,
              12.939807
            ],
            [
              103.731323,
              12.940806
            ],
            [
              103.732191,
              12.941885
            ],
            [
              103.730331,
              12.944624
            ],
            [
              103.730248,
              12.947844
            ],
            [
              103.727591,
              12.949573
            ],
            [
              103.725448,
              12.949331
            ],
            [
              103.72241,
              12.950529
            ],
            [
              103.718952,
              12.956665
            ],
            [
              103.717423,
              12.963032
            ],
            [
              103.719171,
              12.964647
            ],
            [
              103.718117,
              12.973549
            ],
            [
              103.725409,
              12.97885
            ],
            [
              103.727454,
              12.982645
            ],
            [
              103.731188,
              12.985273
            ],
            [
              103.731565,
              12.994523
            ],
            [
              103.732719,
              12.996203
            ],
            [
              103.73698,
              12.997917
            ],
            [
              103.738943,
              12.999629
            ],
            [
              103.740493,
              13.004598
            ],
            [
              103.740064,
              13.006681
            ],
            [
              103.741346,
              13.008612
            ],
            [
              103.748166,
              13.012518
            ],
            [
              103.75744,
              13.009895
            ],
            [
              103.760006,
              13.009938
            ],
            [
              103.779485,
              13.014791
            ],
            [
              103.901171,
              13.089144
            ],
            [
              103.708955,
              13.261328
            ],
            [
              103.705796,
              13.268906
            ],
            [
              103.701459,
              13.273433
            ],
            [
              103.683188,
              13.286184
            ],
            [
              103.681618,
              13.286597
            ],
            [
              103.676875,
              13.285122
            ],
            [
              103.67697,
              13.284444
            ],
            [
              103.678796,
              13.28352
            ],
            [
              103.679537,
              13.281515
            ],
            [
              103.67634,
              13.280464
            ],
            [
              103.674082,
              13.27735
            ],
            [
              103.66992,
              13.27454
            ],
            [
              103.668438,
              13.274399
            ],
            [
              103.666271,
              13.275024
            ],
            [
              103.667449,
              13.277573
            ],
            [
              103.663536,
              13.278862
            ],
            [
              103.661451,
              13.283787
            ],
            [
              103.658024,
              13.284558
            ],
            [
              103.650898,
              13.288454
            ],
            [
              103.647048,
              13.293536
            ],
            [
              103.644871,
              13.292963
            ],
            [
              103.643011,
              13.294413
            ],
            [
              103.638298,
              13.29223
            ],
            [
              103.63059,
              13.296639
            ],
            [
              103.625136,
              13.298333
            ],
            [
              103.620539,
              13.29603
            ],
            [
              103.613635,
              13.295528
            ],
            [
              103.61159,
              13.292543
            ],
            [
              103.609427,
              13.291892
            ],
            [
              103.607994,
              13.292149
            ],
            [
              103.605182,
              13.294875
            ],
            [
              103.601918,
              13.293819
            ],
            [
              103.596565,
              13.293994
            ],
            [
              103.594587,
              13.29305
            ],
            [
              103.593056,
              13.293655
            ],
            [
              103.590924,
              13.296117
            ],
            [
              103.587428,
              13.298149
            ],
            [
              103.585982,
              13.304085
            ],
            [
              103.579847,
              13.312769
            ],
            [
              103.568822,
              13.31319
            ],
            [
              103.566715,
              13.310211
            ],
            [
              103.565883,
              13.310035
            ],
            [
              103.563188,
              13.310175
            ],
            [
              103.559763,
              13.311657
            ],
            [
              103.556603,
              13.314985
            ],
            [
              103.556293,
              13.32405
            ],
            [
              103.555323,
              13.325177
            ],
            [
              103.551987,
              13.325959
            ],
            [
              103.553995,
              13.330855
            ],
            [
              103.548515,
              13.334481
            ],
            [
              103.5419,
              13.337597
            ],
            [
              103.536319,
              13.338264
            ],
            [
              103.528067,
              13.340521
            ],
            [
              103.527591,
              13.346714
            ],
            [
              103.525745,
              13.349108
            ],
            [
              103.523563,
              13.350136
            ],
            [
              103.505384,
              13.352487
            ],
            [
              103.498886,
              13.349113
            ],
            [
              103.496183,
              13.344957
            ],
            [
              103.49391,
              13.344066
            ],
            [
              103.486608,
              13.346766
            ],
            [
              103.478704,
              13.35356
            ],
            [
              103.477149,
              13.353989
            ],
            [
              103.467633,
              13.346322
            ],
            [
              103.464067,
              13.346319
            ],
            [
              103.460672,
              13.347029
            ],
            [
              103.459279,
              13.348073
            ],
            [
              103.456581,
              13.35134
            ],
            [
              103.457497,
              13.354089
            ],
            [
              103.452262,
              13.353459
            ],
            [
              103.448046,
              13.353958
            ],
            [
              103.448299,
              13.355423
            ],
            [
              103.450125,
              13.356093
            ],
            [
              103.450305,
              13.357155
            ],
            [
              103.447617,
              13.356919
            ],
            [
              103.44591,
              13.355334
            ],
            [
              103.441964,
              13.358713
            ],
            [
              103.441914,
              13.360688
            ],
            [
              103.439488,
              13.360234
            ],
            [
              103.438307,
              13.357995
            ],
            [
              103.437561,
              13.357845
            ],
            [
              103.434776,
              13.361083
            ],
            [
              103.434957,
              13.361889
            ],
            [
              103.434171,
              13.362103
            ],
            [
              103.433094,
              13.361109
            ],
            [
              103.431218,
              13.362341
            ],
            [
              103.429839,
              13.361821
            ],
            [
              103.426175,
              13.362347
            ],
            [
              103.423275,
              13.367212
            ],
            [
              103.421676,
              13.36817
            ],
            [
              103.418763,
              13.368236
            ],
            [
              103.417492,
              13.369144
            ],
            [
              103.416042,
              13.368304
            ],
            [
              103.414615,
              13.36471
            ],
            [
              103.413222,
              13.363682
            ],
            [
              103.407874,
              13.363624
            ],
            [
              103.39992,
              13.362097
            ],
            [
              103.397716,
              13.36122
            ],
            [
              103.394875,
              13.357935
            ],
            [
              103.388586,
              13.362396
            ],
            [
              103.383246,
              13.367811
            ],
            [
              103.375498,
              13.372527
            ],
            [
              103.370977,
              13.373741
            ],
            [
              103.369396,
              13.375281
            ],
            [
              103.365653,
              13.377091
            ],
            [
              103.352056,
              13.381535
            ],
            [
              103.34688,
              13.380123
            ],
            [
              103.331489,
              13.380297
            ],
            [
              103.314043,
              13.381778
            ],
            [
              103.309893,
              13.381384
            ],
            [
              103.300066,
              13.382043
            ],
            [
              103.293339,
              13.383306
            ],
            [
              103.284125,
              13.38628
            ],
            [
              103.279707,
              13.386839
            ],
            [
              103.256505,
              13.384217
            ],
            [
              103.246929,
              13.384394
            ],
            [
              103.220881,
              13.387286
            ],
            [
              103.215622,
              13.38863
            ],
            [
              103.210974,
              13.391763
            ],
            [
              103.207256,
              13.391914
            ],
            [
              103.204284,
              13.39307
            ],
            [
              103.199793,
              13.393306
            ],
            [
              103.197124,
              13.394185
            ],
            [
              103.190852,
              13.39857
            ],
            [
              103.187315,
              13.399408
            ],
            [
              103.186072,
              13.401324
            ],
            [
              103.184975,
              13.405985
            ],
            [
              103.181573,
              13.40796
            ],
            [
              103.181194,
              13.409215
            ],
            [
              103.176067,
              13.410994
            ],
            [
              103.172978,
              13.410313
            ],
            [
              103.17235,
              13.411259
            ],
            [
              103.168875,
              13.410764
            ],
            [
              103.166007,
              13.411885
            ],
            [
              103.163165,
              13.407502
            ],
            [
              103.16032,
              13.406486
            ],
            [
              103.158013,
              13.403375
            ],
            [
              103.155066,
              13.402808
            ],
            [
              103.154153,
              13.405145
            ],
            [
              103.151584,
              13.406989
            ],
            [
              103.150375,
              13.410823
            ],
            [
              103.147787,
              13.411927
            ],
            [
              103.128663,
              13.411426
            ],
            [
              103.124245,
              13.412177
            ],
            [
              103.122512,
              13.410843
            ],
            [
              103.115829,
              13.409368
            ],
            [
              103.11333,
              13.411324
            ],
            [
              103.112356,
              13.411123
            ],
            [
              103.111748,
              13.409588
            ],
            [
              103.111648,
              13.406589
            ],
            [
              103.105785,
              13.40489
            ],
            [
              103.102452,
              13.402681
            ],
            [
              103.098783,
              13.406989
            ],
            [
              103.097781,
              13.406744
            ],
            [
              103.096144,
              13.401087
            ],
            [
              103.094967,
              13.401073
            ],
            [
              103.09202,
              13.398728
            ],
            [
              103.088843,
              13.398224
            ],
            [
              103.087651,
              13.398695
            ],
            [
              103.084693,
              13.397616
            ],
            [
              103.079235,
              13.399
            ],
            [
              103.076814,
              13.398243
            ],
            [
              103.075911,
              13.396494
            ],
            [
              103.070903,
              13.395558
            ],
            [
              103.069067,
              13.39586
            ],
            [
              103.065091,
              13.393982
            ],
            [
              103.061298,
              13.393507
            ],
            [
              103.059524,
              13.392745
            ],
            [
              103.059528,
              13.392082
            ],
            [
              103.044644,
              13.392114
            ],
            [
              103.042405,
              13.391357
            ],
            [
              103.041258,
              13.394429
            ],
            [
              103.038898,
              13.395293
            ],
            [
              103.036341,
              13.398017
            ],
            [
              103.030009,
              13.396626
            ],
            [
              103.029921,
              13.395245
            ],
            [
              103.019756,
              13.39345
            ],
            [
              103.016221,
              13.391564
            ],
            [
              103.015348,
              13.387959
            ],
            [
              103.011544,
              13.382982
            ],
            [
              103.008606,
              13.381987
            ],
            [
              103.00376,
              13.381648
            ],
            [
              103.003389,
              13.380329
            ],
            [
              103.004245,
              13.378187
            ],
            [
              103.003875,
              13.377017
            ],
            [
              103.002016,
              13.375787
            ],
            [
              103.000161,
              13.375568
            ],
            [
              102.998547,
              13.376254
            ],
            [
              102.996362,
              13.377863
            ],
            [
              102.996376,
              13.379912
            ],
            [
              102.992198,
              13.381048
            ],
            [
              102.988714,
              13.379447
            ],
            [
              102.987502,
              13.378312
            ],
            [
              102.986805,
              13.37611
            ],
            [
              102.983983,
              13.361072
            ],
            [
              102.924815,
              13.365615
            ],
            [
              102.922356,
              13.364918
            ],
            [
              102.920716,
              13.365918
            ],
            [
              102.92164,
              13.368995
            ],
            [
              102.921206,
              13.369504
            ],
            [
              102.860038,
              13.387744
            ],
            [
              102.849192,
              13.382579
            ],
            [
              102.746274,
              13.410886
            ],
            [
              102.744975,
              13.412292
            ],
            [
              102.735619,
              13.407543
            ],
            [
              102.727387,
              13.405234
            ],
            [
              102.71478,
              13.39926
            ],
            [
              102.70132,
              13.390814
            ],
            [
              102.687723,
              13.380313
            ],
            [
              102.686813,
              13.479363
            ],
            [
              102.357325,
              13.476109
            ],
            [
              102.356559,
              13.474373
            ],
            [
              102.357924,
              13.471638
            ],
            [
              102.356864,
              13.470096
            ],
            [
              102.355941,
              13.462301
            ],
            [
              102.355171,
              13.461242
            ],
            [
              102.355799,
              13.460304
            ],
            [
              102.35545,
              13.459579
            ],
            [
              102.356654,
              13.45854
            ],
            [
              102.355621,
              13.456046
            ],
            [
              102.355648,
              13.453247
            ],
            [
              102.356661,
              13.452701
            ],
            [
              102.355541,
              13.451262
            ],
            [
              102.35688,
              13.448974
            ],
            [
              102.355303,
              13.447222
            ],
            [
              102.356564,
              13.44647
            ],
            [
              102.358666,
              13.446573
            ],
            [
              102.359409,
              13.443696
            ],
            [
              102.360234,
              13.443264
            ],
            [
              102.359521,
              13.440174
            ],
            [
              102.358249,
              13.438562
            ],
            [
              102.3579,
              13.435749
            ],
            [
              102.358856,
              13.434813
            ],
            [
              102.358862,
              13.431462
            ],
            [
              102.361308,
              13.430763
            ],
            [
              102.360624,
              13.426836
            ],
            [
              102.361727,
              13.426967
            ],
            [
              102.362416,
              13.425559
            ],
            [
              102.362468,
              13.424619
            ],
            [
              102.360558,
              13.423738
            ],
            [
              102.360409,
              13.422969
            ],
            [
              102.361967,
              13.421553
            ],
            [
              102.359691,
              13.418766
            ],
            [
              102.360455,
              13.414043
            ],
            [
              102.359517,
              13.411502
            ],
            [
              102.359948,
              13.41007
            ],
            [
              102.358804,
              13.408607
            ],
            [
              102.360533,
              13.405896
            ],
            [
              102.359877,
              13.403186
            ],
            [
              102.36039,
              13.401616
            ],
            [
              102.359477,
              13.398801
            ],
            [
              102.356909,
              13.398124
            ],
            [
              102.357251,
              13.395544
            ],
            [
              102.355807,
              13.393323
            ],
            [
              102.356435,
              13.392225
            ],
            [
              102.354683,
              13.388098
            ],
            [
              102.354997,
              13.384106
            ],
            [
              102.35676,
              13.381498
            ],
            [
              102.356343,
              13.380384
            ],
            [
              102.355252,
              13.380241
            ],
            [
              102.354309,
              13.376404
            ],
            [
              102.351818,
              13.374546
            ],
            [
              102.351062,
              13.370745
            ],
            [
              102.35006,
              13.369214
            ],
            [
              102.3506,
              13.367106
            ],
            [
              102.348956,
              13.364872
            ],
            [
              102.34877,
              13.359927
            ],
            [
              102.346544,
              13.356692
            ],
            [
              102.346724,
              13.351416
            ],
            [
              102.345459,
              13.348587
            ],
            [
              102.345081,
              13.346887
            ]
          ]
        ]
      }
    }
  ]
}
