{
  "type": "FeatureCollection",
  "features": [
    {
      "type": "Feature",
      "properties": {
        "geo_id": "geo_ph_0041",
        "name": "Tubbataha Reefs Natural Park",
        "component": "RA 10067 protected-area boundary",
        "source_boundary_level": "protected_area",
        "source_crs": "PRS92 / EPSG:4683",
        "transformed_to": "WGS84 / EPSG:4326",
        "transformation": "EPSG operation 15708"
      },
      "geometry": {
        "type": "Polygon",
        "coordinates": [
          [
            [
              119.7709,
              9.08
            ],
            [
              119.8076,
              9.1002
            ],
            [
              120.0548,
              8.968
            ],
            [
              120.0598,
              8.8903
            ],
            [
              119.8462,
              8.6914
            ],
            [
              119.7643,
              8.718
            ],
            [
              119.7709,
              9.08
            ]
          ]
        ]
      }
    }
  ]
}
