{
  "type": "FeatureCollection",
  "features": [
    {
      "type": "Feature",
      "properties": {
        "geo_id": "geo_bn_0014",
        "name": "Mukim Kota Batu",
        "boundary_level": "mukim",
        "osm_type": "relation",
        "osm_id": 8751666,
        "source_checked_at": "2026-10-01"
      },
      "geometry": {
        "type": "MultiPolygon",
        "coordinates": [
          [
            [
              [
                114.950113,
                4.883747
              ],
              [
                114.950499,
                4.875762
              ],
              [
                114.951636,
                4.874233
              ],
              [
                114.95198,
                4.874885
              ],
              [
                114.953138,
                4.873432
              ],
              [
                114.954351,
                4.87294
              ],
              [
                114.954415,
                4.872234
              ],
              [
                114.956743,
                4.872181
              ],
              [
                114.962001,
                4.876451
              ],
              [
                114.967987,
                4.880129
              ],
              [
                114.970433,
                4.883678
              ],
              [
                114.971571,
                4.883763
              ],
              [
                114.974789,
                4.887676
              ],
              [
                114.978952,
                4.890819
              ],
              [
                114.980862,
                4.893235
              ],
              [
                114.985282,
                4.896228
              ],
              [
                114.989316,
                4.899841
              ],
              [
                114.994251,
                4.902941
              ],
              [
                115.003907,
                4.90572
              ],
              [
                115.007233,
                4.913545
              ],
              [
                115.007448,
                4.916901
              ],
              [
                115.013091,
                4.924875
              ],
              [
                115.017254,
                4.932144
              ],
              [
                115.02043,
                4.939626
              ],
              [
                115.025224,
                4.947691
              ],
              [
                115.021748,
                4.950256
              ],
              [
                115.021876,
                4.952479
              ],
              [
                115.023614,
                4.952458
              ],
              [
                115.023636,
                4.954297
              ],
              [
                115.02164,
                4.954275
              ],
              [
                115.021662,
                4.955066
              ],
              [
                115.01619,
                4.955045
              ],
              [
                115.015868,
                4.965434
              ],
              [
                115.015053,
                4.969806
              ],
              [
                114.999779,
                4.967129
              ],
              [
                114.996754,
                4.965622
              ],
              [
                114.994297,
                4.963185
              ],
              [
                114.986057,
                4.944234
              ],
              [
                114.983021,
                4.94029
              ],
              [
                114.975082,
                4.932658
              ],
              [
                114.979903,
                4.930514
              ],
              [
                114.982896,
                4.929809
              ],
              [
                114.952853,
                4.896779
              ],
              [
                114.954977,
                4.893294
              ],
              [
                114.952488,
                4.892086
              ],
              [
                114.952327,
                4.889788
              ],
              [
                114.953244,
                4.889475
              ],
              [
                114.953357,
                4.888128
              ],
              [
                114.952413,
                4.887359
              ],
              [
                114.952622,
                4.885541
              ],
              [
                114.951351,
                4.885007
              ],
              [
                114.951613,
                4.884488
              ],
              [
                114.950113,
                4.883747
              ]
            ]
          ],
          [
            [
              [
                114.952441,
                4.86798
              ],
              [
                114.953349,
                4.864994
              ],
              [
                114.954262,
                4.863544
              ],
              [
                114.955107,
                4.863203
              ],
              [
                114.95577,
                4.865609
              ],
              [
                114.955495,
                4.867976
              ],
              [
                114.954471,
                4.868574
              ],
              [
                114.95262,
                4.86858
              ],
              [
                114.952441,
                4.86798
              ]
            ]
          ],
          [
            [
              [
                114.957653,
                4.860624
              ],
              [
                114.959412,
                4.85684
              ],
              [
                114.960786,
                4.851537
              ],
              [
                114.959563,
                4.85081
              ],
              [
                114.963708,
                4.845048
              ],
              [
                114.967455,
                4.843209
              ],
              [
                114.969472,
                4.840536
              ],
              [
                114.97424,
                4.842248
              ],
              [
                114.978124,
                4.840527
              ],
              [
                114.980602,
                4.840131
              ],
              [
                114.982104,
                4.845124
              ],
              [
                114.983538,
                4.845693
              ],
              [
                114.98385,
                4.850511
              ],
              [
                114.990305,
                4.853389
              ],
              [
                114.992405,
                4.855489
              ],
              [
                114.99225,
                4.857161
              ],
              [
                114.987894,
                4.868711
              ],
              [
                114.987739,
                4.8712
              ],
              [
                114.988478,
                4.872678
              ],
              [
                115.000106,
                4.883644
              ],
              [
                115.015286,
                4.894062
              ],
              [
                115.025019,
                4.896608
              ],
              [
                115.025015,
                4.902216
              ],
              [
                115.023663,
                4.910276
              ],
              [
                115.022483,
                4.916668
              ],
              [
                115.021003,
                4.919469
              ],
              [
                115.020616,
                4.921436
              ],
              [
                115.018535,
                4.921072
              ],
              [
                115.01772,
                4.920217
              ],
              [
                115.009287,
                4.907299
              ],
              [
                115.007871,
                4.903814
              ],
              [
                114.99815,
                4.895476
              ],
              [
                114.995168,
                4.895497
              ],
              [
                114.994138,
                4.895797
              ],
              [
                114.993623,
                4.896695
              ],
              [
                114.992936,
                4.89663
              ],
              [
                114.987271,
                4.893702
              ],
              [
                114.984374,
                4.891435
              ],
              [
                114.983023,
                4.889939
              ],
              [
                114.978624,
                4.88081
              ],
              [
                114.974611,
                4.87803
              ],
              [
                114.971006,
                4.876491
              ],
              [
                114.963658,
                4.870207
              ],
              [
                114.96016,
                4.866166
              ],
              [
                114.959627,
                4.864921
              ],
              [
                114.96012,
                4.863788
              ],
              [
                114.959841,
                4.861629
              ],
              [
                114.957889,
                4.86133
              ],
              [
                114.957653,
                4.860624
              ]
            ]
          ],
          [
            [
              [
                115.024104,
                4.928261
              ],
              [
                115.024574,
                4.928117
              ],
              [
                115.025424,
                4.929039
              ],
              [
                115.025684,
                4.931452
              ],
              [
                115.024887,
                4.930302
              ],
              [
                115.024104,
                4.928261
              ]
            ]
          ],
          [
            [
              [
                115.033389,
                4.884379
              ],
              [
                115.033786,
                4.882855
              ],
              [
                115.034886,
                4.882748
              ],
              [
                115.041291,
                4.885239
              ],
              [
                115.045808,
                4.889611
              ],
              [
                115.049536,
                4.889734
              ],
              [
                115.052224,
                4.892278
              ],
              [
                115.052251,
                4.895806
              ],
              [
                115.047991,
                4.896693
              ],
              [
                115.046039,
                4.896116
              ],
              [
                115.039607,
                4.890483
              ],
              [
                115.038303,
                4.890269
              ],
              [
                115.037772,
                4.891145
              ],
              [
                115.036098,
                4.889969
              ],
              [
                115.033523,
                4.885223
              ],
              [
                115.033389,
                4.884379
              ]
            ]
          ],
          [
            [
              [
                115.035181,
                4.900178
              ],
              [
                115.036109,
                4.897581
              ],
              [
                115.037348,
                4.897132
              ],
              [
                115.038561,
                4.897634
              ],
              [
                115.041637,
                4.90063
              ],
              [
                115.044062,
                4.901824
              ],
              [
                115.044639,
                4.905373
              ],
              [
                115.044234,
                4.908254
              ],
              [
                115.044842,
                4.908067
              ],
              [
                115.045204,
                4.908537
              ],
              [
                115.04032,
                4.910349
              ],
              [
                115.040916,
                4.908949
              ],
              [
                115.040234,
                4.906902
              ],
              [
                115.03854,
                4.904853
              ],
              [
                115.035846,
                4.902952
              ],
              [
                115.035219,
                4.900868
              ],
              [
                115.035181,
                4.900178
              ]
            ]
          ],
          [
            [
              [
                115.042643,
                4.911771
              ],
              [
                115.043264,
                4.910572
              ],
              [
                115.044963,
                4.910702
              ],
              [
                115.047696,
                4.916159
              ],
              [
                115.0482,
                4.9192
              ],
              [
                115.050445,
                4.91904
              ],
              [
                115.051148,
                4.919716
              ],
              [
                115.050786,
                4.923863
              ],
              [
                115.049547,
                4.924379
              ],
              [
                115.048158,
                4.924082
              ],
              [
                115.046468,
                4.921201
              ],
              [
                115.045502,
                4.920493
              ],
              [
                115.042772,
                4.912295
              ],
              [
                115.042643,
                4.911771
              ]
            ]
          ],
          [
            [
              [
                115.04318,
                4.884899
              ],
              [
                115.04377,
                4.884944
              ],
              [
                115.043566,
                4.885358
              ],
              [
                115.043255,
                4.885032
              ],
              [
                115.04318,
                4.884899
              ]
            ]
          ],
          [
            [
              [
                115.045563,
                4.882035
              ],
              [
                115.046019,
                4.881971
              ],
              [
                115.0456,
                4.882499
              ],
              [
                115.045563,
                4.882035
              ]
            ]
          ]
        ]
      }
    }
  ]
}
