{
  "type": "FeatureCollection",
  "features": [
    {
      "type": "Feature",
      "properties": {
        "geo_id": "geo_ph_0022",
        "name": "Bohol",
        "psgc": "0701200000",
        "boundary_level": "province",
        "source_psgc": "0701200000"
      },
      "geometry": {
        "type": "MultiPolygon",
        "coordinates": [
          [
            [
              [
                123.92261527300002,
                9.49996119900004
              ],
              [
                123.91826004500001,
                9.490361601000075
              ],
              [
                123.92957034100004,
                9.490947160000077
              ],
              [
                123.92261527300002,
                9.49996119900004
              ]
            ]
          ],
          [
            [
              [
                123.83648725700004,
                9.644078256000055
              ],
              [
                123.82785016100001,
                9.637640237000028
              ],
              [
                123.819221222,
                9.637297312000042
              ],
              [
                123.80589912100002,
                9.626924671000042
              ],
              [
                123.78715066700012,
                9.623805467000066
              ],
              [
                123.7717406600001,
                9.617117394000047
              ],
              [
                123.75170700300009,
                9.594855626000026
              ],
              [
                123.73317138800007,
                9.584671557000036
              ],
              [
                123.74931663600013,
                9.572615912000055
              ],
              [
                123.74850667500004,
                9.558347091000028
              ],
              [
                123.74325100800003,
                9.55316190000002
              ],
              [
                123.7583169200001,
                9.545066035000048
              ],
              [
                123.78442959600011,
                9.551095278000046
              ],
              [
                123.79720865200011,
                9.551585063000063
              ],
              [
                123.80371305500012,
                9.555077099000071
              ],
              [
                123.81283014000009,
                9.566011034000041
              ],
              [
                123.82833476000006,
                9.575510001000055
              ],
              [
                123.83979315700005,
                9.58670760800004
              ],
              [
                123.85338557300008,
                9.588881777000038
              ],
              [
                123.86567764400002,
                9.597908365000025
              ],
              [
                123.86990194400005,
                9.605669496000075
              ],
              [
                123.87146374200006,
                9.622050617000069
              ],
              [
                123.86207544600006,
                9.626538797000023
              ],
              [
                123.84692765200009,
                9.64070980200006
              ],
              [
                123.83648725700004,
                9.644078256000055
              ]
            ]
          ],
          [
            [
              [
                123.79012127300007,
                9.864313846000071
              ],
              [
                123.78556230700008,
                9.850824492000074
              ],
              [
                123.79599381900005,
                9.839596320000053
              ],
              [
                123.81163098200011,
                9.84694685100004
              ],
              [
                123.8158467740001,
                9.854207045000065
              ],
              [
                123.80064501000004,
                9.862154184000074
              ],
              [
                123.79012127300007,
                9.864313846000071
              ]
            ]
          ],
          [
            [
              [
                123.78174871800002,
                9.892355811000074
              ],
              [
                123.75948874800008,
                9.889849370000036
              ],
              [
                123.7607337830001,
                9.874589859000023
              ],
              [
                123.76454973400007,
                9.861026631000074
              ],
              [
                123.77211173900004,
                9.86409614100006
              ],
              [
                123.78016193300006,
                9.875333512000052
              ],
              [
                123.79243479700006,
                9.886106218000064
              ],
              [
                123.78174871800002,
                9.892355811000074
              ]
            ]
          ],
          [
            [
              [
                123.8239423780001,
                9.911229657000034
              ],
              [
                123.80835247400013,
                9.907203587000026
              ],
              [
                123.81880132100002,
                9.897824669000045
              ],
              [
                123.81972922500005,
                9.89073718900005
              ],
              [
                123.83564365800011,
                9.885605091000057
              ],
              [
                123.83800068200004,
                9.902877
              ],
              [
                123.8239423780001,
                9.911229657000034
              ]
            ]
          ],
          [
            [
              [
                124.61547633000009,
                10.153081935000047
              ],
              [
                124.59869717600009,
                10.14690137200006
              ],
              [
                124.59064150000006,
                10.136788748000074
              ],
              [
                124.57060152000008,
                10.12583247200007
              ],
              [
                124.56330397900001,
                10.119259183000056
              ],
              [
                124.5605645070001,
                10.130125786000063
              ],
              [
                124.5532215820001,
                10.132077184000027
              ],
              [
                124.54785648400002,
                10.115411951000057
              ],
              [
                124.54121316300007,
                10.11045352900004
              ],
              [
                124.5305602950001,
                10.119570685000042
              ],
              [
                124.5239227290001,
                10.116704679000065
              ],
              [
                124.5216977980001,
                10.104191242000068
              ],
              [
                124.53165390000004,
                10.097821645000067
              ],
              [
                124.53251569600003,
                10.084381513000038
              ],
              [
                124.52719756500004,
                10.082762671000069
              ],
              [
                124.5279594110001,
                10.068452249000073
              ],
              [
                124.53952942300009,
                10.051818360000023
              ],
              [
                124.5529531740001,
                10.056120030000043
              ],
              [
                124.55120502300008,
                10.068699555000023
              ],
              [
                124.55753221900012,
                10.075975590000041
              ],
              [
                124.54991228000006,
                10.080105651000054
              ],
              [
                124.56107818700002,
                10.09240937000004
              ],
              [
                124.58427159700011,
                10.089677428000074
              ],
              [
                124.59422222700005,
                10.081449994000023
              ],
              [
                124.604342813,
                10.087607842000068
              ],
              [
                124.60631724400002,
                10.09839173000006
              ],
              [
                124.59561823900005,
                10.118641798000056
              ],
              [
                124.60128268900006,
                10.136952776000042
              ],
              [
                124.61517679400005,
                10.143860034000054
              ],
              [
                124.61547633000009,
                10.153081935000047
              ]
            ]
          ],
          [
            [
              [
                124.28993463000008,
                10.173635970000023
              ],
              [
                124.28866332300005,
                10.163531359000048
              ],
              [
                124.28087175700011,
                10.155106568000065
              ],
              [
                124.25487563400009,
                10.157639190000053
              ],
              [
                124.23722014500004,
                10.162145719000023
              ],
              [
                124.20785306800008,
                10.161005524000075
              ],
              [
                124.1978430920001,
                10.14935603200007
              ],
              [
                124.19088338700011,
                10.152202611000062
              ],
              [
                124.17824475300004,
                10.145780441000053
              ],
              [
                124.16301743300006,
                10.153030544000043
              ],
              [
                124.15295755900001,
                10.15384682900003
              ],
              [
                124.14750504200003,
                10.14923360900002
              ],
              [
                124.14289141800009,
                10.135399036000024
              ],
              [
                124.13321092300008,
                10.122519191000038
              ],
              [
                124.13751098600005,
                10.112217148000068
              ],
              [
                124.11838449900006,
                10.092806717000029
              ],
              [
                124.10808211300004,
                10.087049218000063
              ],
              [
                124.09630899400008,
                10.07616950000005
              ],
              [
                124.09680547700007,
                10.064511338000042
              ],
              [
                124.08597194400012,
                10.06235381700003
              ],
              [
                124.08228301800011,
                10.073497166000038
              ],
              [
                124.06226921300005,
                10.067498070000056
              ],
              [
                124.05623539500004,
                10.032339996000076
              ],
              [
                124.04389501900005,
                9.993615773000045
              ],
              [
                124.04412268900013,
                9.98789057300007
              ],
              [
                124.02750532800007,
                9.967241104000037
              ],
              [
                124.01352543100006,
                9.964548602000034
              ],
              [
                123.98430230100007,
                9.964072886000055
              ],
              [
                123.96075534300009,
                9.951262796000037
              ],
              [
                123.95173855000007,
                9.942906483000058
              ],
              [
                123.93162872900008,
                9.934202386000038
              ],
              [
                123.91185421800003,
                9.93279438500002
              ],
              [
                123.90328387300008,
                9.924117616000045
              ],
              [
                123.9013357440001,
                9.916493158000035
              ],
              [
                123.89107988800005,
                9.911827529000046
              ],
              [
                123.88332572000002,
                9.920497511000063
              ],
              [
                123.86670826500007,
                9.910778740000067
              ],
              [
                123.87316362900002,
                9.895134622000056
              ],
              [
                123.85403828800008,
                9.88846030600007
              ],
              [
                123.84888562800006,
                9.880631592000043
              ],
              [
                123.83984759200007,
                9.875780201000055
              ],
              [
                123.81876292800008,
                9.847188190000052
              ],
              [
                123.80637473900005,
                9.84179829200002
              ],
              [
                123.80451027400011,
                9.83152381600007
              ],
              [
                123.79805896800008,
                9.825924935000046
              ],
              [
                123.78980554700001,
                9.805085421000056
              ],
              [
                123.78282095400004,
                9.771551344000041
              ],
              [
                123.7874646150001,
                9.739125933000023
              ],
              [
                123.80083941900011,
                9.733104024000058
              ],
              [
                123.82491767700003,
                9.738045543000053
              ],
              [
                123.83229749000007,
                9.741804325000032
              ],
              [
                123.84027107300005,
                9.739486140000054
              ],
              [
                123.85453820900011,
                9.71931081100007
              ],
              [
                123.86346826300007,
                9.715361745000052
              ],
              [
                123.85606257800009,
                9.698905969000066
              ],
              [
                123.85643646400001,
                9.691125070000055
              ],
              [
                123.84399302400006,
                9.667256902000076
              ],
              [
                123.84419571600006,
                9.662397293000025
              ],
              [
                123.85464910200005,
                9.637559059000068
              ],
              [
                123.86605340000007,
                9.633495432000075
              ],
              [
                123.87187666000013,
                9.627618822000043
              ],
              [
                123.9173387410001,
                9.62149858200007
              ],
              [
                123.94177466100007,
                9.611134659000072
              ],
              [
                123.96969755700003,
                9.600954176000073
              ],
              [
                123.97426920700002,
                9.60572592600005
              ],
              [
                123.98239301300009,
                9.59800436700004
              ],
              [
                123.99908814900006,
                9.604482376000021
              ],
              [
                124.00306005700008,
                9.597549474000063
              ],
              [
                124.03719892900006,
                9.592938765000042
              ],
              [
                124.05501290300005,
                9.58935870600004
              ],
              [
                124.08475201100009,
                9.58771296100002
              ],
              [
                124.10498909800003,
                9.590027331000043
              ],
              [
                124.12908758700009,
                9.598965591000026
              ],
              [
                124.14421379300008,
                9.598670904000072
              ],
              [
                124.16658576500004,
                9.606899739000026
              ],
              [
                124.1910160750001,
                9.610044386000025
              ],
              [
                124.219980125,
                9.60404298700007
              ],
              [
                124.23173539400011,
                9.598811933000034
              ],
              [
                124.26014032300009,
                9.598795538000045
              ],
              [
                124.2694475850001,
                9.60340988200005
              ],
              [
                124.28401415400003,
                9.604618532000075
              ],
              [
                124.2904489120001,
                9.61015374400006
              ],
              [
                124.30745520000006,
                9.61604350400006
              ],
              [
                124.3138643190001,
                9.622270453000056
              ],
              [
                124.32963497600008,
                9.623370331000046
              ],
              [
                124.35876932600003,
                9.62979027700004
              ],
              [
                124.36081421300003,
                9.638917828000046
              ],
              [
                124.36866293300012,
                9.650625782000075
              ],
              [
                124.39899260800009,
                9.652581916000033
              ],
              [
                124.40143948900004,
                9.65721273300005
              ],
              [
                124.40111778300003,
                9.691819365000072
              ],
              [
                124.40893390000008,
                9.710928386000031
              ],
              [
                124.42708303100007,
                9.721075998000062
              ],
              [
                124.44563678200007,
                9.72080910500006
              ],
              [
                124.47442024500002,
                9.748298263000038
              ],
              [
                124.48448919900011,
                9.760939703000078
              ],
              [
                124.496855276,
                9.762549893000026
              ],
              [
                124.50476995600003,
                9.733650010000074
              ],
              [
                124.51405618600006,
                9.722875233000025
              ],
              [
                124.57134214100007,
                9.732418237000047
              ],
              [
                124.57716553800003,
                9.744875154000054
              ],
              [
                124.59278702600011,
                9.756087292000073
              ],
              [
                124.59538365600008,
                9.76650573300003
              ],
              [
                124.59248530000004,
                9.790587985000059
              ],
              [
                124.59354920400007,
                9.801236314000048
              ],
              [
                124.59073793200002,
                9.811160848000041
              ],
              [
                124.57564427300008,
                9.809489724000057
              ],
              [
                124.55611641200005,
                9.820543637000071
              ],
              [
                124.55755286600004,
                9.827655150000055
              ],
              [
                124.54757774000007,
                9.831272482000031
              ],
              [
                124.54656041000011,
                9.838127748000032
              ],
              [
                124.52234715800012,
                9.844510999000022
              ],
              [
                124.51670171200008,
                9.855686199000045
              ],
              [
                124.52881812900011,
                9.858035237000024
              ],
              [
                124.55074316700006,
                9.87229610500003
              ],
              [
                124.56039280400012,
                9.873348144000031
              ],
              [
                124.57011084200009,
                9.885656192000054
              ],
              [
                124.56882671000005,
                9.90706184600003
              ],
              [
                124.57564894800011,
                9.910303872000044
              ],
              [
                124.56083395100008,
                9.920255739000025
              ],
              [
                124.53922020800006,
                9.920076091000055
              ],
              [
                124.5379456390001,
                9.925652566000053
              ],
              [
                124.55114356200009,
                9.928837378000024
              ],
              [
                124.54953975300009,
                9.939947889000049
              ],
              [
                124.54384604500002,
                9.949223761000042
              ],
              [
                124.55216509000003,
                9.951904817000072
              ],
              [
                124.55064182200012,
                9.968833509000035
              ],
              [
                124.54367953800012,
                9.972288016000046
              ],
              [
                124.5492568860001,
                9.98371680400004
              ],
              [
                124.55899155500005,
                9.985749975000031
              ],
              [
                124.55776335400003,
                9.972914943000035
              ],
              [
                124.57005105600001,
                9.976500892000047
              ],
              [
                124.56891912200001,
                9.996703717000058
              ],
              [
                124.56131574700011,
                10.000124897000035
              ],
              [
                124.56035392700005,
                10.009331647000069
              ],
              [
                124.55300035800008,
                10.013076398000067
              ],
              [
                124.55458491200011,
                10.027850760000034
              ],
              [
                124.54571895700008,
                10.032982832000071
              ],
              [
                124.54697681300001,
                10.040945973000023
              ],
              [
                124.53277406000007,
                10.042548705000058
              ],
              [
                124.52244484800008,
                10.055967766000037
              ],
              [
                124.51448876100005,
                10.070278443000063
              ],
              [
                124.50470373600001,
                10.076171072000022
              ],
              [
                124.50070941800004,
                10.06405339300005
              ],
              [
                124.48154309000006,
                10.055847803000063
              ],
              [
                124.46342213000003,
                10.062480729000072
              ],
              [
                124.44138984800009,
                10.084905563000062
              ],
              [
                124.4208285320001,
                10.091372456000045
              ],
              [
                124.41590327600012,
                10.101773840000021
              ],
              [
                124.38932836700008,
                10.106622183000068
              ],
              [
                124.39323507800009,
                10.124357043000032
              ],
              [
                124.39175966700009,
                10.130628708000073
              ],
              [
                124.3796786050001,
                10.137959368000054
              ],
              [
                124.37414260800007,
                10.150631937000073
              ],
              [
                124.36703078600011,
                10.153393782000023
              ],
              [
                124.36239796000007,
                10.135542269000041
              ],
              [
                124.35498914000003,
                10.128245817000048
              ],
              [
                124.34023918200012,
                10.126811664000058
              ],
              [
                124.341708949,
                10.138076806000072
              ],
              [
                124.31389333600008,
                10.165284181000063
              ],
              [
                124.29867242100012,
                10.164934101000025
              ],
              [
                124.28993463000008,
                10.173635970000023
              ]
            ]
          ],
          [
            [
              [
                124.18650981800012,
                10.176492609000034
              ],
              [
                124.16828350800007,
                10.173644764000072
              ],
              [
                124.16128506400001,
                10.160586864000038
              ],
              [
                124.17439424400006,
                10.15551142600003
              ],
              [
                124.19194708700003,
                10.169432100000051
              ],
              [
                124.18650981800012,
                10.176492609000034
              ]
            ]
          ],
          [
            [
              [
                124.38145154200004,
                10.18461964900007
              ],
              [
                124.36587081700007,
                10.17481993800004
              ],
              [
                124.35130293800012,
                10.175234931000034
              ],
              [
                124.35217819800005,
                10.165359135000072
              ],
              [
                124.36205331100008,
                10.167657089000043
              ],
              [
                124.36857691600005,
                10.162797736000071
              ],
              [
                124.39153880200001,
                10.17682469300007
              ],
              [
                124.38145154200004,
                10.18461964900007
              ]
            ]
          ],
          [
            [
              [
                124.25892127400004,
                10.206539847000045
              ],
              [
                124.24601233700004,
                10.202527823000025
              ],
              [
                124.22801230400012,
                10.193588920000026
              ],
              [
                124.21783504400003,
                10.198703234000046
              ],
              [
                124.20255640500012,
                10.194456035000028
              ],
              [
                124.19837817600012,
                10.185844432000067
              ],
              [
                124.21974631000012,
                10.190742357000033
              ],
              [
                124.23835483500012,
                10.18138213100002
              ],
              [
                124.25194356400006,
                10.196661592000055
              ],
              [
                124.261947716,
                10.200783323000053
              ],
              [
                124.25892127400004,
                10.206539847000045
              ]
            ]
          ],
          [
            [
              [
                124.16851781200012,
                10.211361110000041
              ],
              [
                124.15433545300004,
                10.204793179000033
              ],
              [
                124.14964276600006,
                10.191562450000047
              ],
              [
                124.16501712700006,
                10.192040279000027
              ],
              [
                124.18290860400009,
                10.19800120600007
              ],
              [
                124.18086109400008,
                10.205142243000068
              ],
              [
                124.16851781200012,
                10.211361110000041
              ]
            ]
          ]
        ]
      }
    }
  ]
}
