{
  "type": "FeatureCollection",
  "features": [
    {
      "type": "Feature",
      "properties": {
        "country_code": "SG",
        "name": "Singapore",
        "source": "Natural Earth 1:10m via LonnyGomes/CountryGeoJSONCollection",
        "source_url": "https://github.com/LonnyGomes/CountryGeoJSONCollection/blob/master/geojson/SGP.geojson",
        "checked_at": "2026-09-30"
      },
      "geometry": {
        "type": "Polygon",
        "coordinates": [
          [
            [
              103.96078535200004,
              1.391099351000093
            ],
            [
              103.98568769600004,
              1.385443427000041
            ],
            [
              103.999522332,
              1.38031647300005
            ],
            [
              104.00342858200001,
              1.374172268000052
            ],
            [
              103.99187259200004,
              1.35492584800005
            ],
            [
              103.97486412900005,
              1.334458726000093
            ],
            [
              103.95435631600002,
              1.318101304000038
            ],
            [
              103.93189537900005,
              1.311468817000047
            ],
            [
              103.907237175,
              1.308742580000057
            ],
            [
              103.88770592500002,
              1.301255601000093
            ],
            [
              103.85271243600002,
              1.277289130000042
            ],
            [
              103.846934441,
              1.271918036000045
            ],
            [
              103.84408613400004,
              1.268500067000047
            ],
            [
              103.8388778,
              1.26626211100006
            ],
            [
              103.82601972700004,
              1.26430898600006
            ],
            [
              103.80160566500004,
              1.264797268000052
            ],
            [
              103.789561394,
              1.26788971600007
            ],
            [
              103.784434441,
              1.273871161000045
            ],
            [
              103.77588951900002,
              1.287583726000093
            ],
            [
              103.755137566,
              1.29710521000004
            ],
            [
              103.73015384200002,
              1.302923895000049
            ],
            [
              103.708750847,
              1.305243231000077
            ],
            [
              103.665293816,
              1.304103908000058
            ],
            [
              103.64763431100003,
              1.308417059000078
            ],
            [
              103.640391472,
              1.32225169500009
            ],
            [
              103.64470462300004,
              1.338039455000057
            ],
            [
              103.67457116,
              1.38031647300005
            ],
            [
              103.67888431100002,
              1.399237372000073
            ],
            [
              103.68384850400005,
              1.409898179000038
            ],
            [
              103.695078972,
              1.42133209800005
            ],
            [
              103.70834394600006,
              1.429388739000046
            ],
            [
              103.71794681100003,
              1.430975653000075
            ],
            [
              103.739756707,
              1.428127346000053
            ],
            [
              103.762217644,
              1.430975653000075
            ],
            [
              103.790049675,
              1.444281317000047
            ],
            [
              103.80494225400005,
              1.448635158000058
            ],
            [
              103.83155358200001,
              1.447088934000078
            ],
            [
              103.857188347,
              1.438706773000092
            ],
            [
              103.93246504000004,
              1.401109117000089
            ],
            [
              103.96078535200004,
              1.391099351000093
            ]
          ]
        ]
      }
    }
  ]
}
