{
  "type": "FeatureCollection",
  "features": [
    {
      "type": "Feature",
      "properties": {
        "geo_id": "geo_kh_0038",
        "name": "Kampot",
        "boundary_level": "province",
        "osm_type": "relation",
        "osm_id": 2200183,
        "source_checked_at": "2026-10-01"
      },
      "geometry": {
        "type": "Polygon",
        "coordinates": [
          [
            [
              103.839034,
              10.405186
            ],
            [
              103.847023,
              10.404254
            ],
            [
              103.852294,
              10.404692
            ],
            [
              103.857446,
              10.40414
            ],
            [
              103.868811,
              10.400571
            ],
            [
              103.878093,
              10.398678
            ],
            [
              103.885416,
              10.398448
            ],
            [
              103.895782,
              10.396105
            ],
            [
              103.907342,
              10.391704
            ],
            [
              103.915811,
              10.389977
            ],
            [
              103.919221,
              10.406185
            ],
            [
              103.922784,
              10.414387
            ],
            [
              103.925898,
              10.418881
            ],
            [
              103.930971,
              10.423871
            ],
            [
              103.936842,
              10.427828
            ],
            [
              103.944514,
              10.431178
            ],
            [
              103.944842,
              10.440694
            ],
            [
              103.947134,
              10.448822
            ],
            [
              103.950581,
              10.455298
            ],
            [
              103.95642,
              10.462448
            ],
            [
              103.966087,
              10.470652
            ],
            [
              103.975208,
              10.475302
            ],
            [
              103.990629,
              10.479396
            ],
            [
              104.000108,
              10.479229
            ],
            [
              104.010432,
              10.475794
            ],
            [
              104.01884,
              10.472196
            ],
            [
              104.023249,
              10.469528
            ],
            [
              104.029475,
              10.463074
            ],
            [
              104.041224,
              10.443107
            ],
            [
              104.048578,
              10.441665
            ],
            [
              104.056626,
              10.437861
            ],
            [
              104.06197,
              10.433638
            ],
            [
              104.065937,
              10.428499
            ],
            [
              104.072844,
              10.425128
            ],
            [
              104.078298,
              10.420292
            ],
            [
              104.08127,
              10.416096
            ],
            [
              104.087065,
              10.405234
            ],
            [
              104.097146,
              10.394017
            ],
            [
              104.103871,
              10.381907
            ],
            [
              104.105989,
              10.374656
            ],
            [
              104.105917,
              10.366072
            ],
            [
              104.107606,
              10.359191
            ],
            [
              104.107864,
              10.35362
            ],
            [
              104.266464,
              10.549484
            ],
            [
              104.26528,
              10.552107
            ],
            [
              104.267871,
              10.552317
            ],
            [
              104.264974,
              10.558661
            ],
            [
              104.266135,
              10.559611
            ],
            [
              104.269015,
              10.560192
            ],
            [
              104.271031,
              10.563085
            ],
            [
              104.271585,
              10.565628
            ],
            [
              104.270393,
              10.566547
            ],
            [
              104.271517,
              10.573719
            ],
            [
              104.275964,
              10.590886
            ],
            [
              104.28992,
              10.579844
            ],
            [
              104.292909,
              10.57622
            ],
            [
              104.298855,
              10.576814
            ],
            [
              104.307175,
              10.574921
            ],
            [
              104.312229,
              10.574953
            ],
            [
              104.319976,
              10.572966
            ],
            [
              104.322991,
              10.573726
            ],
            [
              104.328673,
              10.573163
            ],
            [
              104.330935,
              10.574547
            ],
            [
              104.331662,
              10.574085
            ],
            [
              104.336829,
              10.574733
            ],
            [
              104.34213,
              10.577765
            ],
            [
              104.346044,
              10.578169
            ],
            [
              104.36931,
              10.577531
            ],
            [
              104.368854,
              10.57537
            ],
            [
              104.370081,
              10.575069
            ],
            [
              104.373501,
              10.569241
            ],
            [
              104.375134,
              10.575875
            ],
            [
              104.379272,
              10.575012
            ],
            [
              104.384528,
              10.570399
            ],
            [
              104.385452,
              10.568014
            ],
            [
              104.386022,
              10.560671
            ],
            [
              104.384726,
              10.557372
            ],
            [
              104.385667,
              10.54634
            ],
            [
              104.384909,
              10.542489
            ],
            [
              104.387055,
              10.541583
            ],
            [
              104.387671,
              10.539766
            ],
            [
              104.391123,
              10.537309
            ],
            [
              104.392501,
              10.53735
            ],
            [
              104.39488,
              10.535134
            ],
            [
              104.395304,
              10.533278
            ],
            [
              104.397951,
              10.530934
            ],
            [
              104.397342,
              10.529008
            ],
            [
              104.397944,
              10.525735
            ],
            [
              104.400271,
              10.52655
            ],
            [
              104.402248,
              10.523805
            ],
            [
              104.406318,
              10.523334
            ],
            [
              104.41298,
              10.519794
            ],
            [
              104.41382,
              10.518336
            ],
            [
              104.413691,
              10.509009
            ],
            [
              104.416994,
              10.506133
            ],
            [
              104.418564,
              10.502176
            ],
            [
              104.417649,
              10.500634
            ],
            [
              104.415344,
              10.499115
            ],
            [
              104.415285,
              10.497933
            ],
            [
              104.416912,
              10.496484
            ],
            [
              104.419749,
              10.496189
            ],
            [
              104.42175,
              10.493368
            ],
            [
              104.421058,
              10.490477
            ],
            [
              104.411183,
              10.487243
            ],
            [
              104.408547,
              10.489344
            ],
            [
              104.406288,
              10.489973
            ],
            [
              104.40568,
              10.490927
            ],
            [
              104.408981,
              10.49326
            ],
            [
              104.408687,
              10.494376
            ],
            [
              104.402275,
              10.493557
            ],
            [
              104.401311,
              10.492634
            ],
            [
              104.401163,
              10.491308
            ],
            [
              104.402216,
              10.488824
            ],
            [
              104.398936,
              10.487803
            ],
            [
              104.398763,
              10.486997
            ],
            [
              104.399407,
              10.485685
            ],
            [
              104.40267,
              10.483827
            ],
            [
              104.403797,
              10.479777
            ],
            [
              104.405343,
              10.480885
            ],
            [
              104.405894,
              10.483846
            ],
            [
              104.407069,
              10.484263
            ],
            [
              104.408434,
              10.483046
            ],
            [
              104.407528,
              10.476953
            ],
            [
              104.40579,
              10.473644
            ],
            [
              104.404384,
              10.472525
            ],
            [
              104.403085,
              10.475561
            ],
            [
              104.400875,
              10.474716
            ],
            [
              104.40077,
              10.469926
            ],
            [
              104.404306,
              10.471326
            ],
            [
              104.405251,
              10.469855
            ],
            [
              104.404161,
              10.46809
            ],
            [
              104.404769,
              10.467021
            ],
            [
              104.405771,
              10.466874
            ],
            [
              104.40865,
              10.470149
            ],
            [
              104.410208,
              10.470948
            ],
            [
              104.413295,
              10.469757
            ],
            [
              104.413862,
              10.471048
            ],
            [
              104.41281,
              10.472969
            ],
            [
              104.41503,
              10.474436
            ],
            [
              104.416148,
              10.474242
            ],
            [
              104.419776,
              10.470795
            ],
            [
              104.419685,
              10.469862
            ],
            [
              104.414895,
              10.467147
            ],
            [
              104.41513,
              10.4661
            ],
            [
              104.416459,
              10.465285
            ],
            [
              104.419241,
              10.465129
            ],
            [
              104.420477,
              10.464141
            ],
            [
              104.422374,
              10.459367
            ],
            [
              104.425413,
              10.458602
            ],
            [
              104.425939,
              10.457474
            ],
            [
              104.425374,
              10.455448
            ],
            [
              104.416305,
              10.445604
            ],
            [
              104.348212,
              10.356874
            ],
            [
              104.439218,
              10.423171
            ],
            [
              104.463938,
              10.429042
            ],
            [
              104.478313,
              10.431466
            ],
            [
              104.489138,
              10.420372
            ],
            [
              104.488618,
              10.418787
            ],
            [
              104.489483,
              10.416949
            ],
            [
              104.488919,
              10.416788
            ],
            [
              104.493851,
              10.408655
            ],
            [
              104.497961,
              10.404454
            ],
            [
              104.501294,
              10.408306
            ],
            [
              104.504564,
              10.413877
            ],
            [
              104.518265,
              10.44027
            ],
            [
              104.528104,
              10.446862
            ],
            [
              104.541839,
              10.44761
            ],
            [
              104.543061,
              10.448177
            ],
            [
              104.552554,
              10.457554
            ],
            [
              104.555585,
              10.463707
            ],
            [
              104.556222,
              10.467958
            ],
            [
              104.558337,
              10.47285
            ],
            [
              104.559842,
              10.492991
            ],
            [
              104.564918,
              10.49524
            ],
            [
              104.570059,
              10.498811
            ],
            [
              104.579389,
              10.502047
            ],
            [
              104.583814,
              10.504849
            ],
            [
              104.587252,
              10.511058
            ],
            [
              104.587745,
              10.527387
            ],
            [
              104.590182,
              10.529488
            ],
            [
              104.598113,
              10.533241
            ],
            [
              104.603072,
              10.533683
            ],
            [
              104.608596,
              10.532811
            ],
            [
              104.616097,
              10.528055
            ],
            [
              104.625166,
              10.528002
            ],
            [
              104.637915,
              10.529782
            ],
            [
              104.64462,
              10.52963
            ],
            [
              104.643919,
              10.539576
            ],
            [
              104.646816,
              10.539512
            ],
            [
              104.646824,
              10.540015
            ],
            [
              104.695203,
              10.537714
            ],
            [
              104.694902,
              10.536442
            ],
            [
              104.714971,
              10.531696
            ],
            [
              104.715677,
              10.533377
            ],
            [
              104.71814,
              10.533814
            ],
            [
              104.718788,
              10.53614
            ],
            [
              104.718025,
              10.537119
            ],
            [
              104.71824,
              10.538597
            ],
            [
              104.716724,
              10.539729
            ],
            [
              104.715608,
              10.539469
            ],
            [
              104.713159,
              10.542381
            ],
            [
              104.713448,
              10.545088
            ],
            [
              104.711791,
              10.548765
            ],
            [
              104.712501,
              10.552239
            ],
            [
              104.711585,
              10.555718
            ],
            [
              104.711411,
              10.561651
            ],
            [
              104.711832,
              10.568359
            ],
            [
              104.713111,
              10.571945
            ],
            [
              104.713137,
              10.575788
            ],
            [
              104.712181,
              10.577581
            ],
            [
              104.712756,
              10.5793
            ],
            [
              104.706899,
              10.583729
            ],
            [
              104.70658,
              10.585451
            ],
            [
              104.706874,
              10.595396
            ],
            [
              104.711533,
              10.60537
            ],
            [
              104.711476,
              10.611439
            ],
            [
              104.709874,
              10.61756
            ],
            [
              104.708185,
              10.619058
            ],
            [
              104.705365,
              10.619494
            ],
            [
              104.673616,
              10.621327
            ],
            [
              104.676922,
              10.635942
            ],
            [
              104.67488,
              10.648867
            ],
            [
              104.673171,
              10.651489
            ],
            [
              104.67497,
              10.657265
            ],
            [
              104.675152,
              10.662403
            ],
            [
              104.673969,
              10.66609
            ],
            [
              104.674394,
              10.667878
            ],
            [
              104.673632,
              10.672263
            ],
            [
              104.674669,
              10.676344
            ],
            [
              104.673756,
              10.680397
            ],
            [
              104.674707,
              10.683295
            ],
            [
              104.673275,
              10.691504
            ],
            [
              104.670539,
              10.696096
            ],
            [
              104.671482,
              10.696557
            ],
            [
              104.672808,
              10.700201
            ],
            [
              104.675397,
              10.703151
            ],
            [
              104.680147,
              10.70623
            ],
            [
              104.6816,
              10.706454
            ],
            [
              104.683394,
              10.711081
            ],
            [
              104.683182,
              10.71348
            ],
            [
              104.687021,
              10.718043
            ],
            [
              104.687171,
              10.720886
            ],
            [
              104.69042,
              10.723168
            ],
            [
              104.691556,
              10.725734
            ],
            [
              104.697309,
              10.732606
            ],
            [
              104.699414,
              10.739515
            ],
            [
              104.702146,
              10.74001
            ],
            [
              104.702199,
              10.741948
            ],
            [
              104.700498,
              10.743595
            ],
            [
              104.699302,
              10.746823
            ],
            [
              104.699365,
              10.748051
            ],
            [
              104.700579,
              10.749503
            ],
            [
              104.699168,
              10.751275
            ],
            [
              104.69948,
              10.754426
            ],
            [
              104.70243,
              10.755964
            ],
            [
              104.702678,
              10.762856
            ],
            [
              104.704221,
              10.765296
            ],
            [
              104.715063,
              10.772995
            ],
            [
              104.723754,
              10.77662
            ],
            [
              104.727076,
              10.780594
            ],
            [
              104.723168,
              10.783417
            ],
            [
              104.722946,
              10.78654
            ],
            [
              104.72161,
              10.789729
            ],
            [
              104.716248,
              10.793638
            ],
            [
              104.714713,
              10.797182
            ],
            [
              104.712284,
              10.798506
            ],
            [
              104.710064,
              10.802496
            ],
            [
              104.70594,
              10.806708
            ],
            [
              104.707137,
              10.808814
            ],
            [
              104.706924,
              10.809709
            ],
            [
              104.705217,
              10.81037
            ],
            [
              104.704918,
              10.812298
            ],
            [
              104.705538,
              10.818996
            ],
            [
              104.704836,
              10.82043
            ],
            [
              104.704819,
              10.826999
            ],
            [
              104.703778,
              10.831566
            ],
            [
              104.706248,
              10.834136
            ],
            [
              104.706879,
              10.83585
            ],
            [
              104.706527,
              10.838952
            ],
            [
              104.704596,
              10.840689
            ],
            [
              104.700931,
              10.851255
            ],
            [
              104.698957,
              10.854452
            ],
            [
              104.698158,
              10.859433
            ],
            [
              104.691841,
              10.871563
            ],
            [
              104.68868,
              10.875434
            ],
            [
              104.68763,
              10.879519
            ],
            [
              104.686011,
              10.880994
            ],
            [
              104.677766,
              10.893623
            ],
            [
              104.674342,
              10.894127
            ],
            [
              104.674129,
              10.897686
            ],
            [
              104.672798,
              10.899427
            ],
            [
              104.668838,
              10.90055
            ],
            [
              104.65756,
              10.906446
            ],
            [
              104.654043,
              10.907032
            ],
            [
              104.631596,
              10.904984
            ],
            [
              104.625871,
              10.901355
            ],
            [
              104.623773,
              10.901152
            ],
            [
              104.618152,
              10.902383
            ],
            [
              104.597822,
              10.891968
            ],
            [
              104.584686,
              10.886082
            ],
            [
              104.563196,
              10.888076
            ],
            [
              104.547373,
              10.886222
            ],
            [
              104.535852,
              10.88699
            ],
            [
              104.52228,
              10.894262
            ],
            [
              104.540997,
              10.929955
            ],
            [
              104.539478,
              10.950943
            ],
            [
              104.541524,
              10.963931
            ],
            [
              104.538148,
              10.987267
            ],
            [
              104.534441,
              10.993166
            ],
            [
              104.532992,
              11.002257
            ],
            [
              104.530465,
              11.006181
            ],
            [
              104.528279,
              11.012323
            ],
            [
              104.523609,
              11.020333
            ],
            [
              104.522791,
              11.024471
            ],
            [
              104.513044,
              11.039657
            ],
            [
              104.499541,
              11.05835
            ],
            [
              104.496227,
              11.059336
            ],
            [
              104.486828,
              11.059655
            ],
            [
              104.487641,
              11.070874
            ],
            [
              104.468407,
              11.056963
            ],
            [
              104.460986,
              11.063633
            ],
            [
              104.455099,
              11.057883
            ],
            [
              104.455044,
              11.069876
            ],
            [
              104.438727,
              11.075028
            ],
            [
              104.431747,
              11.081563
            ],
            [
              104.430016,
              11.081276
            ],
            [
              104.428417,
              11.08209
            ],
            [
              104.427319,
              11.081177
            ],
            [
              104.424553,
              11.08258
            ],
            [
              104.419938,
              11.082353
            ],
            [
              104.416222,
              11.081128
            ],
            [
              104.410272,
              11.077497
            ],
            [
              104.410283,
              11.137618
            ],
            [
              104.407993,
              11.136514
            ],
            [
              104.407536,
              11.139043
            ],
            [
              104.405563,
              11.139609
            ],
            [
              104.405951,
              11.140516
            ],
            [
              104.405051,
              11.14099
            ],
            [
              104.404668,
              11.142376
            ],
            [
              104.403096,
              11.142406
            ],
            [
              104.400932,
              11.144502
            ],
            [
              104.401064,
              11.145446
            ],
            [
              104.399098,
              11.146105
            ],
            [
              104.39919,
              11.146864
            ],
            [
              104.397684,
              11.148408
            ],
            [
              104.394814,
              11.144098
            ],
            [
              104.393501,
              11.144744
            ],
            [
              104.39287,
              11.143772
            ],
            [
              104.39368,
              11.142136
            ],
            [
              104.393267,
              11.14163
            ],
            [
              104.392034,
              11.140914
            ],
            [
              104.389913,
              11.141374
            ],
            [
              104.388083,
              11.136925
            ],
            [
              104.385583,
              11.136523
            ],
            [
              104.384237,
              11.137798
            ],
            [
              104.383058,
              11.136855
            ],
            [
              104.380361,
              11.136791
            ],
            [
              104.37994,
              11.135825
            ],
            [
              104.378164,
              11.134977
            ],
            [
              104.37784,
              11.136342
            ],
            [
              104.373016,
              11.135143
            ],
            [
              104.371245,
              11.135566
            ],
            [
              104.37007,
              11.135208
            ],
            [
              104.368623,
              11.132216
            ],
            [
              104.366774,
              11.13321
            ],
            [
              104.366232,
              11.134921
            ],
            [
              104.363277,
              11.136214
            ],
            [
              104.361916,
              11.136193
            ],
            [
              104.361362,
              11.135006
            ],
            [
              104.359519,
              11.136208
            ],
            [
              104.355602,
              11.137036
            ],
            [
              104.355609,
              11.138327
            ],
            [
              104.351149,
              11.137048
            ],
            [
              104.345939,
              11.139388
            ],
            [
              104.344007,
              11.138019
            ],
            [
              104.343492,
              11.138793
            ],
            [
              104.343946,
              11.140194
            ],
            [
              104.341104,
              11.13993
            ],
            [
              104.339679,
              11.138383
            ],
            [
              104.338191,
              11.138311
            ],
            [
              104.33775,
              11.13691
            ],
            [
              104.335527,
              11.135886
            ],
            [
              104.33323,
              11.132879
            ],
            [
              104.33016,
              11.13145
            ],
            [
              104.330682,
              11.130791
            ],
            [
              104.328472,
              11.129058
            ],
            [
              104.330048,
              11.126461
            ],
            [
              104.328712,
              11.125685
            ],
            [
              104.329393,
              11.123782
            ],
            [
              104.32834,
              11.121857
            ],
            [
              104.32677,
              11.121496
            ],
            [
              104.324413,
              11.118578
            ],
            [
              104.325019,
              11.117153
            ],
            [
              104.321779,
              11.116269
            ],
            [
              104.321528,
              11.115103
            ],
            [
              104.320159,
              11.114279
            ],
            [
              104.318839,
              11.116517
            ],
            [
              104.31739,
              11.116011
            ],
            [
              104.315613,
              11.113513
            ],
            [
              104.312446,
              11.104563
            ],
            [
              104.309246,
              11.10423
            ],
            [
              104.306829,
              11.102741
            ],
            [
              104.303309,
              11.103979
            ],
            [
              104.301497,
              11.103553
            ],
            [
              104.29782,
              11.104969
            ],
            [
              104.293427,
              11.104814
            ],
            [
              104.292542,
              11.1038
            ],
            [
              104.289337,
              11.102961
            ],
            [
              104.279357,
              11.102201
            ],
            [
              104.269309,
              11.097436
            ],
            [
              104.265735,
              11.097687
            ],
            [
              104.246127,
              11.092856
            ],
            [
              104.21496,
              11.094013
            ],
            [
              104.211992,
              11.094447
            ],
            [
              104.195378,
              11.101245
            ],
            [
              104.186084,
              11.108268
            ],
            [
              104.171707,
              11.125464
            ],
            [
              104.163066,
              11.144297
            ],
            [
              104.161947,
              11.145893
            ],
            [
              104.15812,
              11.148667
            ],
            [
              104.127631,
              11.159304
            ],
            [
              104.083517,
              11.170887
            ],
            [
              104.074667,
              11.172227
            ],
            [
              104.052913,
              11.170884
            ],
            [
              104.067564,
              11.152589
            ],
            [
              104.070603,
              11.147665
            ],
            [
              104.070637,
              11.122835
            ],
            [
              104.069438,
              11.107918
            ],
            [
              104.074306,
              11.091577
            ],
            [
              104.07493,
              11.082527
            ],
            [
              104.076798,
              11.077832
            ],
            [
              104.077128,
              11.073224
            ],
            [
              104.076769,
              11.071891
            ],
            [
              104.074385,
              11.070291
            ],
            [
              104.073318,
              11.067211
            ],
            [
              104.065721,
              11.064433
            ],
            [
              104.060069,
              11.06168
            ],
            [
              104.059197,
              11.060622
            ],
            [
              104.060074,
              11.057452
            ],
            [
              104.070956,
              11.045484
            ],
            [
              104.07508,
              11.042169
            ],
            [
              104.074946,
              11.036126
            ],
            [
              104.073317,
              11.028726
            ],
            [
              104.066776,
              11.026684
            ],
            [
              104.058299,
              11.022388
            ],
            [
              104.050835,
              11.016336
            ],
            [
              104.04594,
              11.013399
            ],
            [
              104.040229,
              11.012001
            ],
            [
              104.027908,
              11.010939
            ],
            [
              104.022022,
              11.009333
            ],
            [
              104.020997,
              11.009906
            ],
            [
              104.020286,
              11.011536
            ],
            [
              104.018624,
              11.018944
            ],
            [
              104.017226,
              11.020217
            ],
            [
              104.01427,
              11.020626
            ],
            [
              104.008412,
              11.018862
            ],
            [
              103.999862,
              11.019234
            ],
            [
              103.995807,
              11.020145
            ],
            [
              103.972526,
              10.993675
            ],
            [
              103.965385,
              10.989892
            ],
            [
              103.961187,
              10.986295
            ],
            [
              103.955523,
              10.983639
            ],
            [
              103.945478,
              10.97526
            ],
            [
              103.93828,
              10.971005
            ],
            [
              103.935712,
              10.966847
            ],
            [
              103.932585,
              10.963607
            ],
            [
              103.918468,
              10.957152
            ],
            [
              103.916158,
              10.955737
            ],
            [
              103.915841,
              10.954521
            ],
            [
              103.915737,
              10.953568
            ],
            [
              103.917636,
              10.950917
            ],
            [
              103.920255,
              10.948393
            ],
            [
              103.919048,
              10.946176
            ],
            [
              103.923247,
              10.945709
            ],
            [
              103.924376,
              10.944872
            ],
            [
              103.926947,
              10.945035
            ],
            [
              103.930776,
              10.943373
            ],
            [
              103.931626,
              10.9418
            ],
            [
              103.933627,
              10.94171
            ],
            [
              103.932954,
              10.93946
            ],
            [
              103.934107,
              10.93907
            ],
            [
              103.933941,
              10.928748
            ],
            [
              103.934782,
              10.924397
            ],
            [
              103.931366,
              10.918906
            ],
            [
              103.93341,
              10.909618
            ],
            [
              103.93309,
              10.901948
            ],
            [
              103.932011,
              10.899547
            ],
            [
              103.929755,
              10.898949
            ],
            [
              103.92687,
              10.899486
            ],
            [
              103.924662,
              10.896924
            ],
            [
              103.923073,
              10.891365
            ],
            [
              103.922613,
              10.885842
            ],
            [
              103.917782,
              10.876456
            ],
            [
              103.918447,
              10.874539
            ],
            [
              103.92152,
              10.871912
            ],
            [
              103.929513,
              10.867522
            ],
            [
              103.931714,
              10.864619
            ],
            [
              103.932064,
              10.863023
            ],
            [
              103.923473,
              10.858721
            ],
            [
              103.922509,
              10.857504
            ],
            [
              103.922804,
              10.851717
            ],
            [
              103.926438,
              10.845152
            ],
            [
              103.934397,
              10.839682
            ],
            [
              103.93712,
              10.83702
            ],
            [
              103.939788,
              10.831408
            ],
            [
              103.945446,
              10.822663
            ],
            [
              103.945552,
              10.821526
            ],
            [
              103.94231,
              10.81762
            ],
            [
              103.942196,
              10.814944
            ],
            [
              103.937374,
              10.810209
            ],
            [
              103.93331,
              10.802364
            ],
            [
              103.933504,
              10.793271
            ],
            [
              103.935822,
              10.787692
            ],
            [
              103.93427,
              10.779493
            ],
            [
              103.931831,
              10.776287
            ],
            [
              103.922755,
              10.770436
            ],
            [
              103.921839,
              10.768517
            ],
            [
              103.923986,
              10.758644
            ],
            [
              103.924147,
              10.749177
            ],
            [
              103.925581,
              10.745076
            ],
            [
              103.935232,
              10.729285
            ],
            [
              103.93699,
              10.725315
            ],
            [
              103.945645,
              10.712252
            ],
            [
              103.954035,
              10.709859
            ],
            [
              103.957208,
              10.707702
            ],
            [
              103.962305,
              10.69749
            ],
            [
              103.963054,
              10.691715
            ],
            [
              103.96309,
              10.68228
            ],
            [
              103.966777,
              10.675297
            ],
            [
              103.967512,
              10.670393
            ],
            [
              103.965225,
              10.659123
            ],
            [
              103.959256,
              10.645778
            ],
            [
              103.955875,
              10.640047
            ],
            [
              103.955048,
              10.633859
            ],
            [
              103.952701,
              10.629597
            ],
            [
              103.953463,
              10.627504
            ],
            [
              103.952969,
              10.62365
            ],
            [
              103.950898,
              10.622764
            ],
            [
              103.948538,
              10.623718
            ],
            [
              103.946585,
              10.621837
            ],
            [
              103.946006,
              10.62259
            ],
            [
              103.946671,
              10.62279
            ],
            [
              103.945523,
              10.622659
            ],
            [
              103.94444,
              10.619479
            ],
            [
              103.943227,
              10.619384
            ],
            [
              103.943013,
              10.617618
            ],
            [
              103.941811,
              10.615973
            ],
            [
              103.940663,
              10.6161
            ],
            [
              103.941704,
              10.617834
            ],
            [
              103.939483,
              10.619131
            ],
            [
              103.938571,
              10.621288
            ],
            [
              103.936476,
              10.620056
            ],
            [
              103.935825,
              10.618578
            ],
            [
              103.936519,
              10.617789
            ],
            [
              103.935224,
              10.617492
            ],
            [
              103.934806,
              10.618472
            ],
            [
              103.93531,
              10.619843
            ],
            [
              103.933969,
              10.62113
            ],
            [
              103.93517,
              10.621689
            ],
            [
              103.931051,
              10.62192
            ],
            [
              103.929237,
              10.620254
            ],
            [
              103.928826,
              10.618759
            ],
            [
              103.929645,
              10.617892
            ],
            [
              103.930278,
              10.618715
            ],
            [
              103.930772,
              10.618441
            ],
            [
              103.929795,
              10.61591
            ],
            [
              103.932392,
              10.615963
            ],
            [
              103.932445,
              10.615393
            ],
            [
              103.925916,
              10.614381
            ],
            [
              103.923197,
              10.61301
            ],
            [
              103.924184,
              10.611133
            ],
            [
              103.922828,
              10.610428
            ],
            [
              103.920558,
              10.607395
            ],
            [
              103.839034,
              10.405186
            ]
          ]
        ]
      }
    }
  ]
}
