{
  "type": "FeatureCollection",
  "features": [
    {
      "type": "Feature",
      "properties": {
        "geo_id": "geo_kh_0026",
        "name": "Пном-Кулен",
        "geometry_scope": "Phnom Kulen National Park protected-area boundary; operational proxy for the wider physical/cultural Phnom Kulen node",
        "source_dataset": "Natural protected areas in Cambodia (1993-2023)",
        "source_publisher": "Open Development Cambodia / source government records",
        "source_url": "https://opendevelopmentcambodia.net/dataset/?id=protectedareas",
        "source_map_id": "pa_np_8",
        "source_name": "Phnom Kulen National Park",
        "source_reference": "Royal_Decree_on_Protected_Areas__01.11.1993.pdf; Ministry_of_Environment_Kulen__28.07.2014.pdf",
        "source_checked_at": "2026-10-01",
        "accuracy": "sourced_boundary"
      },
      "geometry": {
        "type": "MultiPolygon",
        "coordinates": [
          [
            [
              [
                104.02826116,
                13.70237651
              ],
              [
                104.0374752,
                13.68216003
              ],
              [
                104.07509212,
                13.68230336
              ],
              [
                104.10213752,
                13.66487176
              ],
              [
                104.12125575,
                13.65238375
              ],
              [
                104.19235858,
                13.60484407
              ],
              [
                104.21102444,
                13.60007052
              ],
              [
                104.21979949,
                13.5976035
              ],
              [
                104.23863568,
                13.58908634
              ],
              [
                104.238891,
                13.55899504
              ],
              [
                104.2384738,
                13.54287455
              ],
              [
                104.19654957,
                13.50375
              ],
              [
                104.17143417,
                13.47910735
              ],
              [
                104.146742,
                13.47855692
              ],
              [
                104.12951354,
                13.48473438
              ],
              [
                104.1229656,
                13.48907719
              ],
              [
                104.11673034,
                13.49498007
              ],
              [
                104.10609154,
                13.51858062
              ],
              [
                104.09225938,
                13.54354793
              ],
              [
                104.05333609,
                13.59090441
              ],
              [
                104.04685826,
                13.59707976
              ],
              [
                104.03915427,
                13.60497309
              ],
              [
                104.02486145,
                13.61454744
              ],
              [
                104.01730778,
                13.62070289
              ],
              [
                104.0155022,
                13.62040122
              ],
              [
                104.01248856,
                13.61721735
              ],
              [
                104.00787111,
                13.61531295
              ],
              [
                104.00509731,
                13.61273352
              ],
              [
                104.00268688,
                13.61367456
              ],
              [
                103.9993436,
                13.61297611
              ],
              [
                103.99834021,
                13.61216473
              ],
              [
                103.99663532,
                13.61207007
              ],
              [
                103.99483901,
                13.61237007
              ],
              [
                103.9912367,
                13.61525245
              ],
              [
                103.99028798,
                13.61674097
              ],
              [
                103.99183893,
                13.62139993
              ],
              [
                103.99370446,
                13.62597238
              ],
              [
                103.99654403,
                13.63591598
              ],
              [
                103.99821117,
                13.64405798
              ],
              [
                104.00285257,
                13.64802146
              ],
              [
                104.00663335,
                13.65054831
              ],
              [
                104.00772456,
                13.65282517
              ],
              [
                103.99729024,
                13.66562138
              ],
              [
                103.99235704,
                13.6715411
              ],
              [
                103.96374493,
                13.67042373
              ],
              [
                103.95262895,
                13.67006545
              ],
              [
                103.94958896,
                13.67652967
              ],
              [
                103.94334275,
                13.69154978
              ],
              [
                103.93443496,
                13.71387713
              ],
              [
                103.93285819,
                13.71737989
              ],
              [
                103.96664951,
                13.7478169
              ],
              [
                104.02826116,
                13.70237651
              ]
            ]
          ]
        ]
      }
    }
  ]
}
