{
  "type": "FeatureCollection",
  "features": [
    {
      "type": "Feature",
      "properties": {
        "geo_id": "geo_bn_0017",
        "name": "Mukim Sengkurong",
        "boundary_level": "mukim",
        "osm_type": "relation",
        "osm_id": 8747413,
        "source_checked_at": "2026-10-01"
      },
      "geometry": {
        "type": "Polygon",
        "coordinates": [
          [
            [
              114.776421,
              4.908956
            ],
            [
              114.793546,
              4.89184
            ],
            [
              114.795276,
              4.887752
            ],
            [
              114.793759,
              4.882846
            ],
            [
              114.799104,
              4.873209
            ],
            [
              114.801204,
              4.863024
            ],
            [
              114.80396,
              4.858705
            ],
            [
              114.80428,
              4.856462
            ],
            [
              114.796938,
              4.837525
            ],
            [
              114.809837,
              4.838479
            ],
            [
              114.820802,
              4.840788
            ],
            [
              114.821982,
              4.840446
            ],
            [
              114.821489,
              4.838137
            ],
            [
              114.829749,
              4.847033
            ],
            [
              114.82875,
              4.848108
            ],
            [
              114.829017,
              4.853629
            ],
            [
              114.834449,
              4.856957
            ],
            [
              114.837878,
              4.854753
            ],
            [
              114.841157,
              4.856267
            ],
            [
              114.843165,
              4.856506
            ],
            [
              114.845053,
              4.855805
            ],
            [
              114.847439,
              4.855839
            ],
            [
              114.84992,
              4.857344
            ],
            [
              114.851791,
              4.857208
            ],
            [
              114.858554,
              4.861278
            ],
            [
              114.858654,
              4.865222
            ],
            [
              114.853264,
              4.865191
            ],
            [
              114.85295,
              4.884072
            ],
            [
              114.853385,
              4.885477
            ],
            [
              114.851241,
              4.889931
            ],
            [
              114.853457,
              4.892607
            ],
            [
              114.852414,
              4.893872
            ],
            [
              114.852316,
              4.895075
            ],
            [
              114.84873,
              4.894701
            ],
            [
              114.849628,
              4.8978
            ],
            [
              114.851239,
              4.897862
            ],
            [
              114.851307,
              4.90096
            ],
            [
              114.85637,
              4.900764
            ],
            [
              114.864678,
              4.904394
            ],
            [
              114.861052,
              4.917307
            ],
            [
              114.862275,
              4.94931
            ],
            [
              114.85575,
              4.963057
            ],
            [
              114.867242,
              4.968704
            ],
            [
              114.866626,
              4.969713
            ],
            [
              114.863603,
              4.969563
            ],
            [
              114.862113,
              4.970189
            ],
            [
              114.861307,
              4.972019
            ],
            [
              114.861564,
              4.972917
            ],
            [
              114.862739,
              4.972338
            ],
            [
              114.862031,
              4.973105
            ],
            [
              114.859904,
              4.972513
            ],
            [
              114.859759,
              4.970896
            ],
            [
              114.859376,
              4.972923
            ],
            [
              114.859062,
              4.971899
            ],
            [
              114.859861,
              4.970218
            ],
            [
              114.859617,
              4.96877
            ],
            [
              114.858764,
              4.96807
            ],
            [
              114.856162,
              4.967836
            ],
            [
              114.854296,
              4.97065
            ],
            [
              114.85244,
              4.971738
            ],
            [
              114.852186,
              4.971267
            ],
            [
              114.85282,
              4.971185
            ],
            [
              114.852882,
              4.970469
            ],
            [
              114.85157,
              4.968567
            ],
            [
              114.850919,
              4.968457
            ],
            [
              114.850451,
              4.969106
            ],
            [
              114.849674,
              4.968417
            ],
            [
              114.850478,
              4.968265
            ],
            [
              114.850831,
              4.967015
            ],
            [
              114.848403,
              4.965686
            ],
            [
              114.847405,
              4.966258
            ],
            [
              114.847705,
              4.967167
            ],
            [
              114.846692,
              4.966966
            ],
            [
              114.846244,
              4.965218
            ],
            [
              114.847266,
              4.964727
            ],
            [
              114.846783,
              4.963474
            ],
            [
              114.844799,
              4.961972
            ],
            [
              114.843977,
              4.962758
            ],
            [
              114.843309,
              4.962605
            ],
            [
              114.843182,
              4.961984
            ],
            [
              114.843801,
              4.962116
            ],
            [
              114.844154,
              4.961066
            ],
            [
              114.842403,
              4.959305
            ],
            [
              114.841497,
              4.959129
            ],
            [
              114.841004,
              4.959545
            ],
            [
              114.841237,
              4.960001
            ],
            [
              114.840375,
              4.960026
            ],
            [
              114.84142,
              4.957183
            ],
            [
              114.839922,
              4.959548
            ],
            [
              114.838941,
              4.958288
            ],
            [
              114.84027,
              4.958776
            ],
            [
              114.839828,
              4.956712
            ],
            [
              114.837438,
              4.955647
            ],
            [
              114.836887,
              4.955998
            ],
            [
              114.837025,
              4.957012
            ],
            [
              114.835967,
              4.956865
            ],
            [
              114.835735,
              4.956339
            ],
            [
              114.836541,
              4.956525
            ],
            [
              114.837116,
              4.955457
            ],
            [
              114.835762,
              4.954121
            ],
            [
              114.834445,
              4.954062
            ],
            [
              114.832637,
              4.954903
            ],
            [
              114.832505,
              4.955385
            ],
            [
              114.833079,
              4.955684
            ],
            [
              114.833342,
              4.95525
            ],
            [
              114.8332,
              4.955734
            ],
            [
              114.834249,
              4.956171
            ],
            [
              114.832049,
              4.955906
            ],
            [
              114.830496,
              4.954158
            ],
            [
              114.830692,
              4.953532
            ],
            [
              114.831202,
              4.954404
            ],
            [
              114.832005,
              4.95385
            ],
            [
              114.832012,
              4.952101
            ],
            [
              114.830046,
              4.950353
            ],
            [
              114.829048,
              4.950679
            ],
            [
              114.829295,
              4.95146
            ],
            [
              114.828428,
              4.951413
            ],
            [
              114.82831,
              4.950849
            ],
            [
              114.829376,
              4.949503
            ],
            [
              114.828187,
              4.948837
            ],
            [
              114.828324,
              4.948344
            ],
            [
              114.826554,
              4.94755
            ],
            [
              114.825014,
              4.94736
            ],
            [
              114.823539,
              4.950329
            ],
            [
              114.825365,
              4.945709
            ],
            [
              114.823042,
              4.950065
            ],
            [
              114.823295,
              4.950901
            ],
            [
              114.819353,
              4.955057
            ],
            [
              114.813751,
              4.95818
            ],
            [
              114.811914,
              4.958348
            ],
            [
              114.810006,
              4.957737
            ],
            [
              114.810063,
              4.957284
            ],
            [
              114.811391,
              4.958081
            ],
            [
              114.813843,
              4.957988
            ],
            [
              114.818024,
              4.955794
            ],
            [
              114.822452,
              4.951791
            ],
            [
              114.822844,
              4.950003
            ],
            [
              114.824298,
              4.947743
            ],
            [
              114.821425,
              4.944576
            ],
            [
              114.819333,
              4.943416
            ],
            [
              114.818354,
              4.943437
            ],
            [
              114.817573,
              4.944466
            ],
            [
              114.818893,
              4.946345
            ],
            [
              114.818239,
              4.947291
            ],
            [
              114.8159,
              4.945527
            ],
            [
              114.815229,
              4.942588
            ],
            [
              114.811608,
              4.943111
            ],
            [
              114.809806,
              4.945084
            ],
            [
              114.807826,
              4.950525
            ],
            [
              114.807499,
              4.953456
            ],
            [
              114.808561,
              4.955698
            ],
            [
              114.808269,
              4.955994
            ],
            [
              114.807392,
              4.953993
            ],
            [
              114.80737,
              4.951614
            ],
            [
              114.810084,
              4.94424
            ],
            [
              114.812487,
              4.940914
            ],
            [
              114.813328,
              4.941076
            ],
            [
              114.814881,
              4.939998
            ],
            [
              114.816919,
              4.939704
            ],
            [
              114.815175,
              4.939595
            ],
            [
              114.812912,
              4.940709
            ],
            [
              114.814481,
              4.939699
            ],
            [
              114.813851,
              4.937858
            ],
            [
              114.812577,
              4.937401
            ],
            [
              114.812204,
              4.938275
            ],
            [
              114.811571,
              4.938197
            ],
            [
              114.81134,
              4.937552
            ],
            [
              114.811943,
              4.937441
            ],
            [
              114.811917,
              4.936663
            ],
            [
              114.810079,
              4.935389
            ],
            [
              114.80924,
              4.935562
            ],
            [
              114.80945,
              4.936117
            ],
            [
              114.808972,
              4.936418
            ],
            [
              114.808403,
              4.935554
            ],
            [
              114.808205,
              4.936468
            ],
            [
              114.807344,
              4.936369
            ],
            [
              114.806698,
              4.93522
            ],
            [
              114.807466,
              4.935597
            ],
            [
              114.808001,
              4.934607
            ],
            [
              114.807161,
              4.932484
            ],
            [
              114.805911,
              4.932062
            ],
            [
              114.805195,
              4.932644
            ],
            [
              114.805375,
              4.933302
            ],
            [
              114.804616,
              4.933002
            ],
            [
              114.804452,
              4.932455
            ],
            [
              114.805171,
              4.931853
            ],
            [
              114.804586,
              4.930824
            ],
            [
              114.802306,
              4.929528
            ],
            [
              114.801177,
              4.930293
            ],
            [
              114.800796,
              4.92978
            ],
            [
              114.801435,
              4.929112
            ],
            [
              114.800877,
              4.928227
            ],
            [
              114.798833,
              4.926875
            ],
            [
              114.797317,
              4.927273
            ],
            [
              114.79713,
              4.926696
            ],
            [
              114.797894,
              4.926183
            ],
            [
              114.797258,
              4.925036
            ],
            [
              114.795351,
              4.923748
            ],
            [
              114.793946,
              4.924334
            ],
            [
              114.794992,
              4.922658
            ],
            [
              114.793364,
              4.923934
            ],
            [
              114.793129,
              4.923337
            ],
            [
              114.793981,
              4.923313
            ],
            [
              114.793696,
              4.921549
            ],
            [
              114.776689,
              4.909104
            ],
            [
              114.776421,
              4.908956
            ]
          ]
        ]
      }
    }
  ]
}
