{
  "type": "FeatureCollection",
  "features": [
    {
      "type": "Feature",
      "properties": {
        "geo_id": "geo_ph_0047",
        "name": "Central Luzon / Pinatubo",
        "component": "Botolan",
        "source_psgc": "0307101000",
        "source_boundary_level": "municipality"
      },
      "geometry": {
        "type": "Polygon",
        "coordinates": [
          [
            [
              120.37321399300004,
              15.10148637300005
            ],
            [
              120.35605737500009,
              15.13502351100004
            ],
            [
              120.36759662500005,
              15.167097115000045
            ],
            [
              120.33616555000003,
              15.235095099000032
            ],
            [
              120.28224524300005,
              15.289590427000064
            ],
            [
              120.16532977500005,
              15.363194593000058
            ],
            [
              120.08299319900004,
              15.36302629700003
            ],
            [
              120.04692021800008,
              15.351124852000058
            ],
            [
              119.98755351100012,
              15.301703979000022
            ],
            [
              120.0162021110001,
              15.264447562000043
            ],
            [
              120.02261150100004,
              15.207258977000036
            ],
            [
              120.08639489500003,
              15.235979324000024
            ],
            [
              120.18270737900004,
              15.188753523000054
            ],
            [
              120.20381579300012,
              15.12924765900004
            ],
            [
              120.19677176700009,
              15.100379554000025
            ],
            [
              120.21382045000009,
              15.100339908000018
            ],
            [
              120.37321399300004,
              15.10148637300005
            ]
          ]
        ]
      }
    },
    {
      "type": "Feature",
      "properties": {
        "geo_id": "geo_ph_0047",
        "name": "Central Luzon / Pinatubo",
        "component": "Capas",
        "source_psgc": "0306904000",
        "source_boundary_level": "municipality"
      },
      "geometry": {
        "type": "Polygon",
        "coordinates": [
          [
            [
              120.52205396400008,
              15.40505959500007
            ],
            [
              120.46597774600002,
              15.42470771500007
            ],
            [
              120.2413135270001,
              15.314832387000026
            ],
            [
              120.33616555000003,
              15.235095099000032
            ],
            [
              120.43155211300007,
              15.275751425000067
            ],
            [
              120.51416380800002,
              15.28836790100007
            ],
            [
              120.60921231100008,
              15.324793937000035
            ],
            [
              120.60202632500012,
              15.408805875000038
            ],
            [
              120.52205396400008,
              15.40505959500007
            ]
          ]
        ]
      }
    },
    {
      "type": "Feature",
      "properties": {
        "geo_id": "geo_ph_0047",
        "name": "Central Luzon / Pinatubo",
        "component": "Porac",
        "source_psgc": "0305415000",
        "source_boundary_level": "municipality"
      },
      "geometry": {
        "type": "Polygon",
        "coordinates": [
          [
            [
              120.44977598600008,
              15.175672598000059
            ],
            [
              120.44756009000004,
              15.203252026000031
            ],
            [
              120.36759662500005,
              15.167097115000045
            ],
            [
              120.36503970000001,
              15.108136663000039
            ],
            [
              120.406873,
              15.074102701000069
            ],
            [
              120.4219665490001,
              15.029677780000043
            ],
            [
              120.49254389400005,
              15.037639939000034
            ],
            [
              120.53621967800005,
              15.021041694000074
            ],
            [
              120.56694494300007,
              15.020855206000018
            ],
            [
              120.585807014,
              15.05047378700004
            ],
            [
              120.59723459500003,
              15.108419555000065
            ],
            [
              120.573627912,
              15.129543977000022
            ],
            [
              120.44950805200006,
              15.15106777000005
            ],
            [
              120.44977598600008,
              15.175672598000059
            ]
          ]
        ]
      }
    }
  ]
}
