{
  "type": "FeatureCollection",
  "features": [
    {
      "type": "Feature",
      "properties": {
        "geo_id": "geo_kh_0025",
        "name": "Svay Leu",
        "boundary_level": "district",
        "osm_type": "relation",
        "osm_id": 13233348,
        "source_checked_at": "2026-10-01"
      },
      "geometry": {
        "type": "Polygon",
        "coordinates": [
          [
            [
              104.075383,
              13.569911
            ],
            [
              104.07553,
              13.568684
            ],
            [
              104.080016,
              13.561741
            ],
            [
              104.09272,
              13.543399
            ],
            [
              104.098354,
              13.540895
            ],
            [
              104.099903,
              13.539425
            ],
            [
              104.102944,
              13.527125
            ],
            [
              104.104603,
              13.524979
            ],
            [
              104.10929,
              13.523316
            ],
            [
              104.112383,
              13.515179
            ],
            [
              104.114171,
              13.507609
            ],
            [
              104.116658,
              13.504206
            ],
            [
              104.118978,
              13.502362
            ],
            [
              104.121318,
              13.498627
            ],
            [
              104.122087,
              13.496263
            ],
            [
              104.12217,
              13.488066
            ],
            [
              104.12864,
              13.483645
            ],
            [
              104.130122,
              13.483547
            ],
            [
              104.131037,
              13.485781
            ],
            [
              104.132361,
              13.486128
            ],
            [
              104.135824,
              13.483565
            ],
            [
              104.141555,
              13.481966
            ],
            [
              104.145798,
              13.478998
            ],
            [
              104.150716,
              13.480679
            ],
            [
              104.165171,
              13.479039
            ],
            [
              104.167294,
              13.479475
            ],
            [
              104.170265,
              13.4818
            ],
            [
              104.171556,
              13.481975
            ],
            [
              104.182203,
              13.476096
            ],
            [
              104.18991,
              13.470264
            ],
            [
              104.190855,
              13.468887
            ],
            [
              104.190137,
              13.465807
            ],
            [
              104.188581,
              13.464116
            ],
            [
              104.175989,
              13.452938
            ],
            [
              104.174473,
              13.450847
            ],
            [
              104.173211,
              13.447003
            ],
            [
              104.172834,
              13.441967
            ],
            [
              104.174925,
              13.416103
            ],
            [
              104.175515,
              13.414894
            ],
            [
              104.178394,
              13.412828
            ],
            [
              104.18101,
              13.412237
            ],
            [
              104.187863,
              13.413195
            ],
            [
              104.205062,
              13.411662
            ],
            [
              104.211564,
              13.412512
            ],
            [
              104.214411,
              13.412232
            ],
            [
              104.21709,
              13.410221
            ],
            [
              104.224448,
              13.400556
            ],
            [
              104.227239,
              13.399026
            ],
            [
              104.22979,
              13.398961
            ],
            [
              104.234526,
              13.401064
            ],
            [
              104.238603,
              13.405407
            ],
            [
              104.241874,
              13.410418
            ],
            [
              104.246082,
              13.419844
            ],
            [
              104.25572,
              13.423545
            ],
            [
              104.286551,
              13.42374
            ],
            [
              104.294321,
              13.425247
            ],
            [
              104.347462,
              13.426125
            ],
            [
              104.363506,
              13.417798
            ],
            [
              104.367996,
              13.417325
            ],
            [
              104.374203,
              13.419122
            ],
            [
              104.385001,
              13.424189
            ],
            [
              104.392383,
              13.428404
            ],
            [
              104.396467,
              13.432018
            ],
            [
              104.396937,
              13.434525
            ],
            [
              104.395141,
              13.436688
            ],
            [
              104.39739,
              13.440742
            ],
            [
              104.396921,
              13.442969
            ],
            [
              104.398691,
              13.443987
            ],
            [
              104.40029,
              13.443776
            ],
            [
              104.398745,
              13.445056
            ],
            [
              104.40037,
              13.446741
            ],
            [
              104.400424,
              13.44782
            ],
            [
              104.398436,
              13.450707
            ],
            [
              104.400487,
              13.451853
            ],
            [
              104.399621,
              13.453561
            ],
            [
              104.401716,
              13.454722
            ],
            [
              104.402279,
              13.45826
            ],
            [
              104.406728,
              13.464451
            ],
            [
              104.406631,
              13.465245
            ],
            [
              104.405628,
              13.465594
            ],
            [
              104.402671,
              13.464512
            ],
            [
              104.402,
              13.465198
            ],
            [
              104.402137,
              13.466038
            ],
            [
              104.404811,
              13.467072
            ],
            [
              104.405272,
              13.469107
            ],
            [
              104.402688,
              13.471313
            ],
            [
              104.40432,
              13.473042
            ],
            [
              104.403826,
              13.474156
            ],
            [
              104.401679,
              13.473572
            ],
            [
              104.402811,
              13.475083
            ],
            [
              104.40115,
              13.478614
            ],
            [
              104.40211,
              13.479204
            ],
            [
              104.401854,
              13.481179
            ],
            [
              104.403519,
              13.482128
            ],
            [
              104.402209,
              13.483352
            ],
            [
              104.403119,
              13.484768
            ],
            [
              104.402927,
              13.48802
            ],
            [
              104.404226,
              13.48922
            ],
            [
              104.403013,
              13.490022
            ],
            [
              104.404645,
              13.496216
            ],
            [
              104.406703,
              13.497456
            ],
            [
              104.408131,
              13.501151
            ],
            [
              104.414592,
              13.50416
            ],
            [
              104.414574,
              13.506054
            ],
            [
              104.416998,
              13.507196
            ],
            [
              104.417449,
              13.50879
            ],
            [
              104.41898,
              13.509773
            ],
            [
              104.419819,
              13.511401
            ],
            [
              104.422465,
              13.512141
            ],
            [
              104.426363,
              13.515183
            ],
            [
              104.427024,
              13.520278
            ],
            [
              104.428396,
              13.523212
            ],
            [
              104.42961,
              13.528855
            ],
            [
              104.43322,
              13.529421
            ],
            [
              104.434623,
              13.53092
            ],
            [
              104.437493,
              13.531717
            ],
            [
              104.438725,
              13.531105
            ],
            [
              104.442007,
              13.532084
            ],
            [
              104.444713,
              13.533156
            ],
            [
              104.445152,
              13.53452
            ],
            [
              104.448224,
              13.536039
            ],
            [
              104.448547,
              13.538184
            ],
            [
              104.451081,
              13.540519
            ],
            [
              104.45295,
              13.544622
            ],
            [
              104.455049,
              13.546694
            ],
            [
              104.45645,
              13.551649
            ],
            [
              104.457487,
              13.552933
            ],
            [
              104.447573,
              13.5538
            ],
            [
              104.435716,
              13.553597
            ],
            [
              104.410163,
              13.55578
            ],
            [
              104.4078,
              13.559864
            ],
            [
              104.407223,
              13.564228
            ],
            [
              104.410619,
              13.566208
            ],
            [
              104.411306,
              13.568821
            ],
            [
              104.409322,
              13.572554
            ],
            [
              104.407781,
              13.573386
            ],
            [
              104.406231,
              13.576045
            ],
            [
              104.405818,
              13.578257
            ],
            [
              104.406727,
              13.580351
            ],
            [
              104.40562,
              13.581489
            ],
            [
              104.406105,
              13.58306
            ],
            [
              104.404284,
              13.584915
            ],
            [
              104.402125,
              13.591604
            ],
            [
              104.402888,
              13.59329
            ],
            [
              104.402197,
              13.597845
            ],
            [
              104.405691,
              13.601357
            ],
            [
              104.405519,
              13.603452
            ],
            [
              104.409688,
              13.607406
            ],
            [
              104.417906,
              13.609125
            ],
            [
              104.419927,
              13.611082
            ],
            [
              104.421856,
              13.611632
            ],
            [
              104.422309,
              13.612593
            ],
            [
              104.424404,
              13.613618
            ],
            [
              104.425291,
              13.616827
            ],
            [
              104.424201,
              13.618241
            ],
            [
              104.424368,
              13.619596
            ],
            [
              104.426126,
              13.623495
            ],
            [
              104.426502,
              13.626106
            ],
            [
              104.425235,
              13.630133
            ],
            [
              104.426666,
              13.633072
            ],
            [
              104.428689,
              13.634332
            ],
            [
              104.429214,
              13.636064
            ],
            [
              104.428694,
              13.638307
            ],
            [
              104.430991,
              13.640149
            ],
            [
              104.434394,
              13.648538
            ],
            [
              104.440375,
              13.654151
            ],
            [
              104.44046,
              13.66885
            ],
            [
              104.431847,
              13.674618
            ],
            [
              104.429584,
              13.677155
            ],
            [
              104.428199,
              13.680097
            ],
            [
              104.427624,
              13.683589
            ],
            [
              104.427962,
              13.687762
            ],
            [
              104.432202,
              13.699404
            ],
            [
              104.431533,
              13.701283
            ],
            [
              104.429961,
              13.702551
            ],
            [
              104.428073,
              13.711941
            ],
            [
              104.428363,
              13.721052
            ],
            [
              104.424151,
              13.727576
            ],
            [
              104.423387,
              13.731634
            ],
            [
              104.421778,
              13.734015
            ],
            [
              104.41521,
              13.738419
            ],
            [
              104.411945,
              13.741524
            ],
            [
              104.408072,
              13.751445
            ],
            [
              104.411283,
              13.756119
            ],
            [
              104.413113,
              13.757608
            ],
            [
              104.414835,
              13.761352
            ],
            [
              104.414956,
              13.765629
            ],
            [
              104.414125,
              13.767513
            ],
            [
              104.411997,
              13.769519
            ],
            [
              104.403529,
              13.772546
            ],
            [
              104.400267,
              13.77462
            ],
            [
              104.394137,
              13.780679
            ],
            [
              104.392235,
              13.78633
            ],
            [
              104.391737,
              13.794694
            ],
            [
              104.389372,
              13.797766
            ],
            [
              104.388301,
              13.802594
            ],
            [
              104.383709,
              13.809432
            ],
            [
              104.381647,
              13.809965
            ],
            [
              104.375047,
              13.808272
            ],
            [
              104.373377,
              13.809205
            ],
            [
              104.368181,
              13.807495
            ],
            [
              104.363546,
              13.807065
            ],
            [
              104.36115,
              13.807752
            ],
            [
              104.359704,
              13.80922
            ],
            [
              104.358,
              13.814402
            ],
            [
              104.359634,
              13.817328
            ],
            [
              104.365437,
              13.822563
            ],
            [
              104.367082,
              13.824994
            ],
            [
              104.368558,
              13.829229
            ],
            [
              104.367738,
              13.83602
            ],
            [
              104.368334,
              13.838451
            ],
            [
              104.370342,
              13.839346
            ],
            [
              104.376966,
              13.837249
            ],
            [
              104.378662,
              13.837883
            ],
            [
              104.381707,
              13.843683
            ],
            [
              104.382054,
              13.846156
            ],
            [
              104.381351,
              13.849228
            ],
            [
              104.382514,
              13.852167
            ],
            [
              104.389347,
              13.854014
            ],
            [
              104.390083,
              13.855964
            ],
            [
              104.389645,
              13.85766
            ],
            [
              104.390132,
              13.859664
            ],
            [
              104.396441,
              13.863964
            ],
            [
              104.39438,
              13.866052
            ],
            [
              104.389958,
              13.868299
            ],
            [
              104.389871,
              13.869035
            ],
            [
              104.391836,
              13.876862
            ],
            [
              104.397582,
              13.889756
            ],
            [
              104.40023,
              13.892737
            ],
            [
              104.415791,
              13.89018
            ],
            [
              104.417681,
              13.891659
            ],
            [
              104.418067,
              13.8929
            ],
            [
              104.416589,
              13.896371
            ],
            [
              104.407858,
              13.90317
            ],
            [
              104.406881,
              13.905823
            ],
            [
              104.407497,
              13.90898
            ],
            [
              104.409148,
              13.911157
            ],
            [
              104.421732,
              13.919896
            ],
            [
              104.426293,
              13.935933
            ],
            [
              104.425053,
              13.938776
            ],
            [
              104.422016,
              13.939011
            ],
            [
              104.420754,
              13.938431
            ],
            [
              104.419526,
              13.935977
            ],
            [
              104.417085,
              13.934665
            ],
            [
              104.415223,
              13.935116
            ],
            [
              104.414483,
              13.936742
            ],
            [
              104.414885,
              13.938827
            ],
            [
              104.41352,
              13.940708
            ],
            [
              104.413428,
              13.943473
            ],
            [
              104.408202,
              13.949702
            ],
            [
              104.407697,
              13.952273
            ],
            [
              104.404175,
              13.953819
            ],
            [
              104.401983,
              13.953925
            ],
            [
              104.392796,
              13.961608
            ],
            [
              104.3909,
              13.962438
            ],
            [
              104.386903,
              13.96115
            ],
            [
              104.384664,
              13.962028
            ],
            [
              104.380432,
              13.960486
            ],
            [
              104.37494,
              13.961249
            ],
            [
              104.369871,
              13.959904
            ],
            [
              104.367055,
              13.962027
            ],
            [
              104.359656,
              13.964819
            ],
            [
              104.355045,
              13.961469
            ],
            [
              104.351612,
              13.957494
            ],
            [
              104.349441,
              13.953679
            ],
            [
              104.34759,
              13.953404
            ],
            [
              104.34349,
              13.954593
            ],
            [
              104.33966,
              13.956692
            ],
            [
              104.333898,
              13.958124
            ],
            [
              104.318033,
              13.956563
            ],
            [
              104.311408,
              13.954859
            ],
            [
              104.308734,
              13.95592
            ],
            [
              104.304349,
              13.955346
            ],
            [
              104.297962,
              13.958298
            ],
            [
              104.29372,
              13.958829
            ],
            [
              104.291387,
              13.960351
            ],
            [
              104.28376,
              13.958348
            ],
            [
              104.281875,
              13.959051
            ],
            [
              104.280661,
              13.958579
            ],
            [
              104.275922,
              13.955791
            ],
            [
              104.273445,
              13.952621
            ],
            [
              104.272656,
              13.95246
            ],
            [
              104.267519,
              13.95699
            ],
            [
              104.264113,
              13.958213
            ],
            [
              104.261614,
              13.958167
            ],
            [
              104.253811,
              13.954561
            ],
            [
              104.250322,
              13.951414
            ],
            [
              104.245632,
              13.948889
            ],
            [
              104.24277,
              13.946348
            ],
            [
              104.242205,
              13.944785
            ],
            [
              104.239885,
              13.942417
            ],
            [
              104.227731,
              13.937262
            ],
            [
              104.226566,
              13.934377
            ],
            [
              104.224787,
              13.933308
            ],
            [
              104.221584,
              13.932949
            ],
            [
              104.21731,
              13.928155
            ],
            [
              104.21486,
              13.928085
            ],
            [
              104.209819,
              13.930817
            ],
            [
              104.195816,
              13.9325
            ],
            [
              104.187324,
              13.937114
            ],
            [
              104.185225,
              13.942664
            ],
            [
              104.177486,
              13.948588
            ],
            [
              104.174693,
              13.951586
            ],
            [
              104.167048,
              13.955028
            ],
            [
              104.158107,
              13.957412
            ],
            [
              104.153867,
              13.957604
            ],
            [
              104.147753,
              13.959599
            ],
            [
              104.133255,
              13.958404
            ],
            [
              104.12043,
              13.956312
            ],
            [
              104.110859,
              13.952826
            ],
            [
              104.109895,
              13.936839
            ],
            [
              104.111006,
              13.912559
            ],
            [
              104.110031,
              13.908798
            ],
            [
              104.105771,
              13.905702
            ],
            [
              104.099876,
              13.898258
            ],
            [
              104.097818,
              13.894163
            ],
            [
              104.09708,
              13.889817
            ],
            [
              104.098009,
              13.874526
            ],
            [
              104.099224,
              13.870355
            ],
            [
              104.106506,
              13.860829
            ],
            [
              104.107521,
              13.857899
            ],
            [
              104.10767,
              13.845414
            ],
            [
              104.1056,
              13.84187
            ],
            [
              104.102977,
              13.839144
            ],
            [
              104.102896,
              13.836672
            ],
            [
              104.109632,
              13.813154
            ],
            [
              104.111891,
              13.795773
            ],
            [
              104.115366,
              13.789936
            ],
            [
              104.115603,
              13.788166
            ],
            [
              104.089247,
              13.777116
            ],
            [
              104.080894,
              13.772912
            ],
            [
              104.078077,
              13.770232
            ],
            [
              104.08091,
              13.764273
            ],
            [
              104.080623,
              13.761945
            ],
            [
              104.081906,
              13.760491
            ],
            [
              104.083643,
              13.755029
            ],
            [
              104.085328,
              13.752275
            ],
            [
              104.087227,
              13.751535
            ],
            [
              104.098128,
              13.751477
            ],
            [
              104.099991,
              13.751175
            ],
            [
              104.10109,
              13.749947
            ],
            [
              104.105359,
              13.740423
            ],
            [
              104.110345,
              13.734778
            ],
            [
              104.111696,
              13.732314
            ],
            [
              104.112946,
              13.728181
            ],
            [
              104.112938,
              13.723145
            ],
            [
              104.111463,
              13.710731
            ],
            [
              104.10901,
              13.703316
            ],
            [
              104.101823,
              13.692621
            ],
            [
              104.092564,
              13.681164
            ],
            [
              104.090113,
              13.675705
            ],
            [
              104.090116,
              13.653138
            ],
            [
              104.090694,
              13.649599
            ],
            [
              104.0987,
              13.641334
            ],
            [
              104.103199,
              13.632413
            ],
            [
              104.102639,
              13.621513
            ],
            [
              104.100957,
              13.610933
            ],
            [
              104.099674,
              13.607661
            ],
            [
              104.097644,
              13.605154
            ],
            [
              104.093839,
              13.602824
            ],
            [
              104.08287,
              13.6021
            ],
            [
              104.079983,
              13.601114
            ],
            [
              104.078585,
              13.597266
            ],
            [
              104.077551,
              13.583687
            ],
            [
              104.075635,
              13.571136
            ],
            [
              104.075383,
              13.569911
            ]
          ]
        ]
      }
    }
  ]
}
