{
  "type": "FeatureCollection",
  "features": [
    {
      "type": "Feature",
      "properties": {
        "geo_id": "geo_kh_0027",
        "name": "Phnom Penh",
        "boundary_level": "capital",
        "osm_type": "relation",
        "osm_id": 2199033,
        "source_checked_at": "2026-10-01"
      },
      "geometry": {
        "type": "Polygon",
        "coordinates": [
          [
            [
              104.720405,
              11.565597
            ],
            [
              104.720918,
              11.564746
            ],
            [
              104.722881,
              11.564925
            ],
            [
              104.723375,
              11.564231
            ],
            [
              104.721669,
              11.56278
            ],
            [
              104.721283,
              11.560825
            ],
            [
              104.723016,
              11.559528
            ],
            [
              104.722967,
              11.555202
            ],
            [
              104.72543,
              11.550522
            ],
            [
              104.72272,
              11.547054
            ],
            [
              104.721937,
              11.54325
            ],
            [
              104.723911,
              11.542493
            ],
            [
              104.726701,
              11.54407
            ],
            [
              104.72925,
              11.5442
            ],
            [
              104.731417,
              11.543302
            ],
            [
              104.734179,
              11.546015
            ],
            [
              104.740101,
              11.546514
            ],
            [
              104.741818,
              11.549042
            ],
            [
              104.743159,
              11.54797
            ],
            [
              104.745015,
              11.547686
            ],
            [
              104.747912,
              11.548474
            ],
            [
              104.74965,
              11.547549
            ],
            [
              104.749457,
              11.544028
            ],
            [
              104.74848,
              11.543818
            ],
            [
              104.748461,
              11.54249
            ],
            [
              104.747407,
              11.541989
            ],
            [
              104.746442,
              11.538709
            ],
            [
              104.745701,
              11.538583
            ],
            [
              104.745981,
              11.535103
            ],
            [
              104.74483,
              11.533686
            ],
            [
              104.745359,
              11.529393
            ],
            [
              104.746163,
              11.527976
            ],
            [
              104.751069,
              11.528305
            ],
            [
              104.751034,
              11.526714
            ],
            [
              104.752332,
              11.526399
            ],
            [
              104.753879,
              11.527255
            ],
            [
              104.755231,
              11.526408
            ],
            [
              104.759919,
              11.527073
            ],
            [
              104.759949,
              11.524318
            ],
            [
              104.761548,
              11.523214
            ],
            [
              104.76305,
              11.52335
            ],
            [
              104.763422,
              11.522634
            ],
            [
              104.762953,
              11.520964
            ],
            [
              104.76373,
              11.515632
            ],
            [
              104.76697,
              11.511584
            ],
            [
              104.766108,
              11.510241
            ],
            [
              104.766344,
              11.508874
            ],
            [
              104.767763,
              11.50747
            ],
            [
              104.767241,
              11.503986
            ],
            [
              104.764348,
              11.50371
            ],
            [
              104.764173,
              11.499906
            ],
            [
              104.765729,
              11.498925
            ],
            [
              104.763065,
              11.496034
            ],
            [
              104.762215,
              11.491233
            ],
            [
              104.758892,
              11.491469
            ],
            [
              104.758502,
              11.488973
            ],
            [
              104.749882,
              11.489135
            ],
            [
              104.7496,
              11.486406
            ],
            [
              104.748512,
              11.48639
            ],
            [
              104.748341,
              11.48448
            ],
            [
              104.746305,
              11.483748
            ],
            [
              104.746227,
              11.478926
            ],
            [
              104.744868,
              11.477996
            ],
            [
              104.744318,
              11.454864
            ],
            [
              104.747907,
              11.455011
            ],
            [
              104.751634,
              11.456588
            ],
            [
              104.753812,
              11.456624
            ],
            [
              104.754388,
              11.451885
            ],
            [
              104.755159,
              11.451166
            ],
            [
              104.759384,
              11.450547
            ],
            [
              104.760253,
              11.451394
            ],
            [
              104.76024,
              11.452619
            ],
            [
              104.755744,
              11.456513
            ],
            [
              104.755641,
              11.457848
            ],
            [
              104.75688,
              11.45891
            ],
            [
              104.758327,
              11.458955
            ],
            [
              104.760309,
              11.457266
            ],
            [
              104.764097,
              11.457534
            ],
            [
              104.765507,
              11.459606
            ],
            [
              104.763616,
              11.46273
            ],
            [
              104.764354,
              11.463543
            ],
            [
              104.765718,
              11.463847
            ],
            [
              104.769186,
              11.461959
            ],
            [
              104.771381,
              11.461873
            ],
            [
              104.777333,
              11.466955
            ],
            [
              104.778452,
              11.466332
            ],
            [
              104.778826,
              11.464517
            ],
            [
              104.775779,
              11.463485
            ],
            [
              104.774684,
              11.462153
            ],
            [
              104.774252,
              11.457738
            ],
            [
              104.777815,
              11.457801
            ],
            [
              104.779671,
              11.455798
            ],
            [
              104.78354,
              11.45609
            ],
            [
              104.784514,
              11.455446
            ],
            [
              104.785145,
              11.454287
            ],
            [
              104.782268,
              11.450276
            ],
            [
              104.78231,
              11.449254
            ],
            [
              104.783614,
              11.447581
            ],
            [
              104.786361,
              11.447007
            ],
            [
              104.787803,
              11.444982
            ],
            [
              104.788668,
              11.444967
            ],
            [
              104.790947,
              11.447613
            ],
            [
              104.792332,
              11.446477
            ],
            [
              104.792271,
              11.444921
            ],
            [
              104.793162,
              11.44349
            ],
            [
              104.794907,
              11.443502
            ],
            [
              104.797117,
              11.444909
            ],
            [
              104.799354,
              11.444831
            ],
            [
              104.799119,
              11.443049
            ],
            [
              104.797686,
              11.441901
            ],
            [
              104.797584,
              11.440294
            ],
            [
              104.800986,
              11.436323
            ],
            [
              104.801513,
              11.434153
            ],
            [
              104.804839,
              11.431593
            ],
            [
              104.810619,
              11.430005
            ],
            [
              104.816016,
              11.430809
            ],
            [
              104.81799,
              11.432403
            ],
            [
              104.819241,
              11.436707
            ],
            [
              104.822175,
              11.435415
            ],
            [
              104.822104,
              11.432645
            ],
            [
              104.828352,
              11.432366
            ],
            [
              104.829724,
              11.427819
            ],
            [
              104.843973,
              11.427817
            ],
            [
              104.844954,
              11.428984
            ],
            [
              104.846527,
              11.427889
            ],
            [
              104.868091,
              11.427927
            ],
            [
              104.868149,
              11.420085
            ],
            [
              104.872311,
              11.42009
            ],
            [
              104.88056,
              11.436238
            ],
            [
              104.882766,
              11.435892
            ],
            [
              104.885167,
              11.434264
            ],
            [
              104.887247,
              11.4305
            ],
            [
              104.88861,
              11.430203
            ],
            [
              104.896579,
              11.435485
            ],
            [
              104.901447,
              11.434986
            ],
            [
              104.905685,
              11.435727
            ],
            [
              104.907922,
              11.43535
            ],
            [
              104.912083,
              11.433104
            ],
            [
              104.913086,
              11.432393
            ],
            [
              104.912564,
              11.431094
            ],
            [
              104.913521,
              11.430257
            ],
            [
              104.9167,
              11.430031
            ],
            [
              104.917576,
              11.428889
            ],
            [
              104.923035,
              11.429022
            ],
            [
              104.923054,
              11.448804
            ],
            [
              104.921951,
              11.451749
            ],
            [
              104.923473,
              11.452842
            ],
            [
              104.919039,
              11.466472
            ],
            [
              104.919406,
              11.475556
            ],
            [
              104.921373,
              11.484444
            ],
            [
              104.945926,
              11.494509
            ],
            [
              104.953203,
              11.479883
            ],
            [
              104.961942,
              11.466952
            ],
            [
              104.966998,
              11.464039
            ],
            [
              104.975742,
              11.462392
            ],
            [
              104.98735,
              11.46298
            ],
            [
              104.994308,
              11.464714
            ],
            [
              105.003446,
              11.465824
            ],
            [
              105.015253,
              11.466175
            ],
            [
              105.023998,
              11.501691
            ],
            [
              105.028859,
              11.516523
            ],
            [
              105.037376,
              11.524863
            ],
            [
              105.031012,
              11.525971
            ],
            [
              105.025746,
              11.527832
            ],
            [
              105.013409,
              11.540098
            ],
            [
              105.011277,
              11.541435
            ],
            [
              105.0037,
              11.543602
            ],
            [
              104.994342,
              11.543124
            ],
            [
              104.979515,
              11.544974
            ],
            [
              104.96757,
              11.548929
            ],
            [
              104.964802,
              11.551292
            ],
            [
              104.955485,
              11.555595
            ],
            [
              104.946711,
              11.561886
            ],
            [
              104.943753,
              11.586732
            ],
            [
              104.932824,
              11.6208
            ],
            [
              104.933695,
              11.622135
            ],
            [
              104.932579,
              11.626435
            ],
            [
              104.937557,
              11.642352
            ],
            [
              104.945941,
              11.654335
            ],
            [
              104.947246,
              11.655165
            ],
            [
              104.951728,
              11.668695
            ],
            [
              104.963881,
              11.693514
            ],
            [
              104.967215,
              11.705432
            ],
            [
              104.967964,
              11.7146
            ],
            [
              104.967335,
              11.716072
            ],
            [
              104.963101,
              11.718838
            ],
            [
              104.951561,
              11.728666
            ],
            [
              104.947214,
              11.730826
            ],
            [
              104.945325,
              11.733515
            ],
            [
              104.93945,
              11.734906
            ],
            [
              104.935193,
              11.734952
            ],
            [
              104.926078,
              11.727486
            ],
            [
              104.921297,
              11.724897
            ],
            [
              104.91704,
              11.723767
            ],
            [
              104.916554,
              11.717791
            ],
            [
              104.911461,
              11.710001
            ],
            [
              104.908855,
              11.699344
            ],
            [
              104.905725,
              11.6952
            ],
            [
              104.895915,
              11.701019
            ],
            [
              104.88071,
              11.696181
            ],
            [
              104.878065,
              11.696502
            ],
            [
              104.878251,
              11.704345
            ],
            [
              104.869397,
              11.707275
            ],
            [
              104.864165,
              11.69229
            ],
            [
              104.866191,
              11.670526
            ],
            [
              104.868196,
              11.670352
            ],
            [
              104.866466,
              11.669007
            ],
            [
              104.867064,
              11.667127
            ],
            [
              104.862427,
              11.667028
            ],
            [
              104.851748,
              11.68368
            ],
            [
              104.842551,
              11.704895
            ],
            [
              104.840888,
              11.712948
            ],
            [
              104.838452,
              11.713427
            ],
            [
              104.835598,
              11.711199
            ],
            [
              104.83471,
              11.711288
            ],
            [
              104.833639,
              11.712107
            ],
            [
              104.832916,
              11.714498
            ],
            [
              104.831243,
              11.715339
            ],
            [
              104.830092,
              11.717912
            ],
            [
              104.828727,
              11.718177
            ],
            [
              104.826418,
              11.717996
            ],
            [
              104.821341,
              11.713517
            ],
            [
              104.823292,
              11.711876
            ],
            [
              104.824193,
              11.708703
            ],
            [
              104.82315,
              11.707893
            ],
            [
              104.822102,
              11.708828
            ],
            [
              104.818208,
              11.708442
            ],
            [
              104.815282,
              11.703799
            ],
            [
              104.815877,
              11.699622
            ],
            [
              104.814551,
              11.691389
            ],
            [
              104.817087,
              11.689316
            ],
            [
              104.816958,
              11.688304
            ],
            [
              104.811201,
              11.681502
            ],
            [
              104.809937,
              11.678547
            ],
            [
              104.811222,
              11.675636
            ],
            [
              104.81369,
              11.673924
            ],
            [
              104.812059,
              11.673209
            ],
            [
              104.800534,
              11.672612
            ],
            [
              104.797049,
              11.671512
            ],
            [
              104.794244,
              11.672401
            ],
            [
              104.780216,
              11.671339
            ],
            [
              104.780056,
              11.669129
            ],
            [
              104.752693,
              11.666045
            ],
            [
              104.747028,
              11.658962
            ],
            [
              104.747807,
              11.651965
            ],
            [
              104.744157,
              11.645521
            ],
            [
              104.744626,
              11.634991
            ],
            [
              104.741834,
              11.629448
            ],
            [
              104.739245,
              11.619517
            ],
            [
              104.73443,
              11.606805
            ],
            [
              104.734645,
              11.60302
            ],
            [
              104.735726,
              11.600331
            ],
            [
              104.731592,
              11.591899
            ],
            [
              104.731558,
              11.590304
            ],
            [
              104.732833,
              11.586446
            ],
            [
              104.735452,
              11.582498
            ],
            [
              104.733031,
              11.581736
            ],
            [
              104.733247,
              11.579426
            ],
            [
              104.729356,
              11.577103
            ],
            [
              104.728726,
              11.575685
            ],
            [
              104.727998,
              11.576405
            ],
            [
              104.726527,
              11.576332
            ],
            [
              104.726602,
              11.573869
            ],
            [
              104.723884,
              11.573869
            ],
            [
              104.723858,
              11.572061
            ],
            [
              104.723042,
              11.571736
            ],
            [
              104.722742,
              11.56727
            ],
            [
              104.720996,
              11.567751
            ],
            [
              104.720463,
              11.566189
            ],
            [
              104.720405,
              11.565597
            ]
          ]
        ]
      }
    }
  ]
}
