{
  "type": "FeatureCollection",
  "features": [
    {
      "type": "Feature",
      "properties": {
        "geo_id": "geo_kh_0032",
        "name": "Thma Puok",
        "boundary_level": "district",
        "osm_type": "relation",
        "osm_id": 18374867,
        "source_checked_at": "2026-10-01"
      },
      "geometry": {
        "type": "Polygon",
        "coordinates": [
          [
            [
              102.78291,
              13.932816
            ],
            [
              102.925923,
              13.932566
            ],
            [
              102.938125,
              13.931244
            ],
            [
              102.944497,
              13.928623
            ],
            [
              102.956651,
              13.928745
            ],
            [
              102.960526,
              13.92351
            ],
            [
              102.961313,
              13.92364
            ],
            [
              102.963876,
              13.920596
            ],
            [
              102.964972,
              13.92048
            ],
            [
              102.965153,
              13.919841
            ],
            [
              102.964107,
              13.919208
            ],
            [
              102.964339,
              13.917695
            ],
            [
              102.967602,
              13.911681
            ],
            [
              102.96786,
              13.909313
            ],
            [
              102.969491,
              13.908525
            ],
            [
              102.969355,
              13.907221
            ],
            [
              102.970519,
              13.904775
            ],
            [
              102.9701,
              13.897751
            ],
            [
              102.971794,
              13.897514
            ],
            [
              102.972931,
              13.895995
            ],
            [
              102.972542,
              13.895364
            ],
            [
              102.971573,
              13.895712
            ],
            [
              102.971438,
              13.894392
            ],
            [
              102.972837,
              13.892996
            ],
            [
              102.973697,
              13.890526
            ],
            [
              102.974744,
              13.889769
            ],
            [
              102.976435,
              13.890317
            ],
            [
              102.981533,
              13.880897
            ],
            [
              102.986479,
              13.882336
            ],
            [
              102.996323,
              13.879629
            ],
            [
              102.998357,
              13.881178
            ],
            [
              102.998789,
              13.883836
            ],
            [
              103.004276,
              13.884872
            ],
            [
              103.007852,
              13.883336
            ],
            [
              103.012005,
              13.882781
            ],
            [
              103.014015,
              13.875974
            ],
            [
              103.019459,
              13.871194
            ],
            [
              103.023872,
              13.869396
            ],
            [
              103.026941,
              13.866632
            ],
            [
              103.033255,
              13.86325
            ],
            [
              103.048169,
              13.858881
            ],
            [
              103.049787,
              13.857246
            ],
            [
              103.051103,
              13.851101
            ],
            [
              103.051772,
              13.823914
            ],
            [
              103.05323,
              13.81919
            ],
            [
              103.057609,
              13.818161
            ],
            [
              103.059654,
              13.816828
            ],
            [
              103.065336,
              13.824605
            ],
            [
              103.068805,
              13.823938
            ],
            [
              103.071327,
              13.822138
            ],
            [
              103.07698,
              13.821274
            ],
            [
              103.079378,
              13.819154
            ],
            [
              103.079444,
              13.821646
            ],
            [
              103.080907,
              13.822632
            ],
            [
              103.084862,
              13.822501
            ],
            [
              103.08784,
              13.83397
            ],
            [
              103.087872,
              13.84
            ],
            [
              103.088518,
              13.84131
            ],
            [
              103.094009,
              13.837794
            ],
            [
              103.099192,
              13.837592
            ],
            [
              103.099989,
              13.838808
            ],
            [
              103.102076,
              13.848721
            ],
            [
              103.106729,
              13.844368
            ],
            [
              103.111059,
              13.842389
            ],
            [
              103.114133,
              13.841816
            ],
            [
              103.126319,
              13.851515
            ],
            [
              103.133978,
              13.845119
            ],
            [
              103.137518,
              13.843886
            ],
            [
              103.147031,
              13.843948
            ],
            [
              103.149688,
              13.84459
            ],
            [
              103.151084,
              13.845784
            ],
            [
              103.152662,
              13.849247
            ],
            [
              103.156986,
              13.852387
            ],
            [
              103.166675,
              13.856374
            ],
            [
              103.185895,
              13.860777
            ],
            [
              103.198896,
              13.861889
            ],
            [
              103.207948,
              13.863727
            ],
            [
              103.218793,
              13.863933
            ],
            [
              103.221581,
              13.863321
            ],
            [
              103.219337,
              13.867164
            ],
            [
              103.213692,
              13.885965
            ],
            [
              103.204337,
              13.929336
            ],
            [
              103.203556,
              13.938419
            ],
            [
              103.198133,
              13.949768
            ],
            [
              103.191878,
              13.960701
            ],
            [
              103.171148,
              13.993678
            ],
            [
              103.170391,
              13.996979
            ],
            [
              103.170839,
              13.999868
            ],
            [
              103.172194,
              14.001734
            ],
            [
              103.177097,
              14.002829
            ],
            [
              103.186554,
              14.01051
            ],
            [
              103.188916,
              14.016407
            ],
            [
              103.193538,
              14.024237
            ],
            [
              103.193763,
              14.028856
            ],
            [
              103.195554,
              14.03532
            ],
            [
              103.195615,
              14.039007
            ],
            [
              103.19397,
              14.042581
            ],
            [
              103.187168,
              14.049378
            ],
            [
              103.185901,
              14.052877
            ],
            [
              103.186275,
              14.054088
            ],
            [
              103.189912,
              14.057771
            ],
            [
              103.196506,
              14.062203
            ],
            [
              103.19959,
              14.066856
            ],
            [
              103.201444,
              14.078787
            ],
            [
              103.199963,
              14.08242
            ],
            [
              103.200158,
              14.083801
            ],
            [
              103.203789,
              14.088048
            ],
            [
              103.205524,
              14.091478
            ],
            [
              103.208969,
              14.103233
            ],
            [
              103.2105,
              14.106054
            ],
            [
              103.210618,
              14.109844
            ],
            [
              103.209549,
              14.110739
            ],
            [
              103.208761,
              14.110423
            ],
            [
              103.204977,
              14.108402
            ],
            [
              103.204088,
              14.10723
            ],
            [
              103.196949,
              14.108478
            ],
            [
              103.195956,
              14.109763
            ],
            [
              103.194853,
              14.108517
            ],
            [
              103.185381,
              14.105471
            ],
            [
              103.182216,
              14.106544
            ],
            [
              103.175927,
              14.106474
            ],
            [
              103.173014,
              14.108666
            ],
            [
              103.169809,
              14.109522
            ],
            [
              103.168899,
              14.110793
            ],
            [
              103.164259,
              14.1122
            ],
            [
              103.16052,
              14.111496
            ],
            [
              103.158569,
              14.108306
            ],
            [
              103.157483,
              14.107735
            ],
            [
              103.15275,
              14.111564
            ],
            [
              103.150965,
              14.111743
            ],
            [
              103.146702,
              14.110488
            ],
            [
              103.144439,
              14.110877
            ],
            [
              103.143871,
              14.109
            ],
            [
              103.142125,
              14.108345
            ],
            [
              103.134777,
              14.110408
            ],
            [
              103.134501,
              14.111473
            ],
            [
              103.132609,
              14.112143
            ],
            [
              103.130517,
              14.112029
            ],
            [
              103.130417,
              14.11138
            ],
            [
              103.124755,
              14.109191
            ],
            [
              103.12069,
              14.111779
            ],
            [
              103.118277,
              14.114704
            ],
            [
              103.112894,
              14.115963
            ],
            [
              103.110346,
              14.115762
            ],
            [
              103.109356,
              14.119656
            ],
            [
              103.108148,
              14.120612
            ],
            [
              103.105289,
              14.121217
            ],
            [
              103.104686,
              14.123085
            ],
            [
              103.100289,
              14.125305
            ],
            [
              103.098474,
              14.129528
            ],
            [
              103.094863,
              14.13115
            ],
            [
              103.09388,
              14.13232
            ],
            [
              103.091544,
              14.132463
            ],
            [
              103.091013,
              14.134152
            ],
            [
              103.086257,
              14.137118
            ],
            [
              103.086153,
              14.139638
            ],
            [
              103.084189,
              14.13937
            ],
            [
              103.082282,
              14.140555
            ],
            [
              103.081357,
              14.14367
            ],
            [
              103.081571,
              14.146166
            ],
            [
              103.079725,
              14.149809
            ],
            [
              103.080811,
              14.151668
            ],
            [
              103.079065,
              14.15491
            ],
            [
              103.079307,
              14.156613
            ],
            [
              103.076751,
              14.158978
            ],
            [
              103.075775,
              14.163877
            ],
            [
              103.03187,
              14.250228
            ],
            [
              103.031638,
              14.247121
            ],
            [
              103.03317,
              14.239051
            ],
            [
              103.031971,
              14.237511
            ],
            [
              103.027381,
              14.234806
            ],
            [
              103.022078,
              14.228506
            ],
            [
              103.021148,
              14.228378
            ],
            [
              103.019154,
              14.23035
            ],
            [
              103.017091,
              14.231231
            ],
            [
              103.013276,
              14.230824
            ],
            [
              103.009788,
              14.224181
            ],
            [
              103.004281,
              14.220464
            ],
            [
              102.999274,
              14.214164
            ],
            [
              102.997202,
              14.213519
            ],
            [
              102.992375,
              14.213961
            ],
            [
              102.989554,
              14.213139
            ],
            [
              102.986104,
              14.214887
            ],
            [
              102.979407,
              14.212528
            ],
            [
              102.977707,
              14.213172
            ],
            [
              102.976496,
              14.212819
            ],
            [
              102.971577,
              14.210482
            ],
            [
              102.968385,
              14.21052
            ],
            [
              102.964688,
              14.212254
            ],
            [
              102.962451,
              14.212217
            ],
            [
              102.959826,
              14.210215
            ],
            [
              102.953974,
              14.208307
            ],
            [
              102.951739,
              14.206146
            ],
            [
              102.951864,
              14.205091
            ],
            [
              102.956778,
              14.198854
            ],
            [
              102.956917,
              14.19751
            ],
            [
              102.956168,
              14.196737
            ],
            [
              102.951262,
              14.196006
            ],
            [
              102.944711,
              14.198503
            ],
            [
              102.938482,
              14.194848
            ],
            [
              102.938406,
              14.193929
            ],
            [
              102.940559,
              14.190509
            ],
            [
              102.940811,
              14.186195
            ],
            [
              102.937946,
              14.183045
            ],
            [
              102.936476,
              14.180081
            ],
            [
              102.930318,
              14.17566
            ],
            [
              102.932827,
              14.173655
            ],
            [
              102.937356,
              14.165107
            ],
            [
              102.937181,
              14.161214
            ],
            [
              102.939049,
              14.15815
            ],
            [
              102.940982,
              14.152294
            ],
            [
              102.940407,
              14.148399
            ],
            [
              102.936303,
              14.142129
            ],
            [
              102.934004,
              14.140977
            ],
            [
              102.932569,
              14.138856
            ],
            [
              102.930221,
              14.137934
            ],
            [
              102.929948,
              14.136497
            ],
            [
              102.926815,
              14.134871
            ],
            [
              102.924961,
              14.132138
            ],
            [
              102.923569,
              14.127182
            ],
            [
              102.924315,
              14.124678
            ],
            [
              102.923597,
              14.11739
            ],
            [
              102.924333,
              14.115454
            ],
            [
              102.923999,
              14.111245
            ],
            [
              102.924641,
              14.110439
            ],
            [
              102.923165,
              14.105986
            ],
            [
              102.920066,
              14.104763
            ],
            [
              102.920339,
              14.103527
            ],
            [
              102.910959,
              14.095234
            ],
            [
              102.90785,
              14.095593
            ],
            [
              102.906734,
              14.091579
            ],
            [
              102.904235,
              14.090335
            ],
            [
              102.904613,
              14.088432
            ],
            [
              102.900727,
              14.083413
            ],
            [
              102.900963,
              14.076113
            ],
            [
              102.901918,
              14.072204
            ],
            [
              102.901143,
              14.072062
            ],
            [
              102.900847,
              14.070498
            ],
            [
              102.902134,
              14.069749
            ],
            [
              102.90248,
              14.067329
            ],
            [
              102.900734,
              14.066136
            ],
            [
              102.898835,
              14.061462
            ],
            [
              102.899331,
              14.057621
            ],
            [
              102.897666,
              14.054888
            ],
            [
              102.897792,
              14.051836
            ],
            [
              102.898025,
              14.050483
            ],
            [
              102.900348,
              14.0478
            ],
            [
              102.899633,
              14.043777
            ],
            [
              102.903509,
              14.041333
            ],
            [
              102.90392,
              14.037857
            ],
            [
              102.901545,
              14.035718
            ],
            [
              102.904681,
              14.031135
            ],
            [
              102.907068,
              14.029588
            ],
            [
              102.906874,
              14.028749
            ],
            [
              102.908254,
              14.026382
            ],
            [
              102.908299,
              14.021193
            ],
            [
              102.911061,
              14.019902
            ],
            [
              102.911986,
              14.018714
            ],
            [
              102.911348,
              14.017309
            ],
            [
              102.909322,
              14.015964
            ],
            [
              102.907666,
              14.017262
            ],
            [
              102.901359,
              14.015569
            ],
            [
              102.898925,
              14.013488
            ],
            [
              102.89911,
              14.012157
            ],
            [
              102.896334,
              14.010269
            ],
            [
              102.893953,
              14.007372
            ],
            [
              102.885521,
              14.010544
            ],
            [
              102.882353,
              14.009181
            ],
            [
              102.881088,
              14.004823
            ],
            [
              102.87993,
              14.003759
            ],
            [
              102.872698,
              14.003219
            ],
            [
              102.868969,
              14.004974
            ],
            [
              102.863476,
              14.00441
            ],
            [
              102.86265,
              14.001285
            ],
            [
              102.848808,
              13.987809
            ],
            [
              102.815627,
              13.965435
            ],
            [
              102.812601,
              13.956252
            ],
            [
              102.806928,
              13.947338
            ],
            [
              102.803027,
              13.943026
            ],
            [
              102.798325,
              13.942264
            ],
            [
              102.793115,
              13.937717
            ],
            [
              102.78291,
              13.932816
            ]
          ]
        ]
      }
    }
  ]
}
