{
  "type": "FeatureCollection",
  "features": [
    {
      "type": "Feature",
      "properties": {
        "geo_id": "geo_ph_0029",
        "name": "Batanes",
        "psgc": "0200900000",
        "boundary_level": "province",
        "source_psgc": "0200900000"
      },
      "geometry": {
        "type": "MultiPolygon",
        "coordinates": [
          [
            [
              [
                121.80285287400011,
                20.688200545000026
              ],
              [
                121.83902334500009,
                20.70846291900005
              ],
              [
                121.85371311900008,
                20.723667880000054
              ],
              [
                121.85665217100008,
                20.75136337400005
              ],
              [
                121.876226082,
                20.759859551000027
              ],
              [
                121.86785084400003,
                20.781479426000036
              ],
              [
                121.88034716900007,
                20.794038180000026
              ],
              [
                121.88019767400012,
                20.81996234900004
              ],
              [
                121.85979046400007,
                20.836012216000025
              ],
              [
                121.83686854900009,
                20.825403919000053
              ],
              [
                121.82822395500011,
                20.789113772000064
              ],
              [
                121.81520760500008,
                20.76027192200007
              ],
              [
                121.80095918600011,
                20.754521984000068
              ],
              [
                121.78276832400002,
                20.721662759000022
              ],
              [
                121.80285287400011,
                20.688200545000026
              ]
            ]
          ],
          [
            [
              [
                121.91524715200002,
                20.355675892000026
              ],
              [
                121.95030493400009,
                20.348728030000075
              ],
              [
                121.98071256100002,
                20.38329184900004
              ],
              [
                121.9624234910001,
                20.41261390800003
              ],
              [
                121.98629980400007,
                20.43804806300005
              ],
              [
                122.01393450600007,
                20.448070017000077
              ],
              [
                122.03567570900007,
                20.46795041900003
              ],
              [
                122.02785446300004,
                20.481029539000073
              ],
              [
                122.0029536280001,
                20.48946827800006
              ],
              [
                121.97558691100004,
                20.471562048000067
              ],
              [
                121.95695717300009,
                20.46866799100007
              ],
              [
                121.96756219300005,
                20.44671681300002
              ],
              [
                121.94565098900011,
                20.41561325300006
              ],
              [
                121.92732569300004,
                20.40928706400006
              ],
              [
                121.91524715200002,
                20.355675892000026
              ]
            ]
          ],
          [
            [
              [
                121.85854826500008,
                20.26028199000007
              ],
              [
                121.8723958920001,
                20.28412039600005
              ],
              [
                121.88350032300004,
                20.285062047000046
              ],
              [
                121.8889120790001,
                20.31325944400004
              ],
              [
                121.87061830200003,
                20.340815648000046
              ],
              [
                121.84485138900006,
                20.355371437000034
              ],
              [
                121.83795049800004,
                20.324640487000064
              ],
              [
                121.8406808090001,
                20.287724014000048
              ],
              [
                121.85854826500008,
                20.26028199000007
              ]
            ]
          ],
          [
            [
              [
                121.80715731700002,
                20.29992142900004
              ],
              [
                121.8195575970001,
                20.326299685000038
              ],
              [
                121.80001695500006,
                20.33409282200006
              ],
              [
                121.79855419000012,
                20.308395397000027
              ],
              [
                121.80715731700002,
                20.29992142900004
              ]
            ]
          ]
        ]
      }
    }
  ]
}
