{
  "type": "FeatureCollection",
  "features": [
    {
      "type": "Feature",
      "properties": {
        "geo_id": "geo_ph_0002",
        "name": "Cordillera Administrative Region",
        "psgc": "1400000000",
        "boundary_level": "region"
      },
      "geometry": {
        "type": "Polygon",
        "coordinates": [
          [
            [
              120.76896590800004,
              16.19803365700005
            ],
            [
              120.78377370200008,
              16.24674028100003
            ],
            [
              120.80005260900009,
              16.30484574400003
            ],
            [
              120.81311988300003,
              16.303560539000042
            ],
            [
              120.8159265280001,
              16.313149908000067
            ],
            [
              120.82832254100003,
              16.319698745000036
            ],
            [
              120.84552298100004,
              16.31950007800003
            ],
            [
              120.86034722400007,
              16.353388911000025
            ],
            [
              120.86392001700005,
              16.374813353000036
            ],
            [
              120.87115844600008,
              16.384243957000024
            ],
            [
              120.87814482400007,
              16.421579058000077
            ],
            [
              120.88942700000007,
              16.436073000000015
            ],
            [
              120.88320633500008,
              16.505391507000066
            ],
            [
              120.89210972500007,
              16.558460226000022
            ],
            [
              120.90440899500003,
              16.595359904000077
            ],
            [
              120.92950614800007,
              16.60005354400005
            ],
            [
              120.93993746200012,
              16.58508294700005
            ],
            [
              120.94753998600004,
              16.579197121000053
            ],
            [
              120.97311089400011,
              16.569449608000074
            ],
            [
              120.98371653300002,
              16.569470823000074
            ],
            [
              121.02794433300005,
              16.602274068000042
            ],
            [
              121.03570305200004,
              16.610006107000064
            ],
            [
              121.07213162600011,
              16.627830254000056
            ],
            [
              121.10563417500009,
              16.63056137700005
            ],
            [
              121.1354977630001,
              16.644747052000074
            ],
            [
              121.16058286600004,
              16.638689092000053
            ],
            [
              121.16990730400005,
              16.645897642000023
            ],
            [
              121.17669574000001,
              16.640269839000037
            ],
            [
              121.19690026700006,
              16.639026568000073
            ],
            [
              121.21407107300003,
              16.645740106000062
            ],
            [
              121.22163417600008,
              16.644468338000024
            ],
            [
              121.23604050400002,
              16.654163596000043
            ],
            [
              121.25928948300007,
              16.651784470000052
            ],
            [
              121.26038281600006,
              16.65833172900005
            ],
            [
              121.27643328400005,
              16.66852883600006
            ],
            [
              121.2861612820001,
              16.656926525000074
            ],
            [
              121.29482832500004,
              16.66330407800007
            ],
            [
              121.28823650000005,
              16.686236734000026
            ],
            [
              121.29365355700008,
              16.694119219000072
            ],
            [
              121.30436554300002,
              16.693060208000077
            ],
            [
              121.31541259900008,
              16.70130763200007
            ],
            [
              121.31434472400008,
              16.717911633000025
            ],
            [
              121.33036684700006,
              16.735431461000076
            ],
            [
              121.33381496900006,
              16.751936438000026
            ],
            [
              121.32616836500007,
              16.757541116000024
            ],
            [
              121.3317466100001,
              16.76486086100004
            ],
            [
              121.34481509700004,
              16.76764606500006
            ],
            [
              121.33917264000002,
              16.78847038300006
            ],
            [
              121.35409018100007,
              16.78363865300003
            ],
            [
              121.37198409500003,
              16.795425584000043
            ],
            [
              121.38601317000008,
              16.796678027000038
            ],
            [
              121.39459622000005,
              16.805247457000068
            ],
            [
              121.40174811200008,
              16.80487002200005
            ],
            [
              121.41951945100004,
              16.817469334000066
            ],
            [
              121.45826265700008,
              16.82628352600006
            ],
            [
              121.47913536400007,
              16.83597295800007
            ],
            [
              121.50234861600006,
              16.83454340300005
            ],
            [
              121.52132234000011,
              16.838934767000065
            ],
            [
              121.53182811500005,
              16.851337643000022
            ],
            [
              121.53129532000004,
              16.859584077000022
            ],
            [
              121.53872025600005,
              16.87856242800007
            ],
            [
              121.54887157900009,
              16.87368920000006
            ],
            [
              121.5584243310001,
              16.89908660600003
            ],
            [
              121.56822243500005,
              16.909511535000036
            ],
            [
              121.56820633300003,
              16.94795810400007
            ],
            [
              121.56341169200005,
              16.955169948000048
            ],
            [
              121.56071687200006,
              17.009457810000075
            ],
            [
              121.56843673700008,
              17.01852758400003
            ],
            [
              121.57149082100013,
              17.040943460000058
            ],
            [
              121.5689119130001,
              17.072423208000032
            ],
            [
              121.56604146900008,
              17.085724945000038
            ],
            [
              121.56715873800012,
              17.13502168600007
            ],
            [
              121.55990226900009,
              17.144528349000037
            ],
            [
              121.56266511000001,
              17.15295057000003
            ],
            [
              121.56139800500011,
              17.183361080000054
            ],
            [
              121.54913468000008,
              17.196523808000055
            ],
            [
              121.55050134400005,
              17.208536063000054
            ],
            [
              121.54278393400011,
              17.247162222000043
            ],
            [
              121.54497556000001,
              17.26489446200003
            ],
            [
              121.53708962400003,
              17.266305630000037
            ],
            [
              121.53017478800008,
              17.27491921400002
            ],
            [
              121.533217002,
              17.29651893400006
            ],
            [
              121.5387001150001,
              17.317268562000038
            ],
            [
              121.54817131700007,
              17.32374623600003
            ],
            [
              121.55993127700003,
              17.35048310800004
            ],
            [
              121.58219454800007,
              17.353559068000035
            ],
            [
              121.59347822600012,
              17.39691670600007
            ],
            [
              121.60608069200009,
              17.421432186000064
            ],
            [
              121.62909621500013,
              17.418319980000035
            ],
            [
              121.62793480900008,
              17.431389672000016
            ],
            [
              121.63792704800005,
              17.45354382900007
            ],
            [
              121.64480934500011,
              17.480184976000036
            ],
            [
              121.64723067800004,
              17.500483730000045
            ],
            [
              121.63961454200012,
              17.504361036000034
            ],
            [
              121.6259729310001,
              17.528587955000035
            ],
            [
              121.63257510800008,
              17.533221769000015
            ],
            [
              121.61420260300008,
              17.560316989000054
            ],
            [
              121.60304284400002,
              17.56341249800004
            ],
            [
              121.59972009100011,
              17.548195070000077
            ],
            [
              121.57673416200008,
              17.555490541000037
            ],
            [
              121.57330452200007,
              17.564788665000034
            ],
            [
              121.546723013,
              17.580621351000044
            ],
            [
              121.52581727300003,
              17.583678302000063
            ],
            [
              121.51407593600005,
              17.59018315200007
            ],
            [
              121.49661415900005,
              17.591042718000036
            ],
            [
              121.48884152300003,
              17.62598446100003
            ],
            [
              121.484090594,
              17.638499731000024
            ],
            [
              121.48512366300008,
              17.647321689000027
            ],
            [
              121.47267377100003,
              17.659530498000038
            ],
            [
              121.47734350600003,
              17.66774244800007
            ],
            [
              121.4663220020001,
              17.67232157400002
            ],
            [
              121.449612956,
              17.661005241000055
            ],
            [
              121.43675604700002,
              17.67134772500004
            ],
            [
              121.43902866000009,
              17.688923450000058
            ],
            [
              121.43140635000009,
              17.70101422500005
            ],
            [
              121.42825329100003,
              17.72960822100004
            ],
            [
              121.424688607,
              17.740361742000058
            ],
            [
              121.41650268500007,
              17.74934727300006
            ],
            [
              121.41411788300002,
              17.76319366200004
            ],
            [
              121.38829731500005,
              17.793630291000053
            ],
            [
              121.37339240200004,
              17.800851305000037
            ],
            [
              121.35867264400008,
              17.804646966000057
            ],
            [
              121.33495861900008,
              17.802725580000075
            ],
            [
              121.32155435200002,
              17.80423081600002
            ],
            [
              121.31851544800007,
              17.814975002000033
            ],
            [
              121.32413865500008,
              17.847130672000045
            ],
            [
              121.33419859300011,
              17.864568868000045
            ],
            [
              121.34696177600006,
              17.87941514000005
            ],
            [
              121.35745211900009,
              17.922368543000054
            ],
            [
              121.31511820900005,
              17.970783156000042
            ],
            [
              121.32645252500004,
              17.97686769000006
            ],
            [
              121.32050303300002,
              17.98450124800007
            ],
            [
              121.3317759140001,
              17.99122467000007
            ],
            [
              121.3376829670001,
              18.01223525800003
            ],
            [
              121.34927463600002,
              18.026755806000036
            ],
            [
              121.34689143800007,
              18.03861084700003
            ],
            [
              121.36446941600003,
              18.06161911900006
            ],
            [
              121.42783800000005,
              18.035335404000023
            ],
            [
              121.46035909600005,
              18.049410337000033
            ],
            [
              121.46567299300013,
              18.104678719000045
            ],
            [
              121.46051376000003,
              18.122561999000023
            ],
            [
              121.46893181600001,
              18.125649350000057
            ],
            [
              121.47512921100008,
              18.14015911600006
            ],
            [
              121.48189198400009,
              18.14438367100007
            ],
            [
              121.48507676000007,
              18.15768055400002
            ],
            [
              121.4825005040001,
              18.168326306000044
            ],
            [
              121.48878546300011,
              18.217272336000065
            ],
            [
              121.48948360700003,
              18.238844983000035
            ],
            [
              121.48059010800013,
              18.26337983800005
            ],
            [
              121.46791386300005,
              18.26259682800002
            ],
            [
              121.46462696400012,
              18.284910661000026
            ],
            [
              121.48022320600012,
              18.30637117400005
            ],
            [
              121.46684622600003,
              18.30733227100006
            ],
            [
              121.4612568030001,
              18.31461976800006
            ],
            [
              121.41583439900012,
              18.323572073000044
            ],
            [
              121.4023827430001,
              18.340896047000054
            ],
            [
              121.36965570100007,
              18.357264118000046
            ],
            [
              121.3186229800001,
              18.38715477900007
            ],
            [
              121.28555701000005,
              18.388537952000025
            ],
            [
              121.24884436800005,
              18.428879903000045
            ],
            [
              121.22654139600003,
              18.436471329000028
            ],
            [
              121.2257967500001,
              18.47281754500005
            ],
            [
              121.220860839,
              18.483043994000067
            ],
            [
              121.2220811540001,
              18.500580942000056
            ],
            [
              121.1678637000001,
              18.521977657000036
            ],
            [
              121.1692310430001,
              18.539120576000073
            ],
            [
              121.15600338400009,
              18.543774998000064
            ],
            [
              121.11848091500008,
              18.543110654000035
            ],
            [
              121.08906431300011,
              18.495391214000048
            ],
            [
              121.08905418300003,
              18.52713754200004
            ],
            [
              121.09350099600012,
              18.541745912000067
            ],
            [
              121.06136538900012,
              18.539197991000037
            ],
            [
              121.04277930400009,
              18.52818576600003
            ],
            [
              121.03880811000012,
              18.50503012800004
            ],
            [
              121.0234730630001,
              18.498688611000034
            ],
            [
              121.00287379699999,
              18.466105643000045
            ],
            [
              120.95867309800006,
              18.46320241200004
            ],
            [
              120.94704360700008,
              18.420625793000056
            ],
            [
              120.94836326600011,
              18.38169343000004
            ],
            [
              120.91666636100001,
              18.284560256000074
            ],
            [
              120.92676405500005,
              18.241938255000033
            ],
            [
              120.93879022400006,
              18.22089488100005
            ],
            [
              120.97006946800002,
              18.181863920000065
            ],
            [
              120.94987539300007,
              18.139765720000067
            ],
            [
              120.94455838300007,
              18.122894327000036
            ],
            [
              120.92814130400008,
              18.08819338500006
            ],
            [
              120.92788530300004,
              18.079309269000074
            ],
            [
              120.93546188900007,
              18.06899515000003
            ],
            [
              120.93298814900005,
              18.057569600000026
            ],
            [
              120.93584120900005,
              18.048433540000076
            ],
            [
              120.93339553900013,
              18.02913028100005
            ],
            [
              120.9277503080001,
              18.02074328600002
            ],
            [
              120.93812287900003,
              18.012402944000034
            ],
            [
              120.9469459710001,
              17.997094376000064
            ],
            [
              120.9203956020001,
              17.956264822000033
            ],
            [
              120.90997355400009,
              17.949925270000048
            ],
            [
              120.89458557200008,
              17.95147229400004
            ],
            [
              120.86494466500007,
              17.961519929000076
            ],
            [
              120.85020468100005,
              17.96286096100005
            ],
            [
              120.8336946590001,
              17.959454283000067
            ],
            [
              120.82604262300005,
              17.95475861500006
            ],
            [
              120.80458842400004,
              17.929440252000063
            ],
            [
              120.78375228200004,
              17.911236471000052
            ],
            [
              120.74365221500011,
              17.901404344000067
            ],
            [
              120.72824914700004,
              17.89250797800003
            ],
            [
              120.713090887,
              17.859955993000025
            ],
            [
              120.69086868800002,
              17.834579642000048
            ],
            [
              120.68185365600004,
              17.830346956000025
            ],
            [
              120.63328457800003,
              17.81909497500004
            ],
            [
              120.62755555100011,
              17.81559922200006
            ],
            [
              120.6022255060001,
              17.809284779000055
            ],
            [
              120.58279342800004,
              17.79909751900004
            ],
            [
              120.5739583510001,
              17.78924116100006
            ],
            [
              120.54274383600011,
              17.735323652000037
            ],
            [
              120.53877010400005,
              17.713123117000062
            ],
            [
              120.52968731700003,
              17.69293773500004
            ],
            [
              120.51638505600012,
              17.649240339000077
            ],
            [
              120.49781832400004,
              17.625130266000042
            ],
            [
              120.48809572800008,
              17.584616799000056
            ],
            [
              120.48964597200006,
              17.553233664000057
            ],
            [
              120.48753841300004,
              17.544978136000054
            ],
            [
              120.47573633200011,
              17.534417844000068
            ],
            [
              120.46816717700004,
              17.51472706000004
            ],
            [
              120.4677860260001,
              17.49566518600005
            ],
            [
              120.47441593400005,
              17.484247811000042
            ],
            [
              120.49603249300004,
              17.487306537000045
            ],
            [
              120.51159320200009,
              17.498232664000053
            ],
            [
              120.53374303500004,
              17.49841254400008
            ],
            [
              120.54333671200003,
              17.492196233000076
            ],
            [
              120.56549074100006,
              17.501755516000053
            ],
            [
              120.57589346400006,
              17.491012723000033
            ],
            [
              120.58889100400006,
              17.492162257000075
            ],
            [
              120.58165948100009,
              17.471827468000072
            ],
            [
              120.57786001500004,
              17.43001281100004
            ],
            [
              120.55201458300009,
              17.385100037000026
            ],
            [
              120.54280925400009,
              17.371764064000043
            ],
            [
              120.5378136380001,
              17.35698604400005
            ],
            [
              120.53861061300007,
              17.34360476700005
            ],
            [
              120.55752591600005,
              17.316734222000036
            ],
            [
              120.56675985500011,
              17.307159984000062
            ],
            [
              120.59361117000005,
              17.310185620000023
            ],
            [
              120.61194929200009,
              17.302219217000076
            ],
            [
              120.63616998800002,
              17.275628543000035
            ],
            [
              120.66649115900009,
              17.26341849500005
            ],
            [
              120.67840099500005,
              17.256838869000035
            ],
            [
              120.67308314500009,
              17.242406485000064
            ],
            [
              120.68346968400009,
              17.22615385000006
            ],
            [
              120.6759968650001,
              17.211330383000078
            ],
            [
              120.68144676200005,
              17.18662150900008
            ],
            [
              120.68721368900005,
              17.184702805000022
            ],
            [
              120.69162575800011,
              17.17272991600004
            ],
            [
              120.70276014000002,
              17.174974877000064
            ],
            [
              120.73368256900007,
              17.167989204000037
            ],
            [
              120.75133329500011,
              17.15525632500004
            ],
            [
              120.78622417600002,
              17.158848836000054
            ],
            [
              120.79619547000004,
              17.161847805000036
            ],
            [
              120.80474638400005,
              17.171269785000053
            ],
            [
              120.81235520500002,
              17.155871674000025
            ],
            [
              120.77482395200002,
              17.10802099300002
            ],
            [
              120.76761284700002,
              17.066790583000053
            ],
            [
              120.7800911270001,
              17.016488273000046
            ],
            [
              120.7814782700001,
              16.962984348000077
            ],
            [
              120.78527385300004,
              16.92133500700004
            ],
            [
              120.77062128400009,
              16.921185493000053
            ],
            [
              120.75882434800009,
              16.926498180000067
            ],
            [
              120.74751261300004,
              16.926550587000058
            ],
            [
              120.73856888600005,
              16.915983209000046
            ],
            [
              120.66956300000005,
              16.91198100000003
            ],
            [
              120.66007776400009,
              16.908990164000038
            ],
            [
              120.65715485500003,
              16.90145723800003
            ],
            [
              120.64433170600012,
              16.897367019000054
            ],
            [
              120.62453594000011,
              16.877777002000073
            ],
            [
              120.61305110600006,
              16.85698522900003
            ],
            [
              120.61018355700003,
              16.84001696500007
            ],
            [
              120.58601613200004,
              16.836661373000027
            ],
            [
              120.58502253200005,
              16.820095662000018
            ],
            [
              120.58961744100009,
              16.747182695000053
            ],
            [
              120.59903624900006,
              16.738317935000058
            ],
            [
              120.57452221100006,
              16.671264867000044
            ],
            [
              120.5650648840001,
              16.669766382000034
            ],
            [
              120.54121983300001,
              16.63801429400007
            ],
            [
              120.51785667800004,
              16.59469172800005
            ],
            [
              120.51203773400003,
              16.571698316000035
            ],
            [
              120.51708050200011,
              16.568623203000076
            ],
            [
              120.5126313620001,
              16.550257849000047
            ],
            [
              120.48809029900006,
              16.540866315000077
            ],
            [
              120.47820839000008,
              16.529996216000026
            ],
            [
              120.47904665800003,
              16.52282286500002
            ],
            [
              120.4673463900001,
              16.502706239000076
            ],
            [
              120.47311491200001,
              16.47272088900007
            ],
            [
              120.46996988700005,
              16.424879316000037
            ],
            [
              120.45330749300001,
              16.40751525700005
            ],
            [
              120.45382248000011,
              16.396986618000025
            ],
            [
              120.44461437400001,
              16.38612987700003
            ],
            [
              120.4690371590001,
              16.379756875000048
            ],
            [
              120.48440041100004,
              16.358889514000055
            ],
            [
              120.48084990500003,
              16.34760837700003
            ],
            [
              120.494724172,
              16.347753779000072
            ],
            [
              120.49063149700011,
              16.332446348000076
            ],
            [
              120.49912476800013,
              16.323063542000057
            ],
            [
              120.4973696500001,
              16.31297650700003
            ],
            [
              120.50082950600007,
              16.293355268000024
            ],
            [
              120.51059975200008,
              16.27579802000002
            ],
            [
              120.51669938400006,
              16.249475371000074
            ],
            [
              120.51264871600006,
              16.231447905000035
            ],
            [
              120.52020294500007,
              16.233441361000068
            ],
            [
              120.54275362300005,
              16.222234379000046
            ],
            [
              120.55802100200003,
              16.218416174000026
            ],
            [
              120.62841815099999,
              16.18062420900003
            ],
            [
              120.63237185700007,
              16.183949238000025
            ],
            [
              120.68196558300008,
              16.18392691800005
            ],
            [
              120.69775323600005,
              16.19100120800005
            ],
            [
              120.76896590800004,
              16.19803365700005
            ]
          ]
        ]
      }
    }
  ]
}
