{
  "type": "FeatureCollection",
  "features": [
    {
      "type": "Feature",
      "properties": {
        "geo_id": "geo_ph_0020",
        "name": "Ifugao",
        "psgc": "1402700000",
        "boundary_level": "province"
      },
      "geometry": {
        "type": "Polygon",
        "coordinates": [
          [
            [
              121.567500181,
              17.07905657500004
            ],
            [
              120.89301445400008,
              16.821064410000073
            ],
            [
              120.92950614800007,
              16.600053544000048
            ],
            [
              121.52132234000011,
              16.838934767000065
            ],
            [
              121.567500181,
              17.07905657500004
            ]
          ]
        ]
      }
    }
  ]
}
