{
  "type": "FeatureCollection",
  "features": [
    {
      "type": "Feature",
      "properties": {
        "geo_id": "geo_ph_0056",
        "name": "Tagbilaran",
        "psgc": "0701242000",
        "boundary_level": "municipality",
        "source_name": "City of Tagbilaran",
        "source_psgc": "0701242000"
      },
      "geometry": {
        "type": "Polygon",
        "coordinates": [
          [
            [
              123.86237319400004,
              9.699652096000023
            ],
            [
              123.84399302400006,
              9.667256902000076
            ],
            [
              123.85464910200005,
              9.637559059000068
            ],
            [
              123.87187666000013,
              9.627618822000043
            ],
            [
              123.88491140500004,
              9.62543847400002
            ],
            [
              123.8852232050001,
              9.646432594000032
            ],
            [
              123.89027104400007,
              9.673458914000037
            ],
            [
              123.90484458400012,
              9.695488822000074
            ],
            [
              123.89012928000011,
              9.692979110000067
            ],
            [
              123.86237319400004,
              9.699652096000023
            ]
          ]
        ]
      }
    }
  ]
}
