{
  "type": "FeatureCollection",
  "features": [
    {
      "type": "Feature",
      "properties": {
        "geo_id": "geo_ph_0025",
        "name": "Iloilo",
        "psgc": "0603000000",
        "boundary_level": "province",
        "source_psgc": "0603000000"
      },
      "geometry": {
        "type": "MultiPolygon",
        "coordinates": [
          [
            [
              [
                123.34876473100007,
                11.60605329200007
              ],
              [
                123.35852509200004,
                11.638225409000029
              ],
              [
                123.34199257500006,
                11.632454365000058
              ],
              [
                123.3415293580001,
                11.61479302400005
              ],
              [
                123.34876473100007,
                11.60605329200007
              ]
            ]
          ],
          [
            [
              [
                123.33194805300003,
                11.572770089000073
              ],
              [
                123.34542205600007,
                11.588955957000051
              ],
              [
                123.33902253400002,
                11.596536110000043
              ],
              [
                123.32891235000011,
                11.596792661000048
              ],
              [
                123.321144419,
                11.587398776000041
              ],
              [
                123.33194805300003,
                11.572770089000073
              ]
            ]
          ],
          [
            [
              [
                122.03028776500003,
                10.466848482000046
              ],
              [
                122.0392788900001,
                10.483334282000042
              ],
              [
                122.05065767400004,
                10.486723219000053
              ],
              [
                122.06132462600011,
                10.50063963300005
              ],
              [
                122.06048584300004,
                10.50944377700006
              ],
              [
                122.07449917500004,
                10.53153077400003
              ],
              [
                122.07937109400007,
                10.549115448000064
              ],
              [
                122.090675,
                10.562442876000034
              ],
              [
                122.09459807700011,
                10.574097416000027
              ],
              [
                122.10592032000012,
                10.583387237000064
              ],
              [
                122.13026668200007,
                10.586476885000025
              ],
              [
                122.15928756100004,
                10.596754847000057
              ],
              [
                122.17576811600009,
                10.610977914000046
              ],
              [
                122.18130262400007,
                10.621065124000038
              ],
              [
                122.19386073300008,
                10.626600138000072
              ],
              [
                122.2103470510001,
                10.638872996000032
              ],
              [
                122.25112804700007,
                10.63810783900004
              ],
              [
                122.25698515800002,
                10.650829912000061
              ],
              [
                122.28158777100009,
                10.659157515000059
              ],
              [
                122.303987182,
                10.656129534000058
              ],
              [
                122.32657726500008,
                10.658701543000063
              ],
              [
                122.33446013800004,
                10.668918344000074
              ],
              [
                122.36699800900011,
                10.67115064800004
              ],
              [
                122.37536243500007,
                10.668257504000053
              ],
              [
                122.39326406100008,
                10.670321005000062
              ],
              [
                122.43071513100007,
                10.683438835000063
              ],
              [
                122.45516144400005,
                10.688235755000047
              ],
              [
                122.479448036,
                10.68834612100005
              ],
              [
                122.49980636400004,
                10.679965891000052
              ],
              [
                122.53166930000009,
                10.679330462000054
              ],
              [
                122.56108176100008,
                10.691362079000044
              ],
              [
                122.58091882800011,
                10.687589006000053
              ],
              [
                122.59358583300003,
                10.704695394000055
              ],
              [
                122.60023864100005,
                10.727565817000029
              ],
              [
                122.59903754000004,
                10.736892440000076
              ],
              [
                122.58786094800007,
                10.743050724000055
              ],
              [
                122.59228179100013,
                10.755600451000017
              ],
              [
                122.61145205100001,
                10.774782222000056
              ],
              [
                122.63231534200008,
                10.782608456000046
              ],
              [
                122.64196817200002,
                10.77151353100004
              ],
              [
                122.6558597290001,
                10.784269570000047
              ],
              [
                122.66357596200011,
                10.777858536000053
              ],
              [
                122.67129196300004,
                10.795975156000054
              ],
              [
                122.68339929200012,
                10.794936848000077
              ],
              [
                122.71048317300007,
                10.780001167000023
              ],
              [
                122.73420064200002,
                10.785963645000038
              ],
              [
                122.75015194300009,
                10.811658841000053
              ],
              [
                122.76294897800005,
                10.822918389000053
              ],
              [
                122.76907015800009,
                10.843402272000048
              ],
              [
                122.78001900300002,
                10.851007906000063
              ],
              [
                122.78505763800003,
                10.864431627000046
              ],
              [
                122.78913818200012,
                10.899308512000061
              ],
              [
                122.78461847800008,
                10.90300368800007
              ],
              [
                122.78069853800002,
                10.925520229000028
              ],
              [
                122.77015318600003,
                10.93311518300004
              ],
              [
                122.764636084,
                10.945955576000074
              ],
              [
                122.77269817000001,
                10.960825455000078
              ],
              [
                122.7817240280001,
                10.98792534300003
              ],
              [
                122.7959641540001,
                10.99109343200007
              ],
              [
                122.81582963000007,
                10.99995241700003
              ],
              [
                122.83151762500007,
                11.002750107000054
              ],
              [
                122.850046227,
                10.997410925000052
              ],
              [
                122.85166149400003,
                11.018821029000035
              ],
              [
                122.87650941100003,
                11.032250372000021
              ],
              [
                122.8905184460001,
                11.024100678000023
              ],
              [
                122.9054680170001,
                11.020926226000027
              ],
              [
                122.91592314800003,
                11.039610321000055
              ],
              [
                122.91803619100006,
                11.063252859000045
              ],
              [
                122.93729703800011,
                11.064087123000037
              ],
              [
                122.94373747900012,
                11.056401915000038
              ],
              [
                122.93453463600008,
                11.044070885000053
              ],
              [
                122.9417587480001,
                11.02863433500005
              ],
              [
                122.95232525100006,
                11.033694352000055
              ],
              [
                122.95465576900006,
                11.050685206000024
              ],
              [
                122.94910545400012,
                11.06190160500006
              ],
              [
                122.95532296800002,
                11.06908349200006
              ],
              [
                122.9755802510001,
                11.070109571000046
              ],
              [
                122.98366177200012,
                11.07771461200002
              ],
              [
                122.99311641800011,
                11.078043685000067
              ],
              [
                123.00927381900009,
                11.093926979000061
              ],
              [
                123.01766905900003,
                11.143814193000027
              ],
              [
                123.0278382140001,
                11.165618340000036
              ],
              [
                123.03639293700007,
                11.171628113000054
              ],
              [
                123.054822337,
                11.170135256000039
              ],
              [
                123.07441368100001,
                11.164020820000074
              ],
              [
                123.079928719,
                11.148129062000066
              ],
              [
                123.08942068700004,
                11.145790884000062
              ],
              [
                123.09586132500009,
                11.156887964000077
              ],
              [
                123.12127665500007,
                11.164694573000077
              ],
              [
                123.12789820800005,
                11.181067139000048
              ],
              [
                123.12305139600005,
                11.196424474000025
              ],
              [
                123.11263176900003,
                11.215604713000062
              ],
              [
                123.0937656660001,
                11.223962005000033
              ],
              [
                123.09606235700006,
                11.248368484000025
              ],
              [
                123.09514831000001,
                11.27485007200005
              ],
              [
                123.10689030700009,
                11.292677410000067
              ],
              [
                123.10626398800004,
                11.316820988000075
              ],
              [
                123.09923304800009,
                11.328641543000058
              ],
              [
                123.10460897300005,
                11.341295449000027
              ],
              [
                123.11631577800007,
                11.337942985000037
              ],
              [
                123.13302425100007,
                11.343259420000038
              ],
              [
                123.12620547100005,
                11.361348299000042
              ],
              [
                123.14034392700012,
                11.363778346000059
              ],
              [
                123.14626712200004,
                11.37375942500006
              ],
              [
                123.14340461600011,
                11.398159521000023
              ],
              [
                123.12996121100004,
                11.419087604000023
              ],
              [
                123.14009748,
                11.437029733000031
              ],
              [
                123.15272078600003,
                11.444216492000066
              ],
              [
                123.15991416400004,
                11.475432672000068
              ],
              [
                123.15032114800012,
                11.48667328600004
              ],
              [
                123.13847382100006,
                11.49308433700003
              ],
              [
                123.12008818800005,
                11.517426982000075
              ],
              [
                123.12974444600003,
                11.51989680500003
              ],
              [
                123.13514402100009,
                11.510893258000065
              ],
              [
                123.1507329090001,
                11.542234995000056
              ],
              [
                123.1499078810001,
                11.548113645000056
              ],
              [
                123.16276061100007,
                11.567235462000042
              ],
              [
                123.14176159400006,
                11.591123002000074
              ],
              [
                123.13204404300008,
                11.579688330000067
              ],
              [
                123.13131288400005,
                11.571250268000025
              ],
              [
                123.10597120100012,
                11.54855839300006
              ],
              [
                123.09762898100007,
                11.544387227000072
              ],
              [
                123.0856191040001,
                11.51452260800005
              ],
              [
                123.075251664,
                11.510117901000058
              ],
              [
                123.07178157100009,
                11.482247712000058
              ],
              [
                123.05840648300011,
                11.465682587000058
              ],
              [
                123.05553064800007,
                11.455422850000046
              ],
              [
                123.04558437100002,
                11.447568639000055
              ],
              [
                123.03975689500011,
                11.42792331500004
              ],
              [
                123.04813728400006,
                11.418640423000054
              ],
              [
                123.04603062200009,
                11.40382925000006
              ],
              [
                123.0350895590001,
                11.39518632800002
              ],
              [
                122.99443380000004,
                11.389956553000046
              ],
              [
                122.95087891900005,
                11.370013339000023
              ],
              [
                122.94080518600005,
                11.36043015400003
              ],
              [
                122.93493633700007,
                11.338812838000022
              ],
              [
                122.9375337670001,
                11.322262839000077
              ],
              [
                122.94471706200012,
                11.311485936000052
              ],
              [
                122.93090437300009,
                11.29774797300007
              ],
              [
                122.92136273400001,
                11.298785411000042
              ],
              [
                122.90831056000003,
                11.291244992000033
              ],
              [
                122.89465144100008,
                11.294331418000068
              ],
              [
                122.87220097900001,
                11.281271869000022
              ],
              [
                122.87360262000004,
                11.277873952000048
              ],
              [
                122.855120573,
                11.25593784600005
              ],
              [
                122.86666002000003,
                11.252520134000063
              ],
              [
                122.87307868500011,
                11.237048511000065
              ],
              [
                122.86320664100003,
                11.224577564000072
              ],
              [
                122.86022462700008,
                11.210301866000066
              ],
              [
                122.85035574700011,
                11.195562332000069
              ],
              [
                122.82594338300008,
                11.190160573000073
              ],
              [
                122.81463650900002,
                11.19392378300006
              ],
              [
                122.79181668600008,
                11.186459075000071
              ],
              [
                122.7888167220001,
                11.199299094000025
              ],
              [
                122.77226190300006,
                11.227241049000042
              ],
              [
                122.75322355500009,
                11.223501396000072
              ],
              [
                122.74378872600005,
                11.229183085000043
              ],
              [
                122.726128,
                11.227078518000042
              ],
              [
                122.70824223400007,
                11.21363333100004
              ],
              [
                122.68208955300008,
                11.215811099000064
              ],
              [
                122.65837347600007,
                11.20987188200007
              ],
              [
                122.65058204600007,
                11.211556530000049
              ],
              [
                122.61541831100011,
                11.23597193100005
              ],
              [
                122.62880978300008,
                11.25438428900003
              ],
              [
                122.63289907200009,
                11.266594956000061
              ],
              [
                122.60977306100006,
                11.259274567000034
              ],
              [
                122.59651263900003,
                11.261591893000059
              ],
              [
                122.58331594500011,
                11.25789224300007
              ],
              [
                122.57510193700011,
                11.246882854000033
              ],
              [
                122.55931719600007,
                11.236245889000028
              ],
              [
                122.56157174100007,
                11.223800277000066
              ],
              [
                122.54033981100008,
                11.202374835000056
              ],
              [
                122.52337785900012,
                11.191927539000062
              ],
              [
                122.49446570000009,
                11.17844518000004
              ],
              [
                122.47303762400009,
                11.188091681000056
              ],
              [
                122.45216523400008,
                11.192964759000061
              ],
              [
                122.41910517900011,
                11.195574141000066
              ],
              [
                122.3953327150001,
                11.190131479000057
              ],
              [
                122.32565518700004,
                11.22494626200006
              ],
              [
                122.23994482700006,
                11.133468934000064
              ],
              [
                122.3084573520001,
                11.04731852700007
              ],
              [
                122.31961925200005,
                11.028805747000034
              ],
              [
                122.32373918400002,
                11.015286657000047
              ],
              [
                122.31246292500009,
                10.958055645000059
              ],
              [
                122.32419683600004,
                10.94167671800005
              ],
              [
                122.32363979700007,
                10.933363292000022
              ],
              [
                122.30786046400009,
                10.923071334000042
              ],
              [
                122.29696678700007,
                10.925630946000066
              ],
              [
                122.2829747310001,
                10.911117010000055
              ],
              [
                122.2857364240001,
                10.903057545000024
              ],
              [
                122.28086203700003,
                10.892336224000074
              ],
              [
                122.260612679,
                10.895246205000033
              ],
              [
                122.2648694290001,
                10.876856672000027
              ],
              [
                122.25827484200009,
                10.860611470000038
              ],
              [
                122.24428145000003,
                10.84951326300006
              ],
              [
                122.22436151400008,
                10.852999279000073
              ],
              [
                122.20100347600008,
                10.834685975000072
              ],
              [
                122.19932536600005,
                10.816251925000074
              ],
              [
                122.17497210800003,
                10.755996189000026
              ],
              [
                122.15394495400005,
                10.751227345000075
              ],
              [
                122.11537238300004,
                10.715170645000057
              ],
              [
                122.09472650600004,
                10.699596017000035
              ],
              [
                122.08405293200008,
                10.700210447000073
              ],
              [
                122.06518785800006,
                10.680676879000034
              ],
              [
                122.06031076300007,
                10.659141388000021
              ],
              [
                122.05098571500004,
                10.647015267000029
              ],
              [
                122.04721864800001,
                10.63156335000002
              ],
              [
                122.03481262200012,
                10.623438966000034
              ],
              [
                122.01906709400009,
                10.565216420000068
              ],
              [
                122.02265034200002,
                10.559906409000064
              ],
              [
                122.01584591000005,
                10.544761710000044
              ],
              [
                122.01819370900012,
                10.524373494000029
              ],
              [
                122.01216107800009,
                10.486723335000022
              ],
              [
                122.01303394100013,
                10.476499513000023
              ],
              [
                122.03028776500003,
                10.466848482000046
              ]
            ]
          ],
          [
            [
              [
                123.16086280000003,
                11.491034737000062
              ],
              [
                123.17167880600005,
                11.498594307000074
              ],
              [
                123.17636823400007,
                11.511348326000077
              ],
              [
                123.19101253300005,
                11.512288940000076
              ],
              [
                123.19301393600007,
                11.52298980000006
              ],
              [
                123.16751903900003,
                11.524267804000035
              ],
              [
                123.16086280000003,
                11.491034737000062
              ]
            ]
          ],
          [
            [
              [
                123.19892660300002,
                11.466322694000043
              ],
              [
                123.21710547700002,
                11.459739888000055
              ],
              [
                123.23523249800007,
                11.46491779400003
              ],
              [
                123.23439290300007,
                11.493350841000051
              ],
              [
                123.2392031060001,
                11.508079988000079
              ],
              [
                123.22253896500001,
                11.502750513000022
              ],
              [
                123.21797500500008,
                11.509608982000033
              ],
              [
                123.20019007900011,
                11.504225794000034
              ],
              [
                123.20441622300007,
                11.490864367000029
              ],
              [
                123.1929136980001,
                11.473949126000036
              ],
              [
                123.19892660300002,
                11.466322694000043
              ]
            ]
          ],
          [
            [
              [
                123.25069067200003,
                11.423429531000066
              ],
              [
                123.26157228000011,
                11.423688808000067
              ],
              [
                123.27437749800002,
                11.438203963000033
              ],
              [
                123.27528003100008,
                11.454853010000022
              ],
              [
                123.24736299400003,
                11.465639319000047
              ],
              [
                123.24280165000003,
                11.453727936000064
              ],
              [
                123.25366977300007,
                11.428067403000055
              ],
              [
                123.25069067200003,
                11.423429531000066
              ]
            ]
          ],
          [
            [
              [
                123.14907917000006,
                11.26618737900003
              ],
              [
                123.15151033400004,
                11.249270709000028
              ],
              [
                123.16619685400008,
                11.253969748000028
              ],
              [
                123.1672151460001,
                11.269313824000049
              ],
              [
                123.19384254100008,
                11.293381797000052
              ],
              [
                123.18091969300008,
                11.305383333000066
              ],
              [
                123.15467819100002,
                11.309407795000025
              ],
              [
                123.15596816100005,
                11.27702647600006
              ],
              [
                123.14907917000006,
                11.26618737900003
              ]
            ]
          ],
          [
            [
              [
                123.12100950800004,
                11.21354655300007
              ],
              [
                123.13414509400002,
                11.222785002000023
              ],
              [
                123.13620601200012,
                11.241880795000045
              ],
              [
                123.14623137800005,
                11.260628093000038
              ],
              [
                123.13598811000008,
                11.264086476000044
              ],
              [
                123.13251017800008,
                11.242609963000062
              ],
              [
                123.1232354230001,
                11.23656605800005
              ],
              [
                123.12100950800004,
                11.21354655300007
              ]
            ]
          ],
          [
            [
              [
                123.21450842400009,
                11.24974977900007
              ],
              [
                123.20476907500007,
                11.246772187000033
              ],
              [
                123.19866906200002,
                11.23599747000003
              ],
              [
                123.21352395300006,
                11.23555418800004
              ],
              [
                123.21450842400009,
                11.24974977900007
              ]
            ]
          ],
          [
            [
              [
                123.17273213600005,
                11.192994541000074
              ],
              [
                123.19005163600002,
                11.212340020000052
              ],
              [
                123.18422722000003,
                11.217743149000059
              ],
              [
                123.16530135800008,
                11.222133816000053
              ],
              [
                123.15748664700004,
                11.21134919900004
              ],
              [
                123.163350422,
                11.19403895900007
              ],
              [
                123.17273213600005,
                11.192994541000074
              ]
            ]
          ],
          [
            [
              [
                123.12264589500012,
                11.100633317000074
              ],
              [
                123.12810373800006,
                11.11389902800005
              ],
              [
                123.13617626300004,
                11.119824591000052
              ],
              [
                123.1424222290001,
                11.139584873000045
              ],
              [
                123.13786616200004,
                11.148861231000067
              ],
              [
                123.1168688250001,
                11.144570954000073
              ],
              [
                123.10741955000003,
                11.13237678200005
              ],
              [
                123.11719081400008,
                11.116358734000071
              ],
              [
                123.11349466100013,
                11.107761746000051
              ],
              [
                123.12264589500012,
                11.100633317000074
              ]
            ]
          ]
        ]
      }
    }
  ]
}
