{
  "type": "FeatureCollection",
  "features": [
    {
      "type": "Feature",
      "properties": {
        "geo_id": "geo_ph_0051",
        "name": "Negros Oriental / Dauin / Apo Island",
        "component": "Dauin",
        "source_psgc": "0704609000",
        "source_boundary_level": "Mun"
      },
      "geometry": {
        "type": "Polygon",
        "coordinates": [
          [
            [
              123.20082680900009,
              9.246267143000068
            ],
            [
              123.14526169400004,
              9.248740095000073
            ],
            [
              123.18678699100009,
              9.21804374100003
            ],
            [
              123.18448009900011,
              9.208346848000074
            ],
            [
              123.23076537100006,
              9.140667946000065
            ],
            [
              123.24655710900004,
              9.16584832500007
            ],
            [
              123.27070621000007,
              9.187483386000052
            ],
            [
              123.28634487800002,
              9.215072100000043
            ],
            [
              123.22026589500003,
              9.243488803000048
            ],
            [
              123.20082680900009,
              9.246267143000068
            ]
          ]
        ]
      }
    },
    {
      "type": "Feature",
      "properties": {
        "geo_id": "geo_ph_0051",
        "name": "Negros Oriental / Dauin / Apo Island",
        "component": "City of Dumaguete",
        "source_psgc": "0704610000",
        "source_boundary_level": "City"
      },
      "geometry": {
        "type": "Polygon",
        "coordinates": [
          [
            [
              123.30958649900003,
              9.332437018000064
            ],
            [
              123.2517841990001,
              9.323173650000058
            ],
            [
              123.26600095900007,
              9.273704493000027
            ],
            [
              123.30152086600002,
              9.275949610000055
            ],
            [
              123.31170202400006,
              9.29949504000007
            ],
            [
              123.30958649900003,
              9.332437018000064
            ]
          ]
        ]
      }
    }
  ]
}
