{"type":"FeatureCollection","features":[{"type":"Feature","properties":{"geo_id":"geo_ph_0060","name":"Catbalogan","psgc":"0806005000","boundary_level":"municipality","source_name":"City of Catbalogan","source_psgc":"0806005000"},"geometry":{"type":"Polygon","coordinates":[[[124.96920763300011,11.914251400000069],[124.93941658100003,11.915327637000077],[124.92032485500012,11.909262380000028],[124.91127607300007,11.90318564100005],[124.86637665100012,11.887117837000059],[124.85357519600007,11.877614573000072],[124.84643401200005,11.877339115000037],[124.82326577600008,11.864227998000047],[124.80989173700004,11.844653770000034],[124.81882848100008,11.845888372000044],[124.82421033900006,11.835869962000062],[124.83588722600008,11.830416181000034],[124.83934680800007,11.817300286000034],[124.8303160600001,11.812242975000062],[124.83095349300004,11.799222003000066],[124.8399537470001,11.802729998000073],[124.8363928010001,11.812405897000072],[124.84262379400002,11.816871213000068],[124.85643458100003,11.813658492000059],[124.86511246600004,11.797995806000074],[124.86364373800008,11.786953489000041],[124.87730224400003,11.782188537000023],[124.88515147100007,11.762436779000039],[124.89269365200005,11.750743330000033],[124.90097564300005,11.754975434000071],[124.90864400900013,11.740830519000042],[124.92539734800005,11.747479500000054],[124.92314089800004,11.75703688200002],[124.91271396700004,11.759822478000048],[124.91797601100006,11.773101715000054],[124.92755998600012,11.783057357000073],[124.92575113400005,11.81130342000006],[124.93609721700011,11.831887951000057],[124.94574933900003,11.857323697000027],[124.9590234420001,11.885085175000027],[124.96920763300011,11.914251400000069]]]}}]}