{"type":"FeatureCollection","features":[{"type":"Feature","properties":{"geo_id":"geo_ph_0063","name":"Basco","psgc":"0200901000","boundary_level":"municipality","source_name":"Basco","source_psgc":"0200901000"},"geometry":{"type":"Polygon","coordinates":[[[121.97060045000002,20.41905195200007],[121.98269391600002,20.42552721700002],[121.98629980400007,20.43804806300005],[122.00753298500001,20.44764162200005],[122.01393450600007,20.448070017000077],[122.03285625300009,20.463317711000055],[122.03567570900007,20.46795041900003],[122.02785446300004,20.481029539000073],[122.0029536280001,20.48946827800006],[121.97558691100004,20.471562048000067],[121.95695717300009,20.46866799100007],[121.9598782700001,20.453881334000073],[121.96756219300005,20.44671681300002],[121.95590675200003,20.429735840000028],[121.96619957300004,20.42634336700007],[121.97060045000002,20.41905195200007]]]}}]}