{"type":"FeatureCollection","features":[{"type":"Feature","properties":{"geo_id":"geo_ph_0057","name":"Vigan","psgc":"0102934000","boundary_level":"municipality","source_name":"City of Vigan","source_psgc":"0102934000"},"geometry":{"type":"Polygon","coordinates":[[[120.37703036800008,17.581209468000054],[120.34422019900002,17.566318916000057],[120.35319703200004,17.546894132000038],[120.41196250400002,17.545904431000057],[120.43553528400001,17.558213650000027],[120.38422377900008,17.57855108900003],[120.37703036800008,17.581209468000054]]]}}]}