{
  "type": "FeatureCollection",
  "features": [
    {
      "type": "Feature",
      "properties": {
        "geo_id": "geo_kh_0029",
        "name": "Kampong Thom",
        "boundary_level": "province",
        "osm_type": "relation",
        "osm_id": 2198944,
        "source_checked_at": "2026-10-01"
      },
      "geometry": {
        "type": "Polygon",
        "coordinates": [
          [
            [
              104.173482,
              12.772049
            ],
            [
              104.206742,
              12.719819
            ],
            [
              104.395153,
              12.573479
            ],
            [
              104.406509,
              12.5678
            ],
            [
              104.407345,
              12.565773
            ],
            [
              104.4063,
              12.563141
            ],
            [
              104.401438,
              12.558934
            ],
            [
              104.401188,
              12.554815
            ],
            [
              104.406853,
              12.541661
            ],
            [
              104.40843,
              12.539869
            ],
            [
              104.424705,
              12.534791
            ],
            [
              104.444732,
              12.523313
            ],
            [
              104.456457,
              12.521315
            ],
            [
              104.482575,
              12.519251
            ],
            [
              104.487028,
              12.517115
            ],
            [
              104.501095,
              12.517363
            ],
            [
              104.50573,
              12.519542
            ],
            [
              104.509334,
              12.529764
            ],
            [
              104.510708,
              12.536634
            ],
            [
              104.514828,
              12.540489
            ],
            [
              104.516029,
              12.544845
            ],
            [
              104.515514,
              12.556239
            ],
            [
              104.517919,
              12.566694
            ],
            [
              104.51884,
              12.56764
            ],
            [
              104.533375,
              12.575709
            ],
            [
              104.543156,
              12.582434
            ],
            [
              104.547934,
              12.583652
            ],
            [
              104.556505,
              12.588315
            ],
            [
              104.568688,
              12.592929
            ],
            [
              104.579768,
              12.593963
            ],
            [
              104.592658,
              12.601957
            ],
            [
              104.595439,
              12.602756
            ],
            [
              104.606955,
              12.602204
            ],
            [
              104.627188,
              12.607444
            ],
            [
              104.649514,
              12.597891
            ],
            [
              104.655331,
              12.594186
            ],
            [
              104.666992,
              12.589963
            ],
            [
              104.676979,
              12.587819
            ],
            [
              104.69449,
              12.579982
            ],
            [
              104.705241,
              12.573892
            ],
            [
              104.71333,
              12.567511
            ],
            [
              104.714695,
              12.567721
            ],
            [
              104.716812,
              12.566574
            ],
            [
              104.723903,
              12.56125
            ],
            [
              104.743589,
              12.550573
            ],
            [
              104.819553,
              12.53137
            ],
            [
              104.820615,
              12.528334
            ],
            [
              104.826164,
              12.524393
            ],
            [
              104.828498,
              12.521487
            ],
            [
              104.827796,
              12.519667
            ],
            [
              104.825521,
              12.517448
            ],
            [
              104.825488,
              12.512575
            ],
            [
              104.822123,
              12.508501
            ],
            [
              104.825544,
              12.502464
            ],
            [
              104.825034,
              12.499913
            ],
            [
              104.821947,
              12.497107
            ],
            [
              104.822074,
              12.493509
            ],
            [
              104.817331,
              12.493073
            ],
            [
              104.815637,
              12.491875
            ],
            [
              104.814593,
              12.488241
            ],
            [
              104.815182,
              12.486375
            ],
            [
              104.816921,
              12.482565
            ],
            [
              104.818228,
              12.481697
            ],
            [
              104.825146,
              12.481159
            ],
            [
              104.827454,
              12.47821
            ],
            [
              104.829509,
              12.47698
            ],
            [
              104.835572,
              12.479372
            ],
            [
              104.837902,
              12.477816
            ],
            [
              104.841099,
              12.474112
            ],
            [
              104.841893,
              12.472366
            ],
            [
              104.841012,
              12.470394
            ],
            [
              104.839314,
              12.469491
            ],
            [
              104.828294,
              12.467134
            ],
            [
              104.82876,
              12.463767
            ],
            [
              104.832557,
              12.460866
            ],
            [
              104.832768,
              12.456214
            ],
            [
              104.836388,
              12.453252
            ],
            [
              104.83526,
              12.450256
            ],
            [
              104.835882,
              12.449683
            ],
            [
              104.839889,
              12.45124
            ],
            [
              104.842904,
              12.449593
            ],
            [
              104.840718,
              12.446513
            ],
            [
              104.83656,
              12.444389
            ],
            [
              104.836247,
              12.442306
            ],
            [
              104.83789,
              12.441368
            ],
            [
              104.841004,
              12.442333
            ],
            [
              104.84276,
              12.441699
            ],
            [
              104.844061,
              12.436443
            ],
            [
              104.84144,
              12.433159
            ],
            [
              104.844515,
              12.431425
            ],
            [
              104.84752,
              12.428278
            ],
            [
              104.851926,
              12.426313
            ],
            [
              104.857981,
              12.428087
            ],
            [
              104.860883,
              12.430008
            ],
            [
              104.861885,
              12.429811
            ],
            [
              104.861188,
              12.422185
            ],
            [
              104.864342,
              12.420908
            ],
            [
              104.862191,
              12.418152
            ],
            [
              104.862042,
              12.416873
            ],
            [
              104.864695,
              12.414955
            ],
            [
              104.8671,
              12.411021
            ],
            [
              104.865405,
              12.405689
            ],
            [
              104.866505,
              12.400443
            ],
            [
              104.865958,
              12.395797
            ],
            [
              104.864398,
              12.393047
            ],
            [
              104.861354,
              12.391487
            ],
            [
              104.859784,
              12.389027
            ],
            [
              104.861758,
              12.384403
            ],
            [
              104.859712,
              12.379929
            ],
            [
              104.861862,
              12.378352
            ],
            [
              104.863387,
              12.374617
            ],
            [
              104.861953,
              12.371738
            ],
            [
              104.86093,
              12.371092
            ],
            [
              104.865182,
              12.370112
            ],
            [
              104.866411,
              12.371799
            ],
            [
              104.866435,
              12.373209
            ],
            [
              104.867818,
              12.374242
            ],
            [
              104.869227,
              12.372178
            ],
            [
              104.872326,
              12.371777
            ],
            [
              104.873479,
              12.372709
            ],
            [
              104.872339,
              12.373658
            ],
            [
              104.87376,
              12.374194
            ],
            [
              104.874092,
              12.377275
            ],
            [
              104.876722,
              12.378967
            ],
            [
              104.877177,
              12.380585
            ],
            [
              104.878467,
              12.379122
            ],
            [
              104.879663,
              12.380299
            ],
            [
              104.87956,
              12.381717
            ],
            [
              104.881016,
              12.380396
            ],
            [
              104.881427,
              12.381417
            ],
            [
              104.882604,
              12.380664
            ],
            [
              104.883507,
              12.382295
            ],
            [
              104.884306,
              12.382352
            ],
            [
              104.885893,
              12.391866
            ],
            [
              104.883488,
              12.392274
            ],
            [
              104.88532,
              12.393583
            ],
            [
              104.884735,
              12.396068
            ],
            [
              104.886114,
              12.395133
            ],
            [
              104.886754,
              12.397322
            ],
            [
              104.887401,
              12.396782
            ],
            [
              104.887165,
              12.395826
            ],
            [
              104.887813,
              12.395665
            ],
            [
              104.888362,
              12.397226
            ],
            [
              104.890949,
              12.399656
            ],
            [
              104.892144,
              12.398884
            ],
            [
              104.893441,
              12.396014
            ],
            [
              104.894657,
              12.396111
            ],
            [
              104.894422,
              12.395147
            ],
            [
              104.895324,
              12.39507
            ],
            [
              104.895636,
              12.390073
            ],
            [
              104.896425,
              12.388586
            ],
            [
              104.893623,
              12.382714
            ],
            [
              104.893638,
              12.378249
            ],
            [
              104.89584,
              12.379361
            ],
            [
              104.896291,
              12.37886
            ],
            [
              104.893996,
              12.376793
            ],
            [
              104.894096,
              12.376083
            ],
            [
              104.898038,
              12.37622
            ],
            [
              104.89914,
              12.373252
            ],
            [
              104.897621,
              12.372505
            ],
            [
              104.897622,
              12.371103
            ],
            [
              104.899808,
              12.371285
            ],
            [
              104.900361,
              12.369566
            ],
            [
              104.899533,
              12.366829
            ],
            [
              104.89675,
              12.36452
            ],
            [
              104.897793,
              12.363371
            ],
            [
              104.897165,
              12.362417
            ],
            [
              104.898086,
              12.360789
            ],
            [
              104.896844,
              12.360381
            ],
            [
              104.896384,
              12.359205
            ],
            [
              104.895582,
              12.360038
            ],
            [
              104.896061,
              12.361263
            ],
            [
              104.895348,
              12.361512
            ],
            [
              104.89413,
              12.358661
            ],
            [
              104.892933,
              12.358367
            ],
            [
              104.893348,
              12.356444
            ],
            [
              104.891301,
              12.355629
            ],
            [
              104.891477,
              12.35296
            ],
            [
              104.894846,
              12.35027
            ],
            [
              104.895077,
              12.348686
            ],
            [
              104.893191,
              12.345881
            ],
            [
              104.89363,
              12.34328
            ],
            [
              104.890271,
              12.341605
            ],
            [
              104.889168,
              12.339908
            ],
            [
              104.887396,
              12.340473
            ],
            [
              104.883692,
              12.339951
            ],
            [
              104.880127,
              12.338366
            ],
            [
              104.87693,
              12.335763
            ],
            [
              104.875597,
              12.333478
            ],
            [
              104.87067,
              12.329643
            ],
            [
              104.868423,
              12.325171
            ],
            [
              104.863041,
              12.32538
            ],
            [
              104.862313,
              12.324716
            ],
            [
              104.863146,
              12.319035
            ],
            [
              104.862074,
              12.318582
            ],
            [
              104.861934,
              12.315195
            ],
            [
              104.860012,
              12.31425
            ],
            [
              104.859324,
              12.311233
            ],
            [
              104.857563,
              12.309919
            ],
            [
              104.857468,
              12.307776
            ],
            [
              104.853853,
              12.305595
            ],
            [
              104.852866,
              12.302868
            ],
            [
              104.854732,
              12.29428
            ],
            [
              104.852583,
              12.292544
            ],
            [
              104.851513,
              12.290416
            ],
            [
              104.851259,
              12.284853
            ],
            [
              104.853191,
              12.283247
            ],
            [
              104.856312,
              12.282726
            ],
            [
              104.856225,
              12.280266
            ],
            [
              104.85758,
              12.278676
            ],
            [
              104.858179,
              12.272309
            ],
            [
              104.860488,
              12.267452
            ],
            [
              104.861552,
              12.261945
            ],
            [
              104.864792,
              12.255041
            ],
            [
              104.868104,
              12.251186
            ],
            [
              104.870285,
              12.246524
            ],
            [
              104.872611,
              12.243767
            ],
            [
              104.872261,
              12.239407
            ],
            [
              104.877672,
              12.23754
            ],
            [
              104.882996,
              12.23765
            ],
            [
              104.89579,
              12.244043
            ],
            [
              104.901174,
              12.245208
            ],
            [
              104.902453,
              12.248491
            ],
            [
              104.901241,
              12.251981
            ],
            [
              104.901586,
              12.253034
            ],
            [
              104.90381,
              12.253422
            ],
            [
              104.904543,
              12.256434
            ],
            [
              104.909527,
              12.257115
            ],
            [
              104.912356,
              12.258795
            ],
            [
              104.916676,
              12.257964
            ],
            [
              104.917627,
              12.262295
            ],
            [
              104.918447,
              12.262566
            ],
            [
              104.926942,
              12.26172
            ],
            [
              104.930301,
              12.258703
            ],
            [
              104.932226,
              12.258106
            ],
            [
              104.936272,
              12.260088
            ],
            [
              104.941471,
              12.261202
            ],
            [
              104.943419,
              12.258977
            ],
            [
              104.947261,
              12.258528
            ],
            [
              104.947847,
              12.259208
            ],
            [
              104.947827,
              12.262411
            ],
            [
              104.950629,
              12.260099
            ],
            [
              104.954982,
              12.260725
            ],
            [
              104.955682,
              12.260467
            ],
            [
              104.955264,
              12.259025
            ],
            [
              104.955961,
              12.258446
            ],
            [
              104.956817,
              12.258797
            ],
            [
              104.963306,
              12.257125
            ],
            [
              104.963573,
              12.258626
            ],
            [
              104.962569,
              12.262282
            ],
            [
              104.960906,
              12.263715
            ],
            [
              104.961909,
              12.265154
            ],
            [
              104.962592,
              12.265884
            ],
            [
              104.964819,
              12.26486
            ],
            [
              104.971137,
              12.265656
            ],
            [
              104.971697,
              12.265445
            ],
            [
              104.970399,
              12.263699
            ],
            [
              104.973256,
              12.262544
            ],
            [
              104.975485,
              12.25963
            ],
            [
              104.97631,
              12.259918
            ],
            [
              104.977566,
              12.258311
            ],
            [
              104.978753,
              12.258565
            ],
            [
              104.979269,
              12.257009
            ],
            [
              104.98166,
              12.257127
            ],
            [
              104.982915,
              12.256383
            ],
            [
              104.980559,
              12.254252
            ],
            [
              104.981832,
              12.254522
            ],
            [
              104.981574,
              12.252814
            ],
            [
              104.983689,
              12.252645
            ],
            [
              104.983088,
              12.251444
            ],
            [
              104.984171,
              12.250852
            ],
            [
              104.983999,
              12.250209
            ],
            [
              104.98267,
              12.24906
            ],
            [
              104.98333,
              12.248658
            ],
            [
              104.985239,
              12.249607
            ],
            [
              104.985166,
              12.247678
            ],
            [
              104.986487,
              12.247183
            ],
            [
              104.98527,
              12.242809
            ],
            [
              104.987494,
              12.243563
            ],
            [
              104.987305,
              12.241644
            ],
            [
              104.989797,
              12.242095
            ],
            [
              104.989581,
              12.240118
            ],
            [
              104.991122,
              12.239932
            ],
            [
              104.991679,
              12.24106
            ],
            [
              104.992605,
              12.239079
            ],
            [
              104.993555,
              12.240128
            ],
            [
              104.993555,
              12.238469
            ],
            [
              104.99444,
              12.23705
            ],
            [
              104.995877,
              12.237842
            ],
            [
              104.995937,
              12.236106
            ],
            [
              104.996749,
              12.236786
            ],
            [
              104.997883,
              12.236588
            ],
            [
              104.997326,
              12.235221
            ],
            [
              104.996882,
              12.235654
            ],
            [
              104.995998,
              12.23464
            ],
            [
              104.999049,
              12.23318
            ],
            [
              105.000353,
              12.234251
            ],
            [
              105.001311,
              12.232979
            ],
            [
              105.000815,
              12.231801
            ],
            [
              105.001577,
              12.230941
            ],
            [
              105.002771,
              12.231007
            ],
            [
              105.00253,
              12.229864
            ],
            [
              105.004375,
              12.229124
            ],
            [
              105.002945,
              12.227897
            ],
            [
              105.004028,
              12.227375
            ],
            [
              105.005565,
              12.227776
            ],
            [
              105.008689,
              12.225367
            ],
            [
              105.00638,
              12.224977
            ],
            [
              105.006472,
              12.224301
            ],
            [
              105.007766,
              12.223012
            ],
            [
              105.008883,
              12.223384
            ],
            [
              105.010624,
              12.219657
            ],
            [
              105.011957,
              12.21962
            ],
            [
              105.013063,
              12.220658
            ],
            [
              105.012889,
              12.222079
            ],
            [
              105.014251,
              12.223246
            ],
            [
              105.015213,
              12.222285
            ],
            [
              105.016668,
              12.222639
            ],
            [
              105.016401,
              12.22174
            ],
            [
              105.017357,
              12.220401
            ],
            [
              105.019516,
              12.219916
            ],
            [
              105.021557,
              12.217777
            ],
            [
              105.02526,
              12.21883
            ],
            [
              105.026511,
              12.220353
            ],
            [
              105.026296,
              12.221381
            ],
            [
              105.039263,
              12.22272
            ],
            [
              105.049662,
              12.225353
            ],
            [
              105.060942,
              12.226172
            ],
            [
              105.064271,
              12.225567
            ],
            [
              105.067699,
              12.22341
            ],
            [
              105.071022,
              12.222727
            ],
            [
              105.074789,
              12.223425
            ],
            [
              105.077495,
              12.222327
            ],
            [
              105.080212,
              12.222881
            ],
            [
              105.081237,
              12.221601
            ],
            [
              105.082552,
              12.221857
            ],
            [
              105.08274,
              12.222852
            ],
            [
              105.084474,
              12.22241
            ],
            [
              105.086151,
              12.223447
            ],
            [
              105.096626,
              12.221397
            ],
            [
              105.099819,
              12.222206
            ],
            [
              105.101653,
              12.220514
            ],
            [
              105.100843,
              12.21743
            ],
            [
              105.101348,
              12.216378
            ],
            [
              105.101058,
              12.211859
            ],
            [
              105.100102,
              12.206658
            ],
            [
              105.103309,
              12.204297
            ],
            [
              105.10708,
              12.204125
            ],
            [
              105.108655,
              12.204323
            ],
            [
              105.108746,
              12.204951
            ],
            [
              105.111385,
              12.203839
            ],
            [
              105.112368,
              12.204336
            ],
            [
              105.113986,
              12.203667
            ],
            [
              105.114435,
              12.205771
            ],
            [
              105.115204,
              12.206135
            ],
            [
              105.118336,
              12.206537
            ],
            [
              105.119332,
              12.206034
            ],
            [
              105.125425,
              12.208026
            ],
            [
              105.126731,
              12.209799
            ],
            [
              105.127076,
              12.213386
            ],
            [
              105.13139,
              12.216501
            ],
            [
              105.133935,
              12.219895
            ],
            [
              105.137689,
              12.219059
            ],
            [
              105.140825,
              12.219547
            ],
            [
              105.141174,
              12.218978
            ],
            [
              105.141955,
              12.21956
            ],
            [
              105.143731,
              12.21936
            ],
            [
              105.145104,
              12.220352
            ],
            [
              105.146059,
              12.219531
            ],
            [
              105.148172,
              12.219477
            ],
            [
              105.148898,
              12.218206
            ],
            [
              105.150661,
              12.218986
            ],
            [
              105.151831,
              12.218165
            ],
            [
              105.151883,
              12.215742
            ],
            [
              105.15296,
              12.215477
            ],
            [
              105.152811,
              12.213982
            ],
            [
              105.153484,
              12.214088
            ],
            [
              105.154061,
              12.211996
            ],
            [
              105.155138,
              12.212485
            ],
            [
              105.157291,
              12.211967
            ],
            [
              105.158933,
              12.212774
            ],
            [
              105.159269,
              12.212098
            ],
            [
              105.161785,
              12.212031
            ],
            [
              105.164906,
              12.21048
            ],
            [
              105.164334,
              12.207188
            ],
            [
              105.164984,
              12.206615
            ],
            [
              105.164257,
              12.205729
            ],
            [
              105.165247,
              12.203572
            ],
            [
              105.164969,
              12.202651
            ],
            [
              105.168735,
              12.200882
            ],
            [
              105.17024,
              12.197731
            ],
            [
              105.172526,
              12.196141
            ],
            [
              105.17313,
              12.194654
            ],
            [
              105.176629,
              12.194497
            ],
            [
              105.179348,
              12.19656
            ],
            [
              105.184636,
              12.196834
            ],
            [
              105.186569,
              12.194019
            ],
            [
              105.188446,
              12.193565
            ],
            [
              105.188719,
              12.191686
            ],
            [
              105.190459,
              12.190964
            ],
            [
              105.192667,
              12.18869
            ],
            [
              105.193801,
              12.189486
            ],
            [
              105.19713,
              12.195982
            ],
            [
              105.201495,
              12.198775
            ],
            [
              105.202315,
              12.200232
            ],
            [
              105.196228,
              12.218265
            ],
            [
              105.189981,
              12.240736
            ],
            [
              105.190208,
              12.249897
            ],
            [
              105.195661,
              12.262267
            ],
            [
              105.195342,
              12.264651
            ],
            [
              105.189538,
              12.270503
            ],
            [
              105.183423,
              12.273891
            ],
            [
              105.180234,
              12.278194
            ],
            [
              105.174626,
              12.281935
            ],
            [
              105.171853,
              12.285401
            ],
            [
              105.166857,
              12.299969
            ],
            [
              105.169613,
              12.305616
            ],
            [
              105.169945,
              12.308207
            ],
            [
              105.165751,
              12.312993
            ],
            [
              105.164484,
              12.315986
            ],
            [
              105.167082,
              12.326363
            ],
            [
              105.168053,
              12.327994
            ],
            [
              105.169841,
              12.329162
            ],
            [
              105.169804,
              12.330362
            ],
            [
              105.161303,
              12.330409
            ],
            [
              105.160182,
              12.331986
            ],
            [
              105.154763,
              12.332803
            ],
            [
              105.14997,
              12.336068
            ],
            [
              105.148409,
              12.33965
            ],
            [
              105.147872,
              12.345116
            ],
            [
              105.146975,
              12.347202
            ],
            [
              105.143786,
              12.349241
            ],
            [
              105.137545,
              12.356261
            ],
            [
              105.133181,
              12.359146
            ],
            [
              105.132023,
              12.360791
            ],
            [
              105.1319,
              12.363259
            ],
            [
              105.130275,
              12.364895
            ],
            [
              105.130253,
              12.365892
            ],
            [
              105.132046,
              12.366849
            ],
            [
              105.1337,
              12.370421
            ],
            [
              105.135249,
              12.370766
            ],
            [
              105.137541,
              12.370013
            ],
            [
              105.13781,
              12.370602
            ],
            [
              105.138843,
              12.37052
            ],
            [
              105.139939,
              12.372591
            ],
            [
              105.142286,
              12.373061
            ],
            [
              105.143879,
              12.377358
            ],
            [
              105.1472,
              12.379026
            ],
            [
              105.151963,
              12.379366
            ],
            [
              105.153307,
              12.380787
            ],
            [
              105.156488,
              12.382023
            ],
            [
              105.159008,
              12.380722
            ],
            [
              105.160226,
              12.380925
            ],
            [
              105.161115,
              12.382203
            ],
            [
              105.161756,
              12.38198
            ],
            [
              105.164774,
              12.386587
            ],
            [
              105.165358,
              12.386342
            ],
            [
              105.166676,
              12.387615
            ],
            [
              105.166742,
              12.388874
            ],
            [
              105.168245,
              12.390836
            ],
            [
              105.168187,
              12.393631
            ],
            [
              105.166818,
              12.394684
            ],
            [
              105.16711,
              12.396953
            ],
            [
              105.166494,
              12.397306
            ],
            [
              105.167879,
              12.400209
            ],
            [
              105.169983,
              12.400537
            ],
            [
              105.174619,
              12.395927
            ],
            [
              105.178121,
              12.3961
            ],
            [
              105.17879,
              12.397611
            ],
            [
              105.180089,
              12.398129
            ],
            [
              105.184932,
              12.396968
            ],
            [
              105.187501,
              12.395266
            ],
            [
              105.189653,
              12.391982
            ],
            [
              105.191308,
              12.393039
            ],
            [
              105.193883,
              12.39247
            ],
            [
              105.194951,
              12.393271
            ],
            [
              105.199101,
              12.392098
            ],
            [
              105.199914,
              12.392795
            ],
            [
              105.201625,
              12.392282
            ],
            [
              105.203038,
              12.393494
            ],
            [
              105.205709,
              12.394323
            ],
            [
              105.210409,
              12.394447
            ],
            [
              105.211181,
              12.395011
            ],
            [
              105.213166,
              12.400733
            ],
            [
              105.216785,
              12.400485
            ],
            [
              105.220053,
              12.401898
            ],
            [
              105.22559,
              12.398305
            ],
            [
              105.227423,
              12.396226
            ],
            [
              105.237302,
              12.394101
            ],
            [
              105.240519,
              12.394622
            ],
            [
              105.248245,
              12.398834
            ],
            [
              105.255908,
              12.397717
            ],
            [
              105.260394,
              12.399848
            ],
            [
              105.26391,
              12.399509
            ],
            [
              105.265013,
              12.397739
            ],
            [
              105.268479,
              12.39638
            ],
            [
              105.275909,
              12.384335
            ],
            [
              105.277751,
              12.38342
            ],
            [
              105.286817,
              12.385195
            ],
            [
              105.295656,
              12.383142
            ],
            [
              105.316563,
              12.382641
            ],
            [
              105.317434,
              12.381433
            ],
            [
              105.318474,
              12.376031
            ],
            [
              105.322542,
              12.373557
            ],
            [
              105.327691,
              12.372315
            ],
            [
              105.330448,
              12.36947
            ],
            [
              105.330783,
              12.368552
            ],
            [
              105.329976,
              12.368442
            ],
            [
              105.329626,
              12.363391
            ],
            [
              105.33084,
              12.357542
            ],
            [
              105.333784,
              12.357491
            ],
            [
              105.334844,
              12.356661
            ],
            [
              105.335573,
              12.357562
            ],
            [
              105.338452,
              12.355919
            ],
            [
              105.34166,
              12.357265
            ],
            [
              105.346133,
              12.356667
            ],
            [
              105.354786,
              12.360286
            ],
            [
              105.356527,
              12.359944
            ],
            [
              105.35728,
              12.361993
            ],
            [
              105.359493,
              12.362374
            ],
            [
              105.360604,
              12.364172
            ],
            [
              105.365055,
              12.366455
            ],
            [
              105.36472,
              12.371438
            ],
            [
              105.366543,
              12.371805
            ],
            [
              105.367379,
              12.373935
            ],
            [
              105.365999,
              12.374092
            ],
            [
              105.365805,
              12.374778
            ],
            [
              105.367276,
              12.375395
            ],
            [
              105.366112,
              12.376227
            ],
            [
              105.367195,
              12.37778
            ],
            [
              105.366338,
              12.379491
            ],
            [
              105.367496,
              12.379863
            ],
            [
              105.368321,
              12.381187
            ],
            [
              105.368178,
              12.385714
            ],
            [
              105.371864,
              12.386827
            ],
            [
              105.370456,
              12.388027
            ],
            [
              105.372389,
              12.391727
            ],
            [
              105.37126,
              12.392788
            ],
            [
              105.373482,
              12.392912
            ],
            [
              105.372625,
              12.394773
            ],
            [
              105.374855,
              12.397912
            ],
            [
              105.374307,
              12.398305
            ],
            [
              105.375272,
              12.40434
            ],
            [
              105.376072,
              12.405214
            ],
            [
              105.377195,
              12.404616
            ],
            [
              105.377048,
              12.406718
            ],
            [
              105.377656,
              12.406717
            ],
            [
              105.378315,
              12.408483
            ],
            [
              105.378125,
              12.409023
            ],
            [
              105.376777,
              12.408951
            ],
            [
              105.376553,
              12.409859
            ],
            [
              105.375663,
              12.409795
            ],
            [
              105.375848,
              12.411202
            ],
            [
              105.374394,
              12.412717
            ],
            [
              105.375609,
              12.413173
            ],
            [
              105.376095,
              12.415233
            ],
            [
              105.377336,
              12.415673
            ],
            [
              105.378076,
              12.417344
            ],
            [
              105.379525,
              12.417657
            ],
            [
              105.379601,
              12.418378
            ],
            [
              105.380465,
              12.417322
            ],
            [
              105.381415,
              12.417523
            ],
            [
              105.381515,
              12.419023
            ],
            [
              105.383046,
              12.419926
            ],
            [
              105.382771,
              12.421873
            ],
            [
              105.38382,
              12.422106
            ],
            [
              105.384076,
              12.424359
            ],
            [
              105.382396,
              12.425954
            ],
            [
              105.38434,
              12.428298
            ],
            [
              105.38462,
              12.429168
            ],
            [
              105.383982,
              12.429779
            ],
            [
              105.385659,
              12.430376
            ],
            [
              105.386921,
              12.432844
            ],
            [
              105.389179,
              12.433672
            ],
            [
              105.388678,
              12.437999
            ],
            [
              105.389683,
              12.438671
            ],
            [
              105.390019,
              12.442965
            ],
            [
              105.392516,
              12.444394
            ],
            [
              105.391788,
              12.446266
            ],
            [
              105.392391,
              12.447718
            ],
            [
              105.392147,
              12.45048
            ],
            [
              105.39034,
              12.451521
            ],
            [
              105.390302,
              12.453401
            ],
            [
              105.393177,
              12.455778
            ],
            [
              105.393065,
              12.456913
            ],
            [
              105.394416,
              12.458338
            ],
            [
              105.395034,
              12.460477
            ],
            [
              105.394625,
              12.46293
            ],
            [
              105.397957,
              12.462957
            ],
            [
              105.401288,
              12.467887
            ],
            [
              105.402673,
              12.46828
            ],
            [
              105.400819,
              12.469883
            ],
            [
              105.401442,
              12.470728
            ],
            [
              105.399085,
              12.471703
            ],
            [
              105.40076,
              12.47237
            ],
            [
              105.398676,
              12.474111
            ],
            [
              105.39895,
              12.475417
            ],
            [
              105.399975,
              12.475015
            ],
            [
              105.402403,
              12.476652
            ],
            [
              105.400488,
              12.477295
            ],
            [
              105.399973,
              12.479233
            ],
            [
              105.400645,
              12.480669
            ],
            [
              105.398803,
              12.481351
            ],
            [
              105.397594,
              12.480419
            ],
            [
              105.397126,
              12.480823
            ],
            [
              105.396919,
              12.481981
            ],
            [
              105.398499,
              12.483983
            ],
            [
              105.398948,
              12.487209
            ],
            [
              105.402729,
              12.487505
            ],
            [
              105.403483,
              12.486077
            ],
            [
              105.404331,
              12.485879
            ],
            [
              105.405394,
              12.48739
            ],
            [
              105.405648,
              12.485327
            ],
            [
              105.407365,
              12.48549
            ],
            [
              105.406489,
              12.48339
            ],
            [
              105.408738,
              12.481506
            ],
            [
              105.409357,
              12.48145
            ],
            [
              105.410148,
              12.483467
            ],
            [
              105.412873,
              12.481196
            ],
            [
              105.41451,
              12.484097
            ],
            [
              105.416536,
              12.483789
            ],
            [
              105.415809,
              12.487109
            ],
            [
              105.417305,
              12.489457
            ],
            [
              105.417912,
              12.487233
            ],
            [
              105.420567,
              12.488622
            ],
            [
              105.426221,
              12.487479
            ],
            [
              105.427802,
              12.490021
            ],
            [
              105.429571,
              12.488193
            ],
            [
              105.430837,
              12.487887
            ],
            [
              105.435004,
              12.489069
            ],
            [
              105.431406,
              12.491397
            ],
            [
              105.431885,
              12.492033
            ],
            [
              105.435235,
              12.492857
            ],
            [
              105.435849,
              12.489704
            ],
            [
              105.437003,
              12.489923
            ],
            [
              105.437344,
              12.492162
            ],
            [
              105.438173,
              12.492545
            ],
            [
              105.438963,
              12.494652
            ],
            [
              105.441225,
              12.494416
            ],
            [
              105.441618,
              12.493485
            ],
            [
              105.439565,
              12.492429
            ],
            [
              105.440271,
              12.490323
            ],
            [
              105.441725,
              12.488764
            ],
            [
              105.443227,
              12.488689
            ],
            [
              105.443599,
              12.489898
            ],
            [
              105.441434,
              12.491293
            ],
            [
              105.441208,
              12.492131
            ],
            [
              105.445191,
              12.491644
            ],
            [
              105.446399,
              12.490763
            ],
            [
              105.444845,
              12.489215
            ],
            [
              105.44671,
              12.487713
            ],
            [
              105.446787,
              12.486499
            ],
            [
              105.447429,
              12.485995
            ],
            [
              105.449812,
              12.486881
            ],
            [
              105.45036,
              12.483826
            ],
            [
              105.453959,
              12.482145
            ],
            [
              105.453826,
              12.481319
            ],
            [
              105.450517,
              12.481853
            ],
            [
              105.450435,
              12.480108
            ],
            [
              105.452156,
              12.479691
            ],
            [
              105.451728,
              12.477484
            ],
            [
              105.452525,
              12.475801
            ],
            [
              105.454249,
              12.475629
            ],
            [
              105.455414,
              12.476382
            ],
            [
              105.456224,
              12.478565
            ],
            [
              105.457372,
              12.47909
            ],
            [
              105.460333,
              12.476756
            ],
            [
              105.460574,
              12.47539
            ],
            [
              105.462232,
              12.475852
            ],
            [
              105.462845,
              12.475364
            ],
            [
              105.462518,
              12.474533
            ],
            [
              105.461256,
              12.474406
            ],
            [
              105.46162,
              12.472132
            ],
            [
              105.464363,
              12.472103
            ],
            [
              105.465767,
              12.467835
            ],
            [
              105.467019,
              12.468408
            ],
            [
              105.465878,
              12.471142
            ],
            [
              105.469985,
              12.473228
            ],
            [
              105.472309,
              12.469295
            ],
            [
              105.476918,
              12.468332
            ],
            [
              105.477135,
              12.467798
            ],
            [
              105.474693,
              12.465552
            ],
            [
              105.473502,
              12.460424
            ],
            [
              105.473918,
              12.458972
            ],
            [
              105.476304,
              12.457866
            ],
            [
              105.476238,
              12.462331
            ],
            [
              105.478617,
              12.464105
            ],
            [
              105.481631,
              12.462781
            ],
            [
              105.484378,
              12.463659
            ],
            [
              105.485486,
              12.46029
            ],
            [
              105.491161,
              12.456509
            ],
            [
              105.487862,
              12.456745
            ],
            [
              105.486691,
              12.4559
            ],
            [
              105.486563,
              12.453627
            ],
            [
              105.487693,
              12.452051
            ],
            [
              105.494204,
              12.451519
            ],
            [
              105.498122,
              12.450228
            ],
            [
              105.499832,
              12.450656
            ],
            [
              105.501469,
              12.452559
            ],
            [
              105.502142,
              12.451083
            ],
            [
              105.504016,
              12.451651
            ],
            [
              105.504411,
              12.452362
            ],
            [
              105.503086,
              12.453629
            ],
            [
              105.503068,
              12.454893
            ],
            [
              105.503885,
              12.454911
            ],
            [
              105.504352,
              12.453526
            ],
            [
              105.505674,
              12.454505
            ],
            [
              105.506766,
              12.453711
            ],
            [
              105.509575,
              12.453759
            ],
            [
              105.512067,
              12.452769
            ],
            [
              105.51293,
              12.455677
            ],
            [
              105.515258,
              12.456073
            ],
            [
              105.514764,
              12.454409
            ],
            [
              105.515397,
              12.454107
            ],
            [
              105.516275,
              12.454487
            ],
            [
              105.515911,
              12.456032
            ],
            [
              105.517341,
              12.456611
            ],
            [
              105.517339,
              12.455468
            ],
            [
              105.519894,
              12.45486
            ],
            [
              105.520197,
              12.455442
            ],
            [
              105.519179,
              12.456848
            ],
            [
              105.520244,
              12.458511
            ],
            [
              105.52077,
              12.456464
            ],
            [
              105.522629,
              12.456822
            ],
            [
              105.524055,
              12.455615
            ],
            [
              105.524735,
              12.458603
            ],
            [
              105.523123,
              12.459007
            ],
            [
              105.523574,
              12.459849
            ],
            [
              105.524862,
              12.46085
            ],
            [
              105.527166,
              12.459702
            ],
            [
              105.527559,
              12.461887
            ],
            [
              105.524929,
              12.463738
            ],
            [
              105.525502,
              12.464439
            ],
            [
              105.528218,
              12.464896
            ],
            [
              105.529278,
              12.46395
            ],
            [
              105.530015,
              12.465133
            ],
            [
              105.528179,
              12.465838
            ],
            [
              105.527732,
              12.466702
            ],
            [
              105.529406,
              12.466699
            ],
            [
              105.530168,
              12.470168
            ],
            [
              105.531516,
              12.470607
            ],
            [
              105.529552,
              12.473739
            ],
            [
              105.533139,
              12.472497
            ],
            [
              105.532358,
              12.474417
            ],
            [
              105.534018,
              12.474171
            ],
            [
              105.534043,
              12.475538
            ],
            [
              105.534896,
              12.47569
            ],
            [
              105.535078,
              12.47677
            ],
            [
              105.534362,
              12.477874
            ],
            [
              105.536481,
              12.479906
            ],
            [
              105.536919,
              12.477781
            ],
            [
              105.538264,
              12.476962
            ],
            [
              105.537953,
              12.478639
            ],
            [
              105.538741,
              12.479563
            ],
            [
              105.540401,
              12.479714
            ],
            [
              105.540291,
              12.480508
            ],
            [
              105.538811,
              12.481128
            ],
            [
              105.539059,
              12.481657
            ],
            [
              105.540968,
              12.482447
            ],
            [
              105.541667,
              12.48432
            ],
            [
              105.542945,
              12.483567
            ],
            [
              105.543372,
              12.48414
            ],
            [
              105.542456,
              12.485883
            ],
            [
              105.54452,
              12.485549
            ],
            [
              105.545329,
              12.486186
            ],
            [
              105.545824,
              12.487156
            ],
            [
              105.545156,
              12.48742
            ],
            [
              105.545223,
              12.489229
            ],
            [
              105.547525,
              12.48994
            ],
            [
              105.547406,
              12.492406
            ],
            [
              105.548706,
              12.49167
            ],
            [
              105.594156,
              12.494565
            ],
            [
              105.616454,
              12.493942
            ],
            [
              105.63572,
              12.494903
            ],
            [
              105.644028,
              12.493046
            ],
            [
              105.672879,
              12.49009
            ],
            [
              105.691485,
              12.494918
            ],
            [
              105.699581,
              12.494158
            ],
            [
              105.705301,
              12.494462
            ],
            [
              105.709733,
              12.496538
            ],
            [
              105.714467,
              12.500344
            ],
            [
              105.716829,
              12.501307
            ],
            [
              105.728668,
              12.501134
            ],
            [
              105.734562,
              12.499775
            ],
            [
              105.734801,
              12.500959
            ],
            [
              105.733404,
              12.505437
            ],
            [
              105.733176,
              12.517016
            ],
            [
              105.730778,
              12.523153
            ],
            [
              105.730764,
              12.538433
            ],
            [
              105.729268,
              12.548676
            ],
            [
              105.722825,
              12.564391
            ],
            [
              105.721902,
              12.570389
            ],
            [
              105.722182,
              12.579072
            ],
            [
              105.721056,
              12.583681
            ],
            [
              105.718865,
              12.588137
            ],
            [
              105.717252,
              12.596112
            ],
            [
              105.717805,
              12.616743
            ],
            [
              105.718889,
              12.621971
            ],
            [
              105.721683,
              12.627036
            ],
            [
              105.722749,
              12.633306
            ],
            [
              105.722638,
              12.638552
            ],
            [
              105.718203,
              12.663383
            ],
            [
              105.716346,
              12.668849
            ],
            [
              105.713121,
              12.673768
            ],
            [
              105.711848,
              12.677369
            ],
            [
              105.712537,
              12.692651
            ],
            [
              105.698708,
              12.708638
            ],
            [
              105.696804,
              12.71188
            ],
            [
              105.694974,
              12.718674
            ],
            [
              105.691149,
              12.721849
            ],
            [
              105.691946,
              12.728061
            ],
            [
              105.691644,
              12.73389
            ],
            [
              105.697087,
              12.745051
            ],
            [
              105.697188,
              12.74803
            ],
            [
              105.693323,
              12.753442
            ],
            [
              105.690341,
              12.75538
            ],
            [
              105.687427,
              12.764159
            ],
            [
              105.685745,
              12.771344
            ],
            [
              105.68586,
              12.773576
            ],
            [
              105.679666,
              12.775336
            ],
            [
              105.676266,
              12.77978
            ],
            [
              105.680061,
              12.790892
            ],
            [
              105.680688,
              12.795831
            ],
            [
              105.679812,
              12.797728
            ],
            [
              105.679304,
              12.806208
            ],
            [
              105.684825,
              12.810524
            ],
            [
              105.680684,
              12.818329
            ],
            [
              105.675666,
              12.820961
            ],
            [
              105.675051,
              12.824193
            ],
            [
              105.671488,
              12.828113
            ],
            [
              105.671389,
              12.831944
            ],
            [
              105.672517,
              12.833835
            ],
            [
              105.68046,
              12.84034
            ],
            [
              105.683244,
              12.844182
            ],
            [
              105.685323,
              12.848577
            ],
            [
              105.690304,
              12.8655
            ],
            [
              105.686705,
              12.873512
            ],
            [
              105.685896,
              12.879248
            ],
            [
              105.678205,
              12.895845
            ],
            [
              105.674763,
              12.89825
            ],
            [
              105.662303,
              12.902652
            ],
            [
              105.66143,
              12.903506
            ],
            [
              105.655203,
              12.919592
            ],
            [
              105.655155,
              12.923604
            ],
            [
              105.656177,
              12.925487
            ],
            [
              105.658908,
              12.926673
            ],
            [
              105.662258,
              12.929541
            ],
            [
              105.668934,
              12.932322
            ],
            [
              105.670397,
              12.933955
            ],
            [
              105.672333,
              12.940497
            ],
            [
              105.677416,
              12.950254
            ],
            [
              105.677796,
              12.954006
            ],
            [
              105.676657,
              12.956744
            ],
            [
              105.671046,
              12.959799
            ],
            [
              105.662603,
              12.969395
            ],
            [
              105.656182,
              12.970026
            ],
            [
              105.653922,
              12.971903
            ],
            [
              105.649305,
              12.973092
            ],
            [
              105.642553,
              12.982392
            ],
            [
              105.642141,
              12.984589
            ],
            [
              105.642713,
              12.986847
            ],
            [
              105.649975,
              13.000059
            ],
            [
              105.649463,
              13.006725
            ],
            [
              105.645351,
              13.015864
            ],
            [
              105.642001,
              13.030114
            ],
            [
              105.633765,
              13.05364
            ],
            [
              105.630965,
              13.058911
            ],
            [
              105.63193,
              13.060398
            ],
            [
              105.631865,
              13.062038
            ],
            [
              105.635693,
              13.064435
            ],
            [
              105.637589,
              13.071916
            ],
            [
              105.636983,
              13.073156
            ],
            [
              105.640964,
              13.079979
            ],
            [
              105.641065,
              13.082776
            ],
            [
              105.64027,
              13.0835
            ],
            [
              105.640886,
              13.085815
            ],
            [
              105.645732,
              13.095719
            ],
            [
              105.646442,
              13.097884
            ],
            [
              105.64625,
              13.100773
            ],
            [
              105.647912,
              13.103772
            ],
            [
              105.647453,
              13.111971
            ],
            [
              105.646404,
              13.114187
            ],
            [
              105.639674,
              13.11885
            ],
            [
              105.638284,
              13.125183
            ],
            [
              105.635143,
              13.130007
            ],
            [
              105.633445,
              13.130986
            ],
            [
              105.62926,
              13.13172
            ],
            [
              105.623463,
              13.134958
            ],
            [
              105.61889,
              13.139304
            ],
            [
              105.61391,
              13.141232
            ],
            [
              105.613105,
              13.142713
            ],
            [
              105.612613,
              13.147359
            ],
            [
              105.611421,
              13.14915
            ],
            [
              105.604662,
              13.152344
            ],
            [
              105.601673,
              13.162086
            ],
            [
              105.601349,
              13.172853
            ],
            [
              105.599564,
              13.181285
            ],
            [
              105.596165,
              13.191544
            ],
            [
              105.588011,
              13.209681
            ],
            [
              105.587206,
              13.216081
            ],
            [
              105.589019,
              13.230345
            ],
            [
              105.589256,
              13.238123
            ],
            [
              105.587141,
              13.250694
            ],
            [
              105.585954,
              13.251101
            ],
            [
              105.568731,
              13.269927
            ],
            [
              105.548894,
              13.277994
            ],
            [
              105.549667,
              13.281243
            ],
            [
              105.548678,
              13.284847
            ],
            [
              105.549898,
              13.286432
            ],
            [
              105.549893,
              13.292574
            ],
            [
              105.551301,
              13.296328
            ],
            [
              105.549335,
              13.301114
            ],
            [
              105.550086,
              13.302423
            ],
            [
              105.550029,
              13.305018
            ],
            [
              105.551171,
              13.306878
            ],
            [
              105.548929,
              13.315974
            ],
            [
              105.55009,
              13.327892
            ],
            [
              105.546728,
              13.33867
            ],
            [
              105.547095,
              13.340554
            ],
            [
              105.549489,
              13.344196
            ],
            [
              105.550162,
              13.348054
            ],
            [
              105.548681,
              13.357184
            ],
            [
              105.545751,
              13.366055
            ],
            [
              105.545725,
              13.368525
            ],
            [
              105.549214,
              13.376831
            ],
            [
              105.549771,
              13.383788
            ],
            [
              105.551396,
              13.389225
            ],
            [
              105.550416,
              13.394541
            ],
            [
              105.551132,
              13.397745
            ],
            [
              105.550377,
              13.40023
            ],
            [
              105.551526,
              13.408997
            ],
            [
              105.550473,
              13.412025
            ],
            [
              105.546744,
              13.416506
            ],
            [
              105.545102,
              13.421965
            ],
            [
              105.544411,
              13.428233
            ],
            [
              105.54606,
              13.438382
            ],
            [
              105.544886,
              13.440717
            ],
            [
              105.53876,
              13.444796
            ],
            [
              105.537666,
              13.447179
            ],
            [
              105.537639,
              13.449556
            ],
            [
              105.532616,
              13.445065
            ],
            [
              105.530832,
              13.440232
            ],
            [
              105.524396,
              13.433446
            ],
            [
              105.498973,
              13.426782
            ],
            [
              105.496441,
              13.426843
            ],
            [
              105.480082,
              13.421407
            ],
            [
              105.476202,
              13.419472
            ],
            [
              105.456932,
              13.406374
            ],
            [
              105.44825,
              13.401659
            ],
            [
              105.43351,
              13.395589
            ],
            [
              105.422233,
              13.392294
            ],
            [
              105.414524,
              13.388616
            ],
            [
              105.399472,
              13.384636
            ],
            [
              105.359129,
              13.363788
            ],
            [
              105.353151,
              13.358753
            ],
            [
              105.34824,
              13.348591
            ],
            [
              105.344815,
              13.344308
            ],
            [
              105.339689,
              13.340198
            ],
            [
              105.333872,
              13.333026
            ],
            [
              105.322512,
              13.322412
            ],
            [
              105.312076,
              13.309345
            ],
            [
              105.298058,
              13.296119
            ],
            [
              105.278817,
              13.274221
            ],
            [
              105.274522,
              13.270954
            ],
            [
              105.269927,
              13.268677
            ],
            [
              105.246459,
              13.259883
            ],
            [
              105.246033,
              13.260945
            ],
            [
              105.23706,
              13.257351
            ],
            [
              105.219657,
              13.246855
            ],
            [
              105.211791,
              13.24292
            ],
            [
              105.190994,
              13.228848
            ],
            [
              105.185455,
              13.222848
            ],
            [
              105.177378,
              13.211291
            ],
            [
              105.171352,
              13.19618
            ],
            [
              105.166992,
              13.188063
            ],
            [
              105.158204,
              13.176745
            ],
            [
              105.148105,
              13.168019
            ],
            [
              105.125364,
              13.150825
            ],
            [
              105.115576,
              13.144621
            ],
            [
              105.101161,
              13.13655
            ],
            [
              105.070184,
              13.121138
            ],
            [
              105.059499,
              13.114589
            ],
            [
              105.004991,
              13.073492
            ],
            [
              104.985222,
              13.060907
            ],
            [
              104.977062,
              13.056193
            ],
            [
              104.974269,
              13.055497
            ],
            [
              104.966285,
              13.055345
            ],
            [
              104.952563,
              13.058439
            ],
            [
              104.945568,
              13.064057
            ],
            [
              104.93365,
              13.076299
            ],
            [
              104.920511,
              13.093082
            ],
            [
              104.918964,
              13.097528
            ],
            [
              104.914831,
              13.100039
            ],
            [
              104.910229,
              13.107047
            ],
            [
              104.908593,
              13.108125
            ],
            [
              104.905825,
              13.117171
            ],
            [
              104.904309,
              13.117274
            ],
            [
              104.903995,
              13.123128
            ],
            [
              104.888068,
              13.140109
            ],
            [
              104.888036,
              13.141418
            ],
            [
              104.887193,
              13.142003
            ],
            [
              104.887678,
              13.146996
            ],
            [
              104.887155,
              13.148906
            ],
            [
              104.888422,
              13.151212
            ],
            [
              104.888843,
              13.156468
            ],
            [
              104.886999,
              13.159657
            ],
            [
              104.884654,
              13.161
            ],
            [
              104.877761,
              13.168076
            ],
            [
              104.875679,
              13.179578
            ],
            [
              104.876322,
              13.187181
            ],
            [
              104.873022,
              13.194104
            ],
            [
              104.874646,
              13.196758
            ],
            [
              104.873957,
              13.199551
            ],
            [
              104.875792,
              13.201486
            ],
            [
              104.876398,
              13.20694
            ],
            [
              104.876241,
              13.210936
            ],
            [
              104.875109,
              13.213514
            ],
            [
              104.875028,
              13.219429
            ],
            [
              104.883074,
              13.227948
            ],
            [
              104.883466,
              13.229126
            ],
            [
              104.881264,
              13.236294
            ],
            [
              104.881777,
              13.238026
            ],
            [
              104.88264,
              13.239842
            ],
            [
              104.889419,
              13.245354
            ],
            [
              104.892156,
              13.248957
            ],
            [
              104.891645,
              13.250109
            ],
            [
              104.893013,
              13.252046
            ],
            [
              104.894202,
              13.255796
            ],
            [
              104.895818,
              13.26158
            ],
            [
              104.895662,
              13.263434
            ],
            [
              104.902774,
              13.282853
            ],
            [
              104.901534,
              13.291018
            ],
            [
              104.89533,
              13.304211
            ],
            [
              104.893297,
              13.307597
            ],
            [
              104.891968,
              13.308507
            ],
            [
              104.888651,
              13.309778
            ],
            [
              104.885714,
              13.309945
            ],
            [
              104.852327,
              13.306303
            ],
            [
              104.846605,
              13.30674
            ],
            [
              104.835276,
              13.309218
            ],
            [
              104.785297,
              13.303735
            ],
            [
              104.776298,
              13.301982
            ],
            [
              104.774861,
              13.302305
            ],
            [
              104.772151,
              13.30449
            ],
            [
              104.769274,
              13.305319
            ],
            [
              104.769097,
              13.306978
            ],
            [
              104.767366,
              13.308867
            ],
            [
              104.766939,
              13.310647
            ],
            [
              104.765661,
              13.310562
            ],
            [
              104.762133,
              13.314109
            ],
            [
              104.7544,
              13.313186
            ],
            [
              104.752987,
              13.31115
            ],
            [
              104.750771,
              13.311725
            ],
            [
              104.748844,
              13.310369
            ],
            [
              104.747627,
              13.312369
            ],
            [
              104.743071,
              13.313682
            ],
            [
              104.736365,
              13.310809
            ],
            [
              104.731784,
              13.310441
            ],
            [
              104.725191,
              13.304448
            ],
            [
              104.717421,
              13.305796
            ],
            [
              104.714682,
              13.30708
            ],
            [
              104.709128,
              13.305828
            ],
            [
              104.70499,
              13.30309
            ],
            [
              104.702839,
              13.299126
            ],
            [
              104.69284,
              13.291839
            ],
            [
              104.685927,
              13.290487
            ],
            [
              104.668608,
              13.279983
            ],
            [
              104.646144,
              13.271098
            ],
            [
              104.615551,
              13.260841
            ],
            [
              104.600137,
              13.257047
            ],
            [
              104.574198,
              13.252103
            ],
            [
              104.56486,
              13.251347
            ],
            [
              104.563669,
              13.244564
            ],
            [
              104.55763,
              13.226552
            ],
            [
              104.549148,
              13.207023
            ],
            [
              104.544074,
              13.204406
            ],
            [
              104.528677,
              13.200394
            ],
            [
              104.510116,
              13.194269
            ],
            [
              104.506437,
              13.192611
            ],
            [
              104.4961,
              13.184072
            ],
            [
              104.48892,
              13.183765
            ],
            [
              104.483975,
              13.181961
            ],
            [
              104.478893,
              13.176195
            ],
            [
              104.473587,
              13.162458
            ],
            [
              104.471529,
              13.154664
            ],
            [
              104.471932,
              13.149601
            ],
            [
              104.474754,
              13.140832
            ],
            [
              104.47296,
              13.132892
            ],
            [
              104.47052,
              13.127888
            ],
            [
              104.47192,
              13.11122
            ],
            [
              104.47057,
              13.099586
            ],
            [
              104.470816,
              13.087613
            ],
            [
              104.466257,
              13.064064
            ],
            [
              104.465889,
              13.060634
            ],
            [
              104.466603,
              13.055374
            ],
            [
              104.465921,
              13.048008
            ],
            [
              104.464418,
              13.047463
            ],
            [
              104.459481,
              13.05076
            ],
            [
              104.459957,
              13.047275
            ],
            [
              104.457142,
              13.04647
            ],
            [
              104.454092,
              13.043577
            ],
            [
              104.453884,
              13.042258
            ],
            [
              104.454465,
              13.041678
            ],
            [
              104.452157,
              13.036245
            ],
            [
              104.452742,
              13.033997
            ],
            [
              104.453495,
              13.033547
            ],
            [
              104.452997,
              13.032279
            ],
            [
              104.453774,
              13.030438
            ],
            [
              104.452661,
              13.028983
            ],
            [
              104.453081,
              13.027081
            ],
            [
              104.451723,
              13.023979
            ],
            [
              104.452583,
              13.022715
            ],
            [
              104.4526,
              13.020621
            ],
            [
              104.454763,
              13.019941
            ],
            [
              104.456457,
              13.016984
            ],
            [
              104.457827,
              13.017143
            ],
            [
              104.460812,
              13.014719
            ],
            [
              104.459866,
              13.01314
            ],
            [
              104.460911,
              13.011462
            ],
            [
              104.459294,
              13.009288
            ],
            [
              104.458505,
              13.00953
            ],
            [
              104.457807,
              13.008509
            ],
            [
              104.458192,
              13.007088
            ],
            [
              104.456941,
              13.006465
            ],
            [
              104.4573,
              13.00507
            ],
            [
              104.45667,
              13.004087
            ],
            [
              104.457753,
              13.003042
            ],
            [
              104.457427,
              13.001413
            ],
            [
              104.454318,
              13.000437
            ],
            [
              104.453892,
              13.00253
            ],
            [
              104.452492,
              13.003794
            ],
            [
              104.451865,
              13.001208
            ],
            [
              104.449688,
              13.002665
            ],
            [
              104.447464,
              13.000888
            ],
            [
              104.447358,
              12.998388
            ],
            [
              104.444908,
              12.996881
            ],
            [
              104.444812,
              12.995284
            ],
            [
              104.445879,
              12.994956
            ],
            [
              104.445954,
              12.994256
            ],
            [
              104.44418,
              12.989169
            ],
            [
              104.441648,
              12.987582
            ],
            [
              104.440221,
              12.985346
            ],
            [
              104.438487,
              12.985314
            ],
            [
              104.436807,
              12.984271
            ],
            [
              104.42663,
              12.986184
            ],
            [
              104.423012,
              12.986051
            ],
            [
              104.416415,
              12.978905
            ],
            [
              104.402021,
              12.957851
            ],
            [
              104.396912,
              12.954504
            ],
            [
              104.392539,
              12.9554
            ],
            [
              104.391476,
              12.954934
            ],
            [
              104.386655,
              12.948659
            ],
            [
              104.381478,
              12.945002
            ],
            [
              104.380044,
              12.942029
            ],
            [
              104.379041,
              12.941473
            ],
            [
              104.378916,
              12.938875
            ],
            [
              104.378092,
              12.937803
            ],
            [
              104.376682,
              12.936589
            ],
            [
              104.373477,
              12.936054
            ],
            [
              104.371588,
              12.932943
            ],
            [
              104.370959,
              12.92855
            ],
            [
              104.368722,
              12.926849
            ],
            [
              104.367802,
              12.924168
            ],
            [
              104.369969,
              12.920181
            ],
            [
              104.369722,
              12.91848
            ],
            [
              104.362588,
              12.904012
            ],
            [
              104.359773,
              12.901124
            ],
            [
              104.356117,
              12.899748
            ],
            [
              104.350823,
              12.896251
            ],
            [
              104.345661,
              12.898003
            ],
            [
              104.335525,
              12.895811
            ],
            [
              104.333703,
              12.895065
            ],
            [
              104.326532,
              12.888673
            ],
            [
              104.323893,
              12.88945
            ],
            [
              104.319292,
              12.885863
            ],
            [
              104.314681,
              12.883862
            ],
            [
              104.312095,
              12.88371
            ],
            [
              104.308533,
              12.885976
            ],
            [
              104.30787,
              12.885341
            ],
            [
              104.307812,
              12.883364
            ],
            [
              104.304348,
              12.87968
            ],
            [
              104.303727,
              12.877816
            ],
            [
              104.298917,
              12.878942
            ],
            [
              104.296688,
              12.876696
            ],
            [
              104.293916,
              12.878024
            ],
            [
              104.288977,
              12.87795
            ],
            [
              104.287854,
              12.877761
            ],
            [
              104.287057,
              12.876217
            ],
            [
              104.285773,
              12.875623
            ],
            [
              104.281381,
              12.875873
            ],
            [
              104.279812,
              12.874153
            ],
            [
              104.279717,
              12.872625
            ],
            [
              104.281438,
              12.869026
            ],
            [
              104.280884,
              12.867702
            ],
            [
              104.276948,
              12.864704
            ],
            [
              104.275439,
              12.864444
            ],
            [
              104.269663,
              12.867087
            ],
            [
              104.268672,
              12.866426
            ],
            [
              104.266832,
              12.863279
            ],
            [
              104.2689,
              12.858512
            ],
            [
              104.268734,
              12.856948
            ],
            [
              104.255514,
              12.845384
            ],
            [
              104.246649,
              12.83544
            ],
            [
              104.244271,
              12.831613
            ],
            [
              104.244214,
              12.827844
            ],
            [
              104.243571,
              12.826824
            ],
            [
              104.240776,
              12.82493
            ],
            [
              104.236578,
              12.818226
            ],
            [
              104.231956,
              12.814912
            ],
            [
              104.232864,
              12.812131
            ],
            [
              104.232685,
              12.809055
            ],
            [
              104.23189,
              12.808058
            ],
            [
              104.227983,
              12.806722
            ],
            [
              104.227056,
              12.805548
            ],
            [
              104.227077,
              12.803709
            ],
            [
              104.22933,
              12.801108
            ],
            [
              104.229425,
              12.799018
            ],
            [
              104.226631,
              12.798089
            ],
            [
              104.220939,
              12.800108
            ],
            [
              104.219668,
              12.795937
            ],
            [
              104.215944,
              12.794202
            ],
            [
              104.173482,
              12.772049
            ]
          ]
        ]
      }
    }
  ]
}
