{
  "type": "FeatureCollection",
  "features": [
    {
      "type": "Feature",
      "properties": {
        "geo_id": "geo_kh_0036",
        "name": "Takeo",
        "boundary_level": "province",
        "osm_type": "relation",
        "osm_id": 2200220,
        "source_checked_at": "2026-10-01"
      },
      "geometry": {
        "type": "Polygon",
        "coordinates": [
          [
            [
              104.410166,
              11.110994
            ],
            [
              104.410272,
              11.077497
            ],
            [
              104.416222,
              11.081128
            ],
            [
              104.419938,
              11.082353
            ],
            [
              104.424553,
              11.08258
            ],
            [
              104.427319,
              11.081177
            ],
            [
              104.428417,
              11.08209
            ],
            [
              104.430016,
              11.081276
            ],
            [
              104.431747,
              11.081563
            ],
            [
              104.438727,
              11.075028
            ],
            [
              104.455044,
              11.069876
            ],
            [
              104.455099,
              11.057883
            ],
            [
              104.460986,
              11.063633
            ],
            [
              104.468407,
              11.056963
            ],
            [
              104.487641,
              11.070874
            ],
            [
              104.486828,
              11.059655
            ],
            [
              104.496227,
              11.059336
            ],
            [
              104.499541,
              11.05835
            ],
            [
              104.513044,
              11.039657
            ],
            [
              104.522791,
              11.024471
            ],
            [
              104.523609,
              11.020333
            ],
            [
              104.528279,
              11.012323
            ],
            [
              104.530465,
              11.006181
            ],
            [
              104.532992,
              11.002257
            ],
            [
              104.534441,
              10.993166
            ],
            [
              104.538148,
              10.987267
            ],
            [
              104.541524,
              10.963931
            ],
            [
              104.539478,
              10.950943
            ],
            [
              104.540997,
              10.929955
            ],
            [
              104.52228,
              10.894262
            ],
            [
              104.535852,
              10.88699
            ],
            [
              104.547373,
              10.886222
            ],
            [
              104.563196,
              10.888076
            ],
            [
              104.584686,
              10.886082
            ],
            [
              104.597822,
              10.891968
            ],
            [
              104.618152,
              10.902383
            ],
            [
              104.623773,
              10.901152
            ],
            [
              104.625871,
              10.901355
            ],
            [
              104.631596,
              10.904984
            ],
            [
              104.654043,
              10.907032
            ],
            [
              104.65756,
              10.906446
            ],
            [
              104.673625,
              10.898695
            ],
            [
              104.674342,
              10.894127
            ],
            [
              104.677766,
              10.893623
            ],
            [
              104.686011,
              10.880994
            ],
            [
              104.68763,
              10.879519
            ],
            [
              104.68868,
              10.875434
            ],
            [
              104.691841,
              10.871563
            ],
            [
              104.698158,
              10.859433
            ],
            [
              104.698957,
              10.854452
            ],
            [
              104.700931,
              10.851255
            ],
            [
              104.704596,
              10.840689
            ],
            [
              104.706527,
              10.838952
            ],
            [
              104.706879,
              10.83585
            ],
            [
              104.706248,
              10.834136
            ],
            [
              104.703778,
              10.831566
            ],
            [
              104.704819,
              10.826999
            ],
            [
              104.704836,
              10.82043
            ],
            [
              104.705538,
              10.818996
            ],
            [
              104.704918,
              10.812298
            ],
            [
              104.705217,
              10.81037
            ],
            [
              104.706924,
              10.809709
            ],
            [
              104.707137,
              10.808814
            ],
            [
              104.70594,
              10.806708
            ],
            [
              104.710064,
              10.802496
            ],
            [
              104.712284,
              10.798506
            ],
            [
              104.714713,
              10.797182
            ],
            [
              104.716248,
              10.793638
            ],
            [
              104.72161,
              10.789729
            ],
            [
              104.722946,
              10.78654
            ],
            [
              104.723168,
              10.783417
            ],
            [
              104.727076,
              10.780594
            ],
            [
              104.723754,
              10.77662
            ],
            [
              104.715063,
              10.772995
            ],
            [
              104.704221,
              10.765296
            ],
            [
              104.702678,
              10.762856
            ],
            [
              104.70243,
              10.755964
            ],
            [
              104.69948,
              10.754426
            ],
            [
              104.699168,
              10.751275
            ],
            [
              104.700579,
              10.749503
            ],
            [
              104.699365,
              10.748051
            ],
            [
              104.699302,
              10.746823
            ],
            [
              104.700498,
              10.743595
            ],
            [
              104.702199,
              10.741948
            ],
            [
              104.702146,
              10.74001
            ],
            [
              104.699414,
              10.739515
            ],
            [
              104.697309,
              10.732606
            ],
            [
              104.691556,
              10.725734
            ],
            [
              104.69042,
              10.723168
            ],
            [
              104.687171,
              10.720886
            ],
            [
              104.687021,
              10.718043
            ],
            [
              104.683182,
              10.71348
            ],
            [
              104.683394,
              10.711081
            ],
            [
              104.6816,
              10.706454
            ],
            [
              104.680147,
              10.70623
            ],
            [
              104.675397,
              10.703151
            ],
            [
              104.672808,
              10.700201
            ],
            [
              104.671482,
              10.696557
            ],
            [
              104.670539,
              10.696096
            ],
            [
              104.673275,
              10.691504
            ],
            [
              104.674707,
              10.683295
            ],
            [
              104.673756,
              10.680397
            ],
            [
              104.674669,
              10.676344
            ],
            [
              104.673632,
              10.672263
            ],
            [
              104.674394,
              10.667878
            ],
            [
              104.673969,
              10.66609
            ],
            [
              104.675152,
              10.662403
            ],
            [
              104.67497,
              10.657265
            ],
            [
              104.673171,
              10.651489
            ],
            [
              104.67488,
              10.648867
            ],
            [
              104.676922,
              10.635942
            ],
            [
              104.673616,
              10.621327
            ],
            [
              104.705365,
              10.619494
            ],
            [
              104.708185,
              10.619058
            ],
            [
              104.709874,
              10.61756
            ],
            [
              104.711476,
              10.611439
            ],
            [
              104.711533,
              10.60537
            ],
            [
              104.706874,
              10.595396
            ],
            [
              104.70658,
              10.585451
            ],
            [
              104.706899,
              10.583729
            ],
            [
              104.712756,
              10.5793
            ],
            [
              104.712181,
              10.577581
            ],
            [
              104.713137,
              10.575788
            ],
            [
              104.713111,
              10.571945
            ],
            [
              104.711832,
              10.568359
            ],
            [
              104.711411,
              10.561651
            ],
            [
              104.711585,
              10.555718
            ],
            [
              104.712501,
              10.552239
            ],
            [
              104.711791,
              10.548765
            ],
            [
              104.713448,
              10.545088
            ],
            [
              104.713159,
              10.542381
            ],
            [
              104.715608,
              10.539469
            ],
            [
              104.716724,
              10.539729
            ],
            [
              104.71824,
              10.538597
            ],
            [
              104.718025,
              10.537119
            ],
            [
              104.718788,
              10.53614
            ],
            [
              104.71814,
              10.533814
            ],
            [
              104.715677,
              10.533377
            ],
            [
              104.714971,
              10.531696
            ],
            [
              104.753349,
              10.518909
            ],
            [
              104.790751,
              10.519507
            ],
            [
              104.799517,
              10.520356
            ],
            [
              104.823712,
              10.520558
            ],
            [
              104.829383,
              10.519623
            ],
            [
              104.846192,
              10.520448
            ],
            [
              104.852537,
              10.520077
            ],
            [
              104.868515,
              10.521693
            ],
            [
              104.899804,
              10.550044
            ],
            [
              104.91812,
              10.579182
            ],
            [
              104.928971,
              10.602706
            ],
            [
              104.935145,
              10.613855
            ],
            [
              104.953845,
              10.636721
            ],
            [
              104.963391,
              10.642849
            ],
            [
              104.96415,
              10.643431
            ],
            [
              104.963791,
              10.644214
            ],
            [
              104.978163,
              10.650231
            ],
            [
              104.983476,
              10.654658
            ],
            [
              105.019493,
              10.675016
            ],
            [
              105.019214,
              10.676169
            ],
            [
              105.098289,
              10.721654
            ],
            [
              105.092446,
              10.756134
            ],
            [
              105.076236,
              10.778311
            ],
            [
              105.064161,
              10.780492
            ],
            [
              105.062733,
              10.797324
            ],
            [
              105.058082,
              10.806021
            ],
            [
              105.058934,
              10.819856
            ],
            [
              105.055704,
              10.827991
            ],
            [
              105.053495,
              10.831179
            ],
            [
              105.049707,
              10.839721
            ],
            [
              105.046404,
              10.842179
            ],
            [
              105.045598,
              10.844399
            ],
            [
              105.044156,
              10.845382
            ],
            [
              105.044028,
              10.847196
            ],
            [
              105.04347,
              10.847066
            ],
            [
              105.038664,
              10.860472
            ],
            [
              105.034022,
              10.868267
            ],
            [
              105.034329,
              10.869578
            ],
            [
              105.033102,
              10.871994
            ],
            [
              105.032232,
              10.879574
            ],
            [
              105.029093,
              10.889307
            ],
            [
              105.028476,
              10.892278
            ],
            [
              105.037281,
              10.896707
            ],
            [
              105.013334,
              10.947435
            ],
            [
              105.004166,
              10.964804
            ],
            [
              105.003202,
              10.969129
            ],
            [
              105.000543,
              10.971168
            ],
            [
              105.000141,
              10.974659
            ],
            [
              104.997815,
              10.97699
            ],
            [
              104.998911,
              10.980869
            ],
            [
              104.997927,
              10.986481
            ],
            [
              104.993141,
              10.990105
            ],
            [
              104.98957,
              10.990828
            ],
            [
              104.990884,
              10.995935
            ],
            [
              104.994064,
              10.999165
            ],
            [
              104.99257,
              11.001133
            ],
            [
              104.990594,
              11.006808
            ],
            [
              104.997898,
              11.028449
            ],
            [
              104.997557,
              11.030332
            ],
            [
              104.994853,
              11.032458
            ],
            [
              104.994071,
              11.034813
            ],
            [
              104.992596,
              11.035421
            ],
            [
              104.992502,
              11.036201
            ],
            [
              104.993318,
              11.039672
            ],
            [
              104.998747,
              11.049836
            ],
            [
              104.998244,
              11.052328
            ],
            [
              104.996015,
              11.054063
            ],
            [
              104.99576,
              11.055472
            ],
            [
              104.997392,
              11.05768
            ],
            [
              105.000809,
              11.056806
            ],
            [
              105.001403,
              11.057285
            ],
            [
              105.003062,
              11.066709
            ],
            [
              105.006289,
              11.072691
            ],
            [
              105.006299,
              11.076955
            ],
            [
              105.009867,
              11.081308
            ],
            [
              105.01094,
              11.086585
            ],
            [
              105.010745,
              11.095213
            ],
            [
              105.015386,
              11.097062
            ],
            [
              105.01761,
              11.099469
            ],
            [
              105.017824,
              11.102609
            ],
            [
              105.016927,
              11.107405
            ],
            [
              105.017298,
              11.111661
            ],
            [
              105.017786,
              11.114319
            ],
            [
              105.019247,
              11.116061
            ],
            [
              105.019984,
              11.116064
            ],
            [
              105.020048,
              11.11715
            ],
            [
              105.017584,
              11.118185
            ],
            [
              105.015583,
              11.123159
            ],
            [
              105.015739,
              11.124912
            ],
            [
              105.017319,
              11.124835
            ],
            [
              105.018625,
              11.125759
            ],
            [
              105.019191,
              11.127704
            ],
            [
              105.019074,
              11.131075
            ],
            [
              105.016324,
              11.136198
            ],
            [
              105.019055,
              11.140628
            ],
            [
              105.018841,
              11.146945
            ],
            [
              105.021221,
              11.148813
            ],
            [
              105.021299,
              11.14966
            ],
            [
              105.019641,
              11.151683
            ],
            [
              105.020636,
              11.154456
            ],
            [
              105.019337,
              11.156496
            ],
            [
              105.025547,
              11.158755
            ],
            [
              105.026686,
              11.161159
            ],
            [
              105.023658,
              11.163756
            ],
            [
              105.017243,
              11.163084
            ],
            [
              105.012346,
              11.160916
            ],
            [
              105.013829,
              11.16347
            ],
            [
              105.014208,
              11.165897
            ],
            [
              105.016773,
              11.165242
            ],
            [
              105.017845,
              11.166096
            ],
            [
              105.017859,
              11.167877
            ],
            [
              105.019792,
              11.16867
            ],
            [
              105.018802,
              11.172216
            ],
            [
              105.017597,
              11.173108
            ],
            [
              104.996125,
              11.172528
            ],
            [
              104.98656,
              11.17367
            ],
            [
              104.979564,
              11.183157
            ],
            [
              104.982653,
              11.190639
            ],
            [
              104.985231,
              11.203822
            ],
            [
              104.982986,
              11.209518
            ],
            [
              104.98052,
              11.221036
            ],
            [
              104.958277,
              11.233895
            ],
            [
              104.940804,
              11.24167
            ],
            [
              104.938112,
              11.244052
            ],
            [
              104.9337,
              11.250655
            ],
            [
              104.92812,
              11.26499
            ],
            [
              104.927069,
              11.270421
            ],
            [
              104.936431,
              11.287775
            ],
            [
              104.939473,
              11.29844
            ],
            [
              104.939256,
              11.326612
            ],
            [
              104.938502,
              11.328235
            ],
            [
              104.932895,
              11.329393
            ],
            [
              104.931028,
              11.328409
            ],
            [
              104.930934,
              11.3277
            ],
            [
              104.928747,
              11.327974
            ],
            [
              104.927313,
              11.326687
            ],
            [
              104.925264,
              11.326715
            ],
            [
              104.923693,
              11.328544
            ],
            [
              104.920411,
              11.329782
            ],
            [
              104.917661,
              11.32721
            ],
            [
              104.91613,
              11.326955
            ],
            [
              104.895013,
              11.349193
            ],
            [
              104.893939,
              11.349528
            ],
            [
              104.891927,
              11.348224
            ],
            [
              104.890522,
              11.3497
            ],
            [
              104.887489,
              11.347368
            ],
            [
              104.886204,
              11.349241
            ],
            [
              104.883501,
              11.349477
            ],
            [
              104.882906,
              11.347366
            ],
            [
              104.880075,
              11.349309
            ],
            [
              104.879139,
              11.348065
            ],
            [
              104.877477,
              11.348181
            ],
            [
              104.876236,
              11.3467
            ],
            [
              104.874398,
              11.348478
            ],
            [
              104.875133,
              11.351438
            ],
            [
              104.873516,
              11.351311
            ],
            [
              104.872486,
              11.350369
            ],
            [
              104.869214,
              11.350515
            ],
            [
              104.867921,
              11.351452
            ],
            [
              104.865784,
              11.34965
            ],
            [
              104.863618,
              11.350293
            ],
            [
              104.860559,
              11.348743
            ],
            [
              104.859597,
              11.347103
            ],
            [
              104.85821,
              11.347261
            ],
            [
              104.858293,
              11.343842
            ],
            [
              104.856027,
              11.343759
            ],
            [
              104.852992,
              11.341687
            ],
            [
              104.847514,
              11.343239
            ],
            [
              104.834947,
              11.341984
            ],
            [
              104.830782,
              11.345206
            ],
            [
              104.821623,
              11.345984
            ],
            [
              104.82078,
              11.34714
            ],
            [
              104.818786,
              11.347936
            ],
            [
              104.815793,
              11.348004
            ],
            [
              104.808323,
              11.352521
            ],
            [
              104.800532,
              11.35304
            ],
            [
              104.791349,
              11.349949
            ],
            [
              104.784787,
              11.349095
            ],
            [
              104.77713,
              11.345976
            ],
            [
              104.771345,
              11.345815
            ],
            [
              104.759995,
              11.338109
            ],
            [
              104.756288,
              11.336727
            ],
            [
              104.752825,
              11.337931
            ],
            [
              104.732334,
              11.351192
            ],
            [
              104.710717,
              11.323795
            ],
            [
              104.709992,
              11.322032
            ],
            [
              104.705714,
              11.297661
            ],
            [
              104.70644,
              11.284188
            ],
            [
              104.691253,
              11.205598
            ],
            [
              104.689564,
              11.184801
            ],
            [
              104.684871,
              11.168967
            ],
            [
              104.683511,
              11.156778
            ],
            [
              104.686738,
              11.126724
            ],
            [
              104.684337,
              11.089993
            ],
            [
              104.67925,
              11.091655
            ],
            [
              104.676402,
              11.091041
            ],
            [
              104.674684,
              11.091574
            ],
            [
              104.673873,
              11.088871
            ],
            [
              104.66903,
              11.086165
            ],
            [
              104.658935,
              11.085332
            ],
            [
              104.654749,
              11.082949
            ],
            [
              104.651157,
              11.08361
            ],
            [
              104.647217,
              11.082999
            ],
            [
              104.642941,
              11.085498
            ],
            [
              104.64198,
              11.084699
            ],
            [
              104.63985,
              11.079545
            ],
            [
              104.636779,
              11.078081
            ],
            [
              104.634619,
              11.078007
            ],
            [
              104.628526,
              11.080019
            ],
            [
              104.627334,
              11.082712
            ],
            [
              104.62579,
              11.083623
            ],
            [
              104.619418,
              11.083961
            ],
            [
              104.613073,
              11.085553
            ],
            [
              104.606445,
              11.08542
            ],
            [
              104.602146,
              11.086995
            ],
            [
              104.596067,
              11.087825
            ],
            [
              104.57633,
              11.097092
            ],
            [
              104.565438,
              11.098635
            ],
            [
              104.562255,
              11.100321
            ],
            [
              104.557347,
              11.099953
            ],
            [
              104.551237,
              11.1033
            ],
            [
              104.538545,
              11.106628
            ],
            [
              104.534273,
              11.110638
            ],
            [
              104.529113,
              11.112374
            ],
            [
              104.524762,
              11.11744
            ],
            [
              104.520407,
              11.120829
            ],
            [
              104.516612,
              11.125158
            ],
            [
              104.515204,
              11.130954
            ],
            [
              104.508309,
              11.131476
            ],
            [
              104.499484,
              11.125691
            ],
            [
              104.485524,
              11.123015
            ],
            [
              104.485821,
              11.12397
            ],
            [
              104.479187,
              11.124593
            ],
            [
              104.473737,
              11.123992
            ],
            [
              104.472504,
              11.125041
            ],
            [
              104.471357,
              11.124156
            ],
            [
              104.467536,
              11.126097
            ],
            [
              104.465815,
              11.124988
            ],
            [
              104.465103,
              11.125412
            ],
            [
              104.464167,
              11.124179
            ],
            [
              104.461534,
              11.124633
            ],
            [
              104.459956,
              11.123436
            ],
            [
              104.458257,
              11.124871
            ],
            [
              104.455079,
              11.125251
            ],
            [
              104.45476,
              11.127165
            ],
            [
              104.450355,
              11.128812
            ],
            [
              104.449556,
              11.129027
            ],
            [
              104.448436,
              11.127708
            ],
            [
              104.446744,
              11.129624
            ],
            [
              104.445238,
              11.130137
            ],
            [
              104.445291,
              11.131709
            ],
            [
              104.444231,
              11.132099
            ],
            [
              104.436954,
              11.131545
            ],
            [
              104.436517,
              11.13208
            ],
            [
              104.435185,
              11.13049
            ],
            [
              104.4355,
              11.129779
            ],
            [
              104.43378,
              11.128291
            ],
            [
              104.432642,
              11.128586
            ],
            [
              104.431913,
              11.127772
            ],
            [
              104.430352,
              11.128892
            ],
            [
              104.428699,
              11.12784
            ],
            [
              104.427572,
              11.129547
            ],
            [
              104.422743,
              11.130962
            ],
            [
              104.422075,
              11.132888
            ],
            [
              104.420734,
              11.131916
            ],
            [
              104.417691,
              11.131394
            ],
            [
              104.416639,
              11.132953
            ],
            [
              104.412738,
              11.134455
            ],
            [
              104.410283,
              11.137618
            ],
            [
              104.410166,
              11.110994
            ]
          ]
        ]
      }
    }
  ]
}
