{
  "type": "FeatureCollection",
  "features": [
    {
      "type": "Feature",
      "properties": {
        "geo_id": "geo_mm_0004",
        "name": "Shan State / Inle / Kakku",
        "component": "Shan",
        "source_authority": "geoBoundaries / Myanmar Analytics Project",
        "source_admin_name": "Shan"
      },
      "geometry": {
        "type": "Polygon",
        "coordinates": [
          [
            [
              96.393,
              23.57
            ],
            [
              96.31,
              23.498
            ],
            [
              96.317,
              23.477
            ],
            [
              96.292,
              23.457
            ],
            [
              96.304,
              23.428
            ],
            [
              96.247,
              23.402
            ],
            [
              96.234,
              23.34
            ],
            [
              96.215,
              23.332
            ],
            [
              96.19,
              23.357
            ],
            [
              96.17,
              23.346
            ],
            [
              96.167,
              23.318
            ],
            [
              96.198,
              23.298
            ],
            [
              96.153,
              23.121
            ],
            [
              96.194,
              23.091
            ],
            [
              96.197,
              23.039
            ],
            [
              96.237,
              23.014
            ],
            [
              96.335,
              23.004
            ],
            [
              96.455,
              23.034
            ],
            [
              96.47,
              23.023
            ],
            [
              96.515,
              23.053
            ],
            [
              96.624,
              22.98
            ],
            [
              96.68,
              22.985
            ],
            [
              96.713,
              22.96
            ],
            [
              96.716,
              22.937
            ],
            [
              96.64,
              22.824
            ],
            [
              96.54,
              22.83
            ],
            [
              96.458,
              22.785
            ],
            [
              96.395,
              22.806
            ],
            [
              96.356,
              22.778
            ],
            [
              96.273,
              22.793
            ],
            [
              96.204,
              22.738
            ],
            [
              96.218,
              22.693
            ],
            [
              96.242,
              22.7
            ],
            [
              96.24,
              22.639
            ],
            [
              96.298,
              22.573
            ],
            [
              96.29,
              22.529
            ],
            [
              96.331,
              22.504
            ],
            [
              96.329,
              22.368
            ],
            [
              96.409,
              22.364
            ],
            [
              96.473,
              22.256
            ],
            [
              96.495,
              22.143
            ],
            [
              96.548,
              22.14
            ],
            [
              96.558,
              22.11
            ],
            [
              96.639,
              22.111
            ],
            [
              96.656,
              22.089
            ],
            [
              96.754,
              22.071
            ],
            [
              96.755,
              22.007
            ],
            [
              96.857,
              21.869
            ],
            [
              96.844,
              21.846
            ],
            [
              96.876,
              21.823
            ],
            [
              96.896,
              21.743
            ],
            [
              96.849,
              21.741
            ],
            [
              96.807,
              21.774
            ],
            [
              96.807,
              21.745
            ],
            [
              96.766,
              21.716
            ],
            [
              96.738,
              21.705
            ],
            [
              96.704,
              21.726
            ],
            [
              96.683,
              21.711
            ],
            [
              96.581,
              21.595
            ],
            [
              96.545,
              21.599
            ],
            [
              96.466,
              21.556
            ],
            [
              96.341,
              21.551
            ],
            [
              96.321,
              21.535
            ],
            [
              96.341,
              21.489
            ],
            [
              96.318,
              21.463
            ],
            [
              96.287,
              21.463
            ],
            [
              96.306,
              21.371
            ],
            [
              96.291,
              21.357
            ],
            [
              96.313,
              21.351
            ],
            [
              96.336,
              21.241
            ],
            [
              96.377,
              21.176
            ],
            [
              96.363,
              21.16
            ],
            [
              96.294,
              21.173
            ],
            [
              96.232,
              21.151
            ],
            [
              96.218,
              21.129
            ],
            [
              96.23,
              21.089
            ],
            [
              96.204,
              21.071
            ],
            [
              96.218,
              21.005
            ],
            [
              96.244,
              21.002
            ],
            [
              96.246,
              20.98
            ],
            [
              96.389,
              20.929
            ],
            [
              96.428,
              20.943
            ],
            [
              96.434,
              20.918
            ],
            [
              96.468,
              20.903
            ],
            [
              96.507,
              20.921
            ],
            [
              96.523,
              20.887
            ],
            [
              96.55,
              20.893
            ],
            [
              96.574,
              20.871
            ],
            [
              96.564,
              20.783
            ],
            [
              96.479,
              20.769
            ],
            [
              96.455,
              20.731
            ],
            [
              96.461,
              20.703
            ],
            [
              96.439,
              20.692
            ],
            [
              96.517,
              20.579
            ],
            [
              96.553,
              20.598
            ],
            [
              96.544,
              20.512
            ],
            [
              96.492,
              20.508
            ],
            [
              96.495,
              20.479
            ],
            [
              96.473,
              20.471
            ],
            [
              96.461,
              20.427
            ],
            [
              96.547,
              20.222
            ],
            [
              96.441,
              20.136
            ],
            [
              96.476,
              20.07
            ],
            [
              96.468,
              20.056
            ],
            [
              96.443,
              20.052
            ],
            [
              96.428,
              20.02
            ],
            [
              96.403,
              20.031
            ],
            [
              96.363,
              20.013
            ],
            [
              96.455,
              19.895
            ],
            [
              96.454,
              19.85
            ],
            [
              96.521,
              19.858
            ],
            [
              96.607,
              19.732
            ],
            [
              96.656,
              19.695
            ],
            [
              96.546,
              19.617
            ],
            [
              96.552,
              19.592
            ],
            [
              96.648,
              19.577
            ],
            [
              96.685,
              19.449
            ],
            [
              96.728,
              19.448
            ],
            [
              96.801,
              19.404
            ],
            [
              96.859,
              19.301
            ],
            [
              96.889,
              19.375
            ],
            [
              96.966,
              19.427
            ],
            [
              96.944,
              19.457
            ],
            [
              96.909,
              19.461
            ],
            [
              96.876,
              19.522
            ],
            [
              96.909,
              19.532
            ],
            [
              96.9,
              19.558
            ],
            [
              96.945,
              19.586
            ],
            [
              96.969,
              19.632
            ],
            [
              97.016,
              19.65
            ],
            [
              97.015,
              19.691
            ],
            [
              97.128,
              19.715
            ],
            [
              97.116,
              19.751
            ],
            [
              97.159,
              19.768
            ],
            [
              97.134,
              19.799
            ],
            [
              97.162,
              19.836
            ],
            [
              97.141,
              19.903
            ],
            [
              97.157,
              19.956
            ],
            [
              97.147,
              19.992
            ],
            [
              97.209,
              19.989
            ],
            [
              97.222,
              19.908
            ],
            [
              97.259,
              19.892
            ],
            [
              97.329,
              19.898
            ],
            [
              97.335,
              19.931
            ],
            [
              97.385,
              19.956
            ],
            [
              97.443,
              19.88
            ],
            [
              97.517,
              19.897
            ],
            [
              97.541,
              19.881
            ],
            [
              97.528,
              19.865
            ],
            [
              97.547,
              19.834
            ],
            [
              97.592,
              19.831
            ],
            [
              97.562,
              19.732
            ],
            [
              97.606,
              19.687
            ],
            [
              97.676,
              19.662
            ],
            [
              97.736,
              19.656
            ],
            [
              97.747,
              19.676
            ],
            [
              97.796,
              19.647
            ],
            [
              97.831,
              19.656
            ],
            [
              97.859,
              19.635
            ],
            [
              97.863,
              19.575
            ],
            [
              97.961,
              19.593
            ],
            [
              97.972,
              19.635
            ],
            [
              98.048,
              19.653
            ],
            [
              98.025,
              19.724
            ],
            [
              98.048,
              19.815
            ],
            [
              98.084,
              19.809
            ],
            [
              98.101,
              19.772
            ],
            [
              98.139,
              19.787
            ],
            [
              98.183,
              19.761
            ],
            [
              98.192,
              19.739
            ],
            [
              98.231,
              19.726
            ],
            [
              98.252,
              19.675
            ],
            [
              98.392,
              19.705
            ],
            [
              98.44,
              19.686
            ],
            [
              98.509,
              19.716
            ],
            [
              98.568,
              19.672
            ],
            [
              98.572,
              19.703
            ],
            [
              98.627,
              19.713
            ],
            [
              98.712,
              19.769
            ],
            [
              98.783,
              19.753
            ],
            [
              98.839,
              19.815
            ],
            [
              98.916,
              19.741
            ],
            [
              98.932,
              19.764
            ],
            [
              99.009,
              19.789
            ],
            [
              99.036,
              19.865
            ],
            [
              99.023,
              19.906
            ],
            [
              99.044,
              19.949
            ],
            [
              99.032,
              19.976
            ],
            [
              99.055,
              20.003
            ],
            [
              99.044,
              20.036
            ],
            [
              99.079,
              20.101
            ],
            [
              99.212,
              20.131
            ],
            [
              99.329,
              20.064
            ],
            [
              99.497,
              20.116
            ],
            [
              99.513,
              20.152
            ],
            [
              99.552,
              20.177
            ],
            [
              99.565,
              20.207
            ],
            [
              99.523,
              20.233
            ],
            [
              99.507,
              20.323
            ],
            [
              99.457,
              20.363
            ],
            [
              99.458,
              20.392
            ],
            [
              99.612,
              20.331
            ],
            [
              99.645,
              20.344
            ],
            [
              99.682,
              20.317
            ],
            [
              99.731,
              20.351
            ],
            [
              99.808,
              20.336
            ],
            [
              99.868,
              20.443
            ],
            [
              99.959,
              20.466
            ],
            [
              99.991,
              20.422
            ],
            [
              100.07,
              20.393
            ],
            [
              100.084,
              20.361
            ],
            [
              100.121,
              20.404
            ],
            [
              100.127,
              20.487
            ],
            [
              100.181,
              20.649
            ],
            [
              100.254,
              20.75
            ],
            [
              100.364,
              20.825
            ],
            [
              100.567,
              20.822
            ],
            [
              100.648,
              20.88
            ],
            [
              100.639,
              20.898
            ],
            [
              100.555,
              20.87
            ],
            [
              100.509,
              20.889
            ],
            [
              100.526,
              20.962
            ],
            [
              100.554,
              20.998
            ],
            [
              100.546,
              21.023
            ],
            [
              100.593,
              21.029
            ],
            [
              100.636,
              21.062
            ],
            [
              100.644,
              21.102
            ],
            [
              100.695,
              21.174
            ],
            [
              100.723,
              21.31
            ],
            [
              100.809,
              21.293
            ],
            [
              100.847,
              21.305
            ],
            [
              100.889,
              21.351
            ],
            [
              101,
              21.386
            ],
            [
              101.054,
              21.45
            ],
            [
              101.164,
              21.528
            ],
            [
              101.139,
              21.572
            ],
            [
              101.17,
              21.606
            ],
            [
              101.151,
              21.672
            ],
            [
              101.116,
              21.693
            ],
            [
              101.118,
              21.778
            ],
            [
              101.086,
              21.776
            ],
            [
              101.013,
              21.709
            ],
            [
              100.883,
              21.69
            ],
            [
              100.813,
              21.621
            ],
            [
              100.791,
              21.571
            ],
            [
              100.669,
              21.48
            ],
            [
              100.574,
              21.451
            ],
            [
              100.537,
              21.472
            ],
            [
              100.486,
              21.456
            ],
            [
              100.432,
              21.541
            ],
            [
              100.391,
              21.522
            ],
            [
              100.351,
              21.531
            ],
            [
              100.315,
              21.492
            ],
            [
              100.247,
              21.466
            ],
            [
              100.187,
              21.52
            ],
            [
              100.169,
              21.485
            ],
            [
              100.126,
              21.512
            ],
            [
              100.107,
              21.593
            ],
            [
              100.153,
              21.65
            ],
            [
              100.171,
              21.65
            ],
            [
              100.168,
              21.666
            ],
            [
              100.116,
              21.706
            ],
            [
              100.05,
              21.667
            ],
            [
              100.032,
              21.676
            ],
            [
              100.032,
              21.694
            ],
            [
              99.982,
              21.717
            ],
            [
              99.945,
              21.815
            ],
            [
              99.944,
              21.861
            ],
            [
              99.996,
              21.974
            ],
            [
              99.961,
              22.026
            ],
            [
              99.971,
              22.058
            ],
            [
              99.879,
              22.069
            ],
            [
              99.862,
              22.059
            ],
            [
              99.879,
              22.04
            ],
            [
              99.854,
              22.024
            ],
            [
              99.742,
              22.072
            ],
            [
              99.701,
              22.041
            ],
            [
              99.696,
              22.073
            ],
            [
              99.668,
              22.077
            ],
            [
              99.652,
              22.105
            ],
            [
              99.615,
              22.096
            ],
            [
              99.592,
              22.115
            ],
            [
              99.573,
              22.101
            ],
            [
              99.562,
              22.116
            ],
            [
              99.522,
              22.097
            ],
            [
              99.474,
              22.135
            ],
            [
              99.41,
              22.099
            ],
            [
              99.274,
              22.1
            ],
            [
              99.156,
              22.163
            ],
            [
              99.196,
              22.169
            ],
            [
              99.177,
              22.193
            ],
            [
              99.234,
              22.249
            ],
            [
              99.237,
              22.307
            ],
            [
              99.277,
              22.35
            ],
            [
              99.248,
              22.392
            ],
            [
              99.38,
              22.495
            ],
            [
              99.358,
              22.535
            ],
            [
              99.383,
              22.581
            ],
            [
              99.314,
              22.738
            ],
            [
              99.384,
              22.765
            ],
            [
              99.4,
              22.828
            ],
            [
              99.461,
              22.846
            ],
            [
              99.442,
              22.942
            ],
            [
              99.534,
              22.9
            ],
            [
              99.56,
              22.908
            ],
            [
              99.566,
              22.932
            ],
            [
              99.521,
              22.994
            ],
            [
              99.533,
              23.052
            ],
            [
              99.51,
              23.084
            ],
            [
              99.385,
              23.101
            ],
            [
              99.345,
              23.137
            ],
            [
              99.309,
              23.104
            ],
            [
              99.266,
              23.101
            ],
            [
              99.26,
              23.082
            ],
            [
              99.2,
              23.113
            ],
            [
              99.175,
              23.095
            ],
            [
              99.146,
              23.109
            ],
            [
              99.106,
              23.092
            ],
            [
              99.048,
              23.123
            ],
            [
              99.061,
              23.172
            ],
            [
              98.886,
              23.182
            ],
            [
              98.945,
              23.31
            ],
            [
              98.906,
              23.335
            ],
            [
              98.878,
              23.33
            ],
            [
              98.919,
              23.353
            ],
            [
              98.919,
              23.418
            ],
            [
              98.875,
              23.486
            ],
            [
              98.823,
              23.484
            ],
            [
              98.803,
              23.539
            ],
            [
              98.891,
              23.615
            ],
            [
              98.846,
              23.64
            ],
            [
              98.808,
              23.769
            ],
            [
              98.7,
              23.786
            ],
            [
              98.674,
              23.809
            ],
            [
              98.705,
              23.843
            ],
            [
              98.683,
              23.912
            ],
            [
              98.707,
              23.937
            ],
            [
              98.678,
              23.963
            ],
            [
              98.701,
              23.987
            ],
            [
              98.736,
              23.971
            ],
            [
              98.769,
              23.996
            ],
            [
              98.773,
              24.027
            ],
            [
              98.806,
              24.025
            ],
            [
              98.864,
              24.066
            ],
            [
              98.899,
              24.113
            ],
            [
              98.878,
              24.156
            ],
            [
              98.851,
              24.132
            ],
            [
              98.717,
              24.131
            ],
            [
              98.684,
              24.103
            ],
            [
              98.647,
              24.107
            ],
            [
              98.595,
              24.083
            ],
            [
              98.546,
              24.131
            ],
            [
              98.441,
              24.128
            ],
            [
              98.361,
              24.1
            ],
            [
              98.22,
              24.116
            ],
            [
              98.087,
              24.089
            ],
            [
              97.976,
              24.033
            ],
            [
              97.897,
              24.015
            ],
            [
              97.889,
              23.976
            ],
            [
              97.82,
              23.971
            ],
            [
              97.816,
              23.947
            ],
            [
              97.812,
              23.964
            ],
            [
              97.794,
              23.957
            ],
            [
              97.765,
              23.909
            ],
            [
              97.703,
              23.882
            ],
            [
              97.711,
              23.867
            ],
            [
              97.685,
              23.881
            ],
            [
              97.648,
              23.844
            ],
            [
              97.638,
              23.863
            ],
            [
              97.6,
              23.821
            ],
            [
              97.475,
              23.819
            ],
            [
              97.453,
              23.799
            ],
            [
              97.464,
              23.774
            ],
            [
              97.409,
              23.739
            ],
            [
              97.373,
              23.745
            ],
            [
              97.346,
              23.723
            ],
            [
              97.344,
              23.695
            ],
            [
              97.315,
              23.719
            ],
            [
              97.304,
              23.698
            ],
            [
              97.269,
              23.712
            ],
            [
              97.233,
              23.681
            ],
            [
              97.219,
              23.699
            ],
            [
              97.179,
              23.67
            ],
            [
              97.14,
              23.685
            ],
            [
              97.141,
              23.666
            ],
            [
              97.082,
              23.634
            ],
            [
              97.015,
              23.644
            ],
            [
              97.003,
              23.702
            ],
            [
              96.975,
              23.716
            ],
            [
              96.876,
              23.715
            ],
            [
              96.784,
              23.743
            ],
            [
              96.776,
              23.765
            ],
            [
              96.791,
              23.783
            ],
            [
              96.853,
              23.785
            ],
            [
              96.883,
              23.831
            ],
            [
              96.877,
              23.875
            ],
            [
              96.839,
              23.895
            ],
            [
              96.832,
              23.956
            ],
            [
              96.855,
              24.015
            ],
            [
              96.811,
              24.021
            ],
            [
              96.745,
              23.992
            ],
            [
              96.679,
              24
            ],
            [
              96.703,
              24.038
            ],
            [
              96.699,
              24.067
            ],
            [
              96.677,
              24.074
            ],
            [
              96.695,
              24.106
            ],
            [
              96.666,
              24.156
            ],
            [
              96.558,
              24.155
            ],
            [
              96.519,
              24.101
            ],
            [
              96.457,
              24.101
            ],
            [
              96.39,
              24.028
            ],
            [
              96.433,
              23.996
            ],
            [
              96.469,
              24.017
            ],
            [
              96.507,
              24.006
            ],
            [
              96.527,
              23.882
            ],
            [
              96.561,
              23.833
            ],
            [
              96.507,
              23.742
            ],
            [
              96.438,
              23.695
            ],
            [
              96.437,
              23.635
            ],
            [
              96.393,
              23.57
            ]
          ]
        ]
      }
    }
  ]
}
