{"type":"FeatureCollection","features":[{"type":"Feature","properties":{"geo_id":"geo_ph_0058","name":"Kalibo","psgc":"600407000","boundary_level":"municipality_or_city"},"geometry":{"type":"Polygon","coordinates":[[[122.4104835390001,11.677755790000049],[122.39062272600006,11.709199415000057],[122.38536589500006,11.734491677000051],[122.36468202800006,11.73362273400005],[122.36341534400003,11.71907130900007],[122.34768297900007,11.703579400000022],[122.3426680770001,11.686016331000078],[122.339941124,11.66598598100006],[122.3554299870001,11.656122009000057],[122.37301276900008,11.673950938000074],[122.38367876300003,11.66012343500006],[122.4104835390001,11.677755790000049]]]}}]}