{"type":"FeatureCollection","features":[{"type":"Feature","properties":{"geo_id":"geo_ph_0067","name":"Legazpi","psgc":"500506000","boundary_level":"municipality_or_city"},"geometry":{"type":"Polygon","coordinates":[[[123.76430690900007,13.208693909000035],[123.68355123800005,13.253206272000055],[123.70748397600006,13.214331728000046],[123.7144161870001,13.181232272000043],[123.72735285700003,13.168553837000049],[123.71671517400011,13.117816222000044],[123.71486563300004,13.039950008000062],[123.73445022100007,13.026391081000043],[123.74598040500007,12.996885520000037],[123.76765605700007,12.986184890000061],[123.80564823300006,13.019028077000028],[123.8623107960001,13.041738276000046],[123.81109321400004,13.05414639700007],[123.79430548000006,13.046002164000072],[123.75676978000003,13.063679161000037],[123.76507158600009,13.074638358000069],[123.7526960450001,13.090351708000073],[123.7756962860001,13.09813189400006],[123.78590890900013,13.118038575000071],[123.75653273600007,13.14470742000003],[123.75400483200006,13.173593197000056],[123.76430690900007,13.208693909000035]]]}}]}