{"type":"FeatureCollection","features":[{"type":"Feature","properties":{"geo_id":"geo_ph_0066","name":"Batangas City","psgc":"0401005000","boundary_level":"municipality","source_name":"Batangas City","source_psgc":"0401005000"},"geometry":{"type":"MultiPolygon","coordinates":[[[[121.10361630800003,13.839717413000075],[121.06038027500004,13.83113221900004],[121.02866336100008,13.769723293000025],[121.06018979500003,13.725967155000033],[121.04920710400006,13.683770772000058],[121.0535826480001,13.670413241000064],[121.03563406300009,13.635627308000037],[121.07107900500013,13.629988397000034],[121.07772076400012,13.61886630400005],[121.11450737700011,13.631103225000063],[121.17587972200009,13.64386677100003],[121.16700023300007,13.666325291000021],[121.17660633900005,13.684772038000062],[121.17846654500012,13.719346782000061],[121.17788434400006,13.746836995000024],[121.16248412900006,13.766540862000054],[121.13830698900006,13.78978644600005],[121.09621593100007,13.789246222000028],[121.10402024400004,13.809155158000063],[121.10361630800003,13.839717413000075]]],[[[121.07363878100013,13.531518463000054],[121.09715144800009,13.536852737000059],[121.08531609700003,13.57366520200003],[121.05279495800005,13.555765870000071],[121.07363878100013,13.531518463000054]]]]}}]}