{"type":"FeatureCollection","features":[{"type":"Feature","properties":{"geo_id":"geo_ph_0062","name":"Bacolod","psgc":"630200000","boundary_level":"city_huc"},"geometry":{"type":"Polygon","coordinates":[[[123.13933,10.65963],[123.13348,10.66432],[123.07732,10.66986],[123.04982,10.68497],[123.01513,10.68264],[122.9992,10.69994],[122.94898,10.71572],[122.95102,10.68571],[122.92955,10.66045],[122.92618,10.6351],[122.91447,10.60542],[122.89997,10.59501],[122.93231,10.59245],[122.95103,10.58615],[122.98804,10.58474],[123.01709,10.61962],[123.02184,10.63421],[123.04134,10.63165],[123.0768,10.64623],[123.12061,10.65338],[123.13933,10.65963]]]}}]}