{"type":"FeatureCollection","features":[{"type":"Feature","properties":{"geo_id":"geo_ph_0030","name":"Zambales","psgc":"307100000","boundary_level":"province"},"geometry":{"type":"Polygon","coordinates":[[[120.2528567830001,15.617769571000052],[120.21245195000006,15.687199554000074],[120.17777614100008,15.735479338000058],[120.15845308700013,15.771714149000047],[120.14429317400004,15.82619759400006],[120.1126600240001,15.82891142400007],[120.06062831300004,15.843698523000057],[120.03641615200002,15.874149902000056],[120.01961753400008,15.872207125000045],[119.99890120200008,15.819663963000044],[119.97349795700005,15.804924678000074],[119.90178234300005,15.807124243000034],[119.90023609300009,15.771063926000068],[119.90936622000004,15.754257368000028],[119.86918836400002,15.735833707000038],[119.89522472600005,15.711295255000039],[119.93221053600008,15.694479948000039],[119.93188576500006,15.666316756000068],[119.91571935500006,15.62584643900004],[119.90474981900003,15.620130864000034],[119.91792623500011,15.583544121000044],[119.93997353000009,15.558144939000043],[119.96154224600004,15.50421723100004],[119.94786384000008,15.482155624000027],[119.89982846100008,15.47766777800007],[119.91441569800007,15.443786707000067],[119.89009185200007,15.431010754000056],[119.90220778300012,15.40713038100006],[119.93558463000011,15.381309680000067],[119.96745294700007,15.343288895000057],[119.96395986600011,15.327698124000051],[120.0162021110001,15.264447562000045],[120.01053930100012,15.238335951000067],[120.02972292200002,15.189289101000044],[120.0595993190001,15.061823844000061],[120.05366806400002,15.035730695000037],[120.06390168400003,15.017936689000067],[120.06425760700006,14.98649978500003],[120.0561792200001,14.93731039500005],[120.06238576000011,14.918239844000027],[120.0543201800001,14.893539052000055],[120.06543045500005,14.86672488700003],[120.08404439700007,14.85287765600003],[120.10257851200005,14.807437442000033],[120.08350310900005,14.786746616000075],[120.13083897500007,14.775664694000062],[120.14846895800007,14.756340142000056],[120.18954915300003,14.750836982000065],[120.2033190410001,14.79767999600005],[120.21523077100007,14.809095295000073],[120.20762727500005,14.874339490000068],[120.2252995660001,14.877900965000036],[120.24475623600006,14.849407532000043],[120.26716135100003,14.846981645000028],[120.267623209,14.823748920000071],[120.2840905380001,14.800739975000052],[120.25780643200007,14.76451903800006],[120.25668235400008,14.746341670000051],[120.2782164140001,14.73891010900007],[120.3593488030001,14.776626151000073],[120.36109152900009,14.792929272000038],[120.34021008900005,14.817820355000038],[120.34119403900002,14.857304444000023],[120.40665743800001,14.88570509300007],[120.42280570000003,14.914471035000073],[120.46126986800006,14.921266418000073],[120.44769220000002,14.960627217000026],[120.42091735000007,14.990123146000032],[120.42228522400002,15.041691793000034],[120.406873,15.074102701000069],[120.36503970000001,15.108136663000039],[120.35605737500009,15.13502351100004],[120.36759662500005,15.167097115000045],[120.33616555000003,15.235095099000032],[120.28224524300005,15.289590427000064],[120.16519461000007,15.36177375200003],[120.1724779860001,15.438335885000068],[120.18910368800005,15.516064781000066],[120.223042,15.57605272200004],[120.26404654900011,15.597693989000046],[120.2528567830001,15.617769571000052]]]}}]}