{
  "type": "FeatureCollection",
  "features": [
    {
      "type": "Feature",
      "properties": {
        "geo_id": "geo_mm_0001",
        "name": "Yangon",
        "component": "Yangon",
        "source_authority": "geoBoundaries / Myanmar Analytics Project",
        "source_admin_name": "Yangon"
      },
      "geometry": {
        "type": "MultiPolygon",
        "coordinates": [
          [
            [
              [
                95.829,
                16.496
              ],
              [
                95.829,
                16.472
              ],
              [
                95.866,
                16.463
              ],
              [
                95.878,
                16.42
              ],
              [
                95.979,
                16.415
              ],
              [
                96.132,
                16.323
              ],
              [
                96.288,
                16.387
              ],
              [
                96.328,
                16.457
              ],
              [
                96.259,
                16.522
              ],
              [
                96.233,
                16.595
              ],
              [
                96.243,
                16.652
              ],
              [
                96.207,
                16.681
              ],
              [
                96.191,
                16.748
              ],
              [
                96.137,
                16.769
              ],
              [
                96.12,
                16.757
              ],
              [
                96.113,
                16.832
              ],
              [
                96.123,
                16.779
              ],
              [
                96.196,
                16.766
              ],
              [
                96.177,
                16.78
              ],
              [
                96.187,
                16.806
              ],
              [
                96.178,
                16.781
              ],
              [
                96.199,
                16.771
              ],
              [
                96.268,
                16.81
              ],
              [
                96.302,
                16.834
              ],
              [
                96.305,
                16.88
              ],
              [
                96.343,
                16.907
              ],
              [
                96.308,
                16.828
              ],
              [
                96.223,
                16.78
              ],
              [
                96.216,
                16.753
              ],
              [
                96.276,
                16.581
              ],
              [
                96.331,
                16.633
              ],
              [
                96.47,
                16.613
              ],
              [
                96.331,
                16.63
              ],
              [
                96.281,
                16.593
              ],
              [
                96.287,
                16.56
              ],
              [
                96.392,
                16.485
              ],
              [
                96.43,
                16.477
              ],
              [
                96.513,
                16.492
              ],
              [
                96.643,
                16.553
              ],
              [
                96.724,
                16.653
              ],
              [
                96.727,
                16.716
              ],
              [
                96.748,
                16.751
              ],
              [
                96.78,
                16.782
              ],
              [
                96.808,
                16.756
              ],
              [
                96.837,
                16.822
              ],
              [
                96.803,
                16.854
              ],
              [
                96.795,
                16.844
              ],
              [
                96.78,
                16.918
              ],
              [
                96.756,
                16.94
              ],
              [
                96.729,
                16.931
              ],
              [
                96.706,
                16.976
              ],
              [
                96.659,
                16.996
              ],
              [
                96.597,
                16.981
              ],
              [
                96.517,
                16.994
              ],
              [
                96.477,
                16.965
              ],
              [
                96.378,
                17.001
              ],
              [
                96.404,
                17.076
              ],
              [
                96.366,
                17.149
              ],
              [
                96.297,
                17.211
              ],
              [
                96.319,
                17.249
              ],
              [
                96.278,
                17.447
              ],
              [
                96.204,
                17.487
              ],
              [
                96.205,
                17.52
              ],
              [
                96.081,
                17.706
              ],
              [
                96.098,
                17.741
              ],
              [
                96.084,
                17.791
              ],
              [
                96.056,
                17.797
              ],
              [
                95.99,
                17.709
              ],
              [
                95.975,
                17.719
              ],
              [
                95.977,
                17.686
              ],
              [
                95.941,
                17.639
              ],
              [
                95.906,
                17.633
              ],
              [
                95.892,
                17.574
              ],
              [
                95.833,
                17.562
              ],
              [
                95.778,
                17.502
              ],
              [
                95.784,
                17.464
              ],
              [
                95.736,
                17.478
              ],
              [
                95.69,
                17.442
              ],
              [
                95.685,
                17.401
              ],
              [
                95.618,
                17.373
              ],
              [
                95.618,
                17.348
              ],
              [
                95.662,
                17.363
              ],
              [
                95.697,
                17.332
              ],
              [
                95.709,
                17.282
              ],
              [
                95.69,
                17.232
              ],
              [
                95.71,
                17.202
              ],
              [
                95.738,
                17.206
              ],
              [
                95.784,
                17.171
              ],
              [
                95.805,
                17.078
              ],
              [
                95.826,
                17.106
              ],
              [
                95.839,
                17.1
              ],
              [
                95.825,
                17.094
              ],
              [
                95.836,
                17.063
              ],
              [
                95.821,
                17.024
              ],
              [
                95.866,
                17.003
              ],
              [
                95.861,
                16.97
              ],
              [
                95.887,
                16.954
              ],
              [
                95.859,
                16.956
              ],
              [
                95.838,
                16.925
              ],
              [
                95.837,
                16.87
              ],
              [
                95.874,
                16.806
              ],
              [
                95.88,
                16.747
              ],
              [
                95.836,
                16.705
              ],
              [
                95.824,
                16.657
              ],
              [
                95.84,
                16.57
              ],
              [
                95.85,
                16.556
              ],
              [
                95.876,
                16.568
              ],
              [
                95.883,
                16.543
              ],
              [
                95.829,
                16.496
              ]
            ]
          ]
        ]
      }
    }
  ]
}
