{"type":"FeatureCollection","features":[{"type":"Feature","properties":{"geo_id":"geo_ph_0034","name":"Negros Oriental","psgc":"0704600000","boundary_level":"province","source_psgc":"0704600000"},"geometry":{"type":"Polygon","coordinates":[[[123.33591507200003,10.382476470000029],[123.27376300500009,10.405036659000075],[123.25046234200009,10.41492806300005],[123.2444814260001,10.431866907000028],[123.23662027800003,10.437750262000064],[123.21869044600011,10.439600951000045],[123.20540798500008,10.435791141000037],[123.20032222500004,10.438032868000052],[123.14432497400004,10.434843284000067],[123.13183057200003,10.41167899100003],[123.16031414800011,10.387797962000034],[123.18321414700006,10.358187988000054],[123.18373416800011,10.337018205000051],[123.18145967400007,10.322771078000073],[123.1634561410001,10.315518531000064],[123.16768247000005,10.305539149000024],[123.19119873300008,10.303034610000054],[123.19455747000005,10.271815747000062],[123.18881825200003,10.260563292000029],[123.13651653700003,10.198260696000034],[123.12951738600007,10.187443157000077],[123.11066842700008,10.165420105000065],[123.07135866600004,10.09779056900004],[123.01579588600009,10.012187241000047],[123.00419872600001,9.971277159000065],[122.98320250300004,9.912625363000075],[122.93288003100008,9.852716447000036],[122.90675043800003,9.818935856000053],[122.87659409700005,9.785435739000036],[122.80423183000005,9.70080798600003],[122.72332949600003,9.597365594000053],[122.68364140000007,9.562847185000065],[122.65689231000009,9.533703346000037],[122.63557722800009,9.507626268000024],[122.59290813500002,9.463638548000059],[122.5939728410001,9.454542686000023],[122.589059485,9.443815388000074],[122.61292387100002,9.420093487000031],[122.62322874700011,9.422179906000052],[122.64187169400009,9.403605326000045],[122.65080807200002,9.400988599000073],[122.6631954940001,9.392103242000076],[122.67439553500003,9.379782497000065],[122.68936809800003,9.381754766000029],[122.70606660400004,9.375163103000034],[122.71086943900004,9.37946371500004],[122.72485875600012,9.374232885000024],[122.74575200400011,9.371360246000052],[122.75303779400008,9.367570288000024],[122.7831652860001,9.366313009000065],[122.79602626200005,9.360494922000042],[122.80815205600004,9.359084086000054],[122.82531057800009,9.348126077000074],[122.83892079000009,9.333313700000076],[122.86485282100011,9.328934969000043],[122.87537074300008,9.314213131000031],[122.87313950400005,9.304284879000022],[122.87824470700002,9.27055077500006],[122.87123688900012,9.251920574000055],[122.87888346600003,9.232489122000061],[122.87921112400011,9.222640159000035],[122.88879269900009,9.209915066000063],[122.8901143370001,9.19527038700005],[122.89359625200007,9.189781888000029],[122.898887693,9.169228150000036],[122.90463454500002,9.16181222600005],[122.909446107,9.144077432000074],[122.92036373000006,9.12169616400007],[122.92863439400001,9.108591846000024],[122.93508974300005,9.085826666000061],[122.94232147600009,9.075488826000027],[122.9488011200001,9.075462717000049],[122.96647237900004,9.068759019000026],[122.97673108300012,9.062620315000059],[122.98612810400006,9.052993278000033],[122.99843141400004,9.048396716000068],[123.01498644000003,9.03846143000004],[123.02855593900006,9.047119532000066],[123.05150043700007,9.04937200100005],[123.06002697200006,9.051935279000075],[123.0738064190001,9.066716127000065],[123.1038533950001,9.061174975000029],[123.11189912600001,9.05394412000004],[123.12767831300005,9.061127381000063],[123.12254778800002,9.046249274000047],[123.13027652700009,9.047380982000048],[123.14345353300007,9.068114582000021],[123.15181749700002,9.075927491000074],[123.15810494700008,9.07105344200005],[123.1704692740001,9.085712323000052],[123.17991431900008,9.093068808000055],[123.19529961400008,9.095504461000075],[123.20225628400011,9.093765278000035],[123.210171951,9.111065035000022],[123.21215551400007,9.120556141000064],[123.24136477900005,9.150449576000028],[123.24655710900004,9.165848325000068],[123.26275734400006,9.184977965000028],[123.27070621000007,9.18748338600005],[123.27452116400002,9.197408766000022],[123.28629203400008,9.212850167000058],[123.28875950300007,9.225076004000075],[123.2943567010001,9.235650982000037],[123.29988587000004,9.265172252000069],[123.29999062100002,9.272606274000053],[123.31170202400006,9.29949504000007],[123.30924649200007,9.311338850000027],[123.31288921500004,9.319050697000023],[123.30832204100012,9.339851309000037],[123.29821297400008,9.354563995000037],[123.26770263000003,9.369980390000022],[123.26009915700001,9.381917856000031],[123.25629374100005,9.396998600000074],[123.24624547500002,9.407092471000055],[123.241614378,9.42149738200004],[123.23479241100007,9.426450017000034],[123.23846085600007,9.447145204000037],[123.22690249400013,9.466294452000056],[123.21460444100002,9.467965191000077],[123.19241507200003,9.474254268000038],[123.18435069300007,9.480313624000074],[123.17880379400003,9.505103302000066],[123.16283587200007,9.53269702700004],[123.16214119600012,9.538125441000037],[123.1483985650001,9.544956957000068],[123.14085251300001,9.544812800000042],[123.12047422900002,9.552719675000047],[123.12764434400003,9.566915706000032],[123.13276806100009,9.583273853000035],[123.1424815920001,9.586312358000043],[123.15348350600004,9.57790825300003],[123.15316034200008,9.595774559000063],[123.14146461400004,9.595959668000031],[123.1363131280001,9.606330531000028],[123.1221608090001,9.606418064000025],[123.116102006,9.620991884000036],[123.10757373000001,9.628465969000047],[123.1124357430001,9.63899777300003],[123.11189854700001,9.651033834000032],[123.12431396400008,9.656959279000034],[123.12832260700009,9.653957410000032],[123.1487238840001,9.65383355700004],[123.15093219300002,9.679286369000065],[123.160659892,9.70796907700003],[123.15264631700006,9.727936735000073],[123.15400770800011,9.748065512000037],[123.15009783900007,9.761774356000045],[123.14434243800008,9.770783041000072],[123.15134831300007,9.777194017000056],[123.14701043600009,9.796542525000062],[123.14305720900008,9.805362643000022],[123.14296032700008,9.820425069000065],[123.1326995280001,9.830434486000058],[123.13246573700006,9.840244561000077],[123.14361529300004,9.852630896000049],[123.15038367400008,9.854140676000043],[123.14804531000004,9.86693742500006],[123.15054388300008,9.880789875000064],[123.14689798100005,9.891975764000051],[123.15056533600013,9.904453327000054],[123.1574683220001,9.916488737000062],[123.17447074400002,9.921582199000055],[123.17902802700009,9.926743765000024],[123.17698765300008,9.938606135000041],[123.18248365700005,9.953923779000034],[123.19581628200001,9.96902470900005],[123.21326512600002,9.997355893000076],[123.22820582400004,10.003779055000054],[123.22649095300007,10.016290854000031],[123.2358059500001,10.026854256000036],[123.23960789500006,10.046985091000064],[123.24774670800004,10.055355246000031],[123.249483499,10.064942364000046],[123.26212122300002,10.089260068000044],[123.26900221900009,10.112803037000045],[123.28133451300006,10.129111451000025],[123.28044678900005,10.140960196000034],[123.28227812700005,10.17228592600003],[123.28779878000013,10.188591385000052],[123.29854718800004,10.196979955000074],[123.30516601400008,10.214404857000035],[123.30470620800008,10.22180845100007],[123.3142424670001,10.228732439000053],[123.32519531900003,10.252926755000033],[123.326276774,10.273933061000037],[123.33149030300002,10.278055396000072],[123.33127552400003,10.306359866000035],[123.32966248200012,10.331652379000046],[123.32597470700013,10.339501506000033],[123.329393663,10.35206056000004],[123.3291170450001,10.363094039000034],[123.33591507200003,10.382476470000029]]]}}]}