{"type":"FeatureCollection","features":[{"type":"Feature","properties":{"geo_id":"geo_ph_0064","name":"Angeles / Clark","boundary_level":"approximate_component","component":"Angeles City","source_correspondence_code":"035401000"},"geometry":{"type":"Polygon","coordinates":[[[120.59087552400001,15.14476802400003],[120.5888489130001,15.140870085000074],[120.58782499600011,15.14127316500003],[120.5886984340001,15.144995330000029],[120.58974910800009,15.148041388000024],[120.59087552400001,15.14476802400003]]]}},{"type":"Feature","properties":{"geo_id":"geo_ph_0064","name":"Angeles / Clark","boundary_level":"approximate_component","component":"Angeles City","source_correspondence_code":"035401000"},"geometry":{"type":"Polygon","coordinates":[[[120.56752603400002,15.161052148000067],[120.56474091000007,15.156520078000028],[120.55605433700009,15.150359864000052],[120.52423752300001,15.15389693000003],[120.54820848600002,15.162677788000053],[120.560026934,15.166037552000034],[120.56752603400002,15.161052148000067]]]}},{"type":"Feature","properties":{"geo_id":"geo_ph_0064","name":"Angeles / Clark","boundary_level":"approximate_component","component":"Angeles City","source_correspondence_code":"035401000"},"geometry":{"type":"Polygon","coordinates":[[[120.59827344400003,15.175222695000059],[120.5974620830001,15.157674730000053],[120.59211416800008,15.154866611000045],[120.560026934,15.166037552000034],[120.54820848600002,15.162677788000053],[120.52773441000011,15.170294282000043],[120.47894046600004,15.177077806000057],[120.52380044300003,15.206940982000049],[120.57103388300004,15.22242435100003],[120.59827344400003,15.175222695000059]]]}},{"type":"Feature","properties":{"geo_id":"geo_ph_0064","name":"Angeles / Clark","boundary_level":"approximate_component","component":"Angeles City","source_correspondence_code":"035401000"},"geometry":{"type":"Polygon","coordinates":[[[120.63654868100002,15.150400274000049],[120.61832552600004,15.135982581000064],[120.61393445100009,15.145911942000055],[120.62083235300008,15.149434858000063],[120.62385800600009,15.149280976000057],[120.63654868100002,15.150400274000049]]]}},{"type":"Feature","properties":{"geo_id":"geo_ph_0064","name":"Angeles / Clark","boundary_level":"approximate_component","component":"Angeles City","source_correspondence_code":"035401000"},"geometry":{"type":"Polygon","coordinates":[[[120.59361666200004,15.148616447000052],[120.59493167200003,15.146101866000038],[120.59126508600002,15.144301530000064],[120.59087552400001,15.14476802400003],[120.58974910800009,15.148041388000024],[120.58980097000006,15.148189862000038],[120.58999716200003,15.148610460000043],[120.59332391300006,15.149213132000057],[120.59361666200004,15.148616447000052]]]}},{"type":"Feature","properties":{"geo_id":"geo_ph_0064","name":"Angeles / Clark","boundary_level":"approximate_component","component":"Angeles City","source_correspondence_code":"035401000"},"geometry":{"type":"Polygon","coordinates":[[[120.51976866000007,15.154271459000029],[120.52423752300001,15.15389693000003],[120.55605433700009,15.150359864000052],[120.54831996900009,15.139480751000065],[120.46726020500012,15.144220507000057],[120.51976866000007,15.154271459000029]]]}},{"type":"Feature","properties":{"geo_id":"geo_ph_0064","name":"Angeles / Clark","boundary_level":"approximate_component","component":"Angeles City","source_correspondence_code":"035401000"},"geometry":{"type":"Polygon","coordinates":[[[120.5796171070001,15.142996977000053],[120.58361612700003,15.139388792000034],[120.58921859800012,15.126198945000056],[120.58166927200011,15.124031315000025],[120.55497353400006,15.136584493000043],[120.5796171070001,15.142996977000053]]]}},{"type":"Feature","properties":{"geo_id":"geo_ph_0064","name":"Angeles / Clark","boundary_level":"approximate_component","component":"Angeles City","source_correspondence_code":"035401000"},"geometry":{"type":"Polygon","coordinates":[[[120.63609135100012,15.167243106000058],[120.62744844400004,15.165920626000059],[120.61726732000011,15.173970750000024],[120.63609135100012,15.167243106000058]]]}},{"type":"Feature","properties":{"geo_id":"geo_ph_0064","name":"Angeles / Clark","boundary_level":"approximate_component","component":"Angeles City","source_correspondence_code":"035401000"},"geometry":{"type":"Polygon","coordinates":[[[120.5886984340001,15.144995330000029],[120.58782499600011,15.14127316500003],[120.58604124800002,15.141203669000049],[120.5803466100001,15.144845898000028],[120.58491696300007,15.148720689000072],[120.5886984340001,15.144995330000029]]]}},{"type":"Feature","properties":{"geo_id":"geo_ph_0064","name":"Angeles / Clark","boundary_level":"approximate_component","component":"Angeles City","source_correspondence_code":"035401000"},"geometry":{"type":"Polygon","coordinates":[[[120.59126508600002,15.144301530000064],[120.59312535100003,15.139892523000071],[120.58972346500002,15.138717254000028],[120.5888489130001,15.140870085000074],[120.59087552400001,15.14476802400003],[120.59126508600002,15.144301530000064]]]}},{"type":"Feature","properties":{"geo_id":"geo_ph_0064","name":"Angeles / Clark","boundary_level":"approximate_component","component":"Angeles City","source_correspondence_code":"035401000"},"geometry":{"type":"Polygon","coordinates":[[[120.59663496500002,15.142768439000065],[120.59312535100003,15.139892523000071],[120.59126508600002,15.144301530000064],[120.59493167200003,15.146101866000038],[120.59663496500002,15.142768439000065]]]}},{"type":"Feature","properties":{"geo_id":"geo_ph_0064","name":"Angeles / Clark","boundary_level":"approximate_component","component":"Angeles City","source_correspondence_code":"035401000"},"geometry":{"type":"Polygon","coordinates":[[[120.59211416800008,15.154866611000045],[120.5920318530001,15.152889138000035],[120.58999716200003,15.148610460000043],[120.58980097000006,15.148189862000038],[120.58383053600005,15.151013319000072],[120.58120906600004,15.151376893000077],[120.56752603400002,15.161052148000067],[120.560026934,15.166037552000034],[120.59211416800008,15.154866611000045]]]}},{"type":"Feature","properties":{"geo_id":"geo_ph_0064","name":"Angeles / Clark","boundary_level":"approximate_component","component":"Angeles City","source_correspondence_code":"035401000"},"geometry":{"type":"Polygon","coordinates":[[[120.54820848600002,15.162677788000053],[120.52423752300001,15.15389693000003],[120.51976866000007,15.154271459000029],[120.52773441000011,15.170294282000043],[120.54820848600002,15.162677788000053]]]}},{"type":"Feature","properties":{"geo_id":"geo_ph_0064","name":"Angeles / Clark","boundary_level":"approximate_component","component":"Angeles City","source_correspondence_code":"035401000"},"geometry":{"type":"Polygon","coordinates":[[[120.61393445100009,15.145911942000055],[120.61832552600004,15.135982581000064],[120.61357625900007,15.13246954300007],[120.61127867400012,15.135541274000047],[120.59906949200001,15.145886339000072],[120.6004828230001,15.147592545000066],[120.60852594000005,15.14758325300005],[120.61393445100009,15.145911942000055]]]}},{"type":"Feature","properties":{"geo_id":"geo_ph_0064","name":"Angeles / Clark","boundary_level":"approximate_component","component":"Angeles City","source_correspondence_code":"035401000"},"geometry":{"type":"Polygon","coordinates":[[[120.58120906600004,15.151376893000077],[120.58383053600005,15.151013319000072],[120.58491696300007,15.148720689000072],[120.5803466100001,15.144845898000028],[120.5796171070001,15.142996977000053],[120.55497353400006,15.136584493000043],[120.54831996900009,15.139480751000065],[120.55605433700009,15.150359864000052],[120.56474091000007,15.156520078000028],[120.58120906600004,15.151376893000077]]]}},{"type":"Feature","properties":{"geo_id":"geo_ph_0064","name":"Angeles / Clark","boundary_level":"approximate_component","component":"Angeles City","source_correspondence_code":"035401000"},"geometry":{"type":"Polygon","coordinates":[[[120.61342708500001,15.156254034000028],[120.60852594000005,15.14758325300005],[120.6004828230001,15.147592545000066],[120.59815362200004,15.149755336000055],[120.59875695200003,15.158157376000077],[120.61342708500001,15.156254034000028]]]}},{"type":"Feature","properties":{"geo_id":"geo_ph_0064","name":"Angeles / Clark","boundary_level":"approximate_component","component":"Angeles City","source_correspondence_code":"035401000"},"geometry":{"type":"Polygon","coordinates":[[[120.60679134200007,15.174086124000041],[120.61760583500006,15.157274409000024],[120.62385800600009,15.149280976000057],[120.62083235300008,15.149434858000063],[120.61342708500001,15.156254034000028],[120.59875695200003,15.158157376000077],[120.5974620830001,15.157674730000053],[120.59827344400003,15.175222695000059],[120.60679134200007,15.174086124000041]]]}},{"type":"Feature","properties":{"geo_id":"geo_ph_0064","name":"Angeles / Clark","boundary_level":"approximate_component","component":"Angeles City","source_correspondence_code":"035401000"},"geometry":{"type":"Polygon","coordinates":[[[120.61127867400012,15.135541274000047],[120.61357625900007,15.13246954300007],[120.60756337900011,15.127550107000047],[120.59759873400003,15.131544279000025],[120.592569378,15.134623790000035],[120.59200033500008,15.136662322000063],[120.61127867400012,15.135541274000047]]]}},{"type":"Feature","properties":{"geo_id":"geo_ph_0064","name":"Angeles / Clark","boundary_level":"approximate_component","component":"Angeles City","source_correspondence_code":"035401000"},"geometry":{"type":"Polygon","coordinates":[[[120.61726732000011,15.173970750000024],[120.62744844400004,15.165920626000059],[120.61760583500006,15.157274409000024],[120.60679134200007,15.174086124000041],[120.61726732000011,15.173970750000024]]]}},{"type":"Feature","properties":{"geo_id":"geo_ph_0064","name":"Angeles / Clark","boundary_level":"approximate_component","component":"Angeles City","source_correspondence_code":"035401000"},"geometry":{"type":"Polygon","coordinates":[[[120.6004828230001,15.147592545000066],[120.59906949200001,15.145886339000072],[120.59663496500002,15.142768439000065],[120.59493167200003,15.146101866000038],[120.59361666200004,15.148616447000052],[120.59815362200004,15.149755336000055],[120.6004828230001,15.147592545000066]]]}},{"type":"Feature","properties":{"geo_id":"geo_ph_0064","name":"Angeles / Clark","boundary_level":"approximate_component","component":"Angeles City","source_correspondence_code":"035401000"},"geometry":{"type":"Polygon","coordinates":[[[120.59759873400003,15.131544279000025],[120.58942602500008,15.126315971000054],[120.592569378,15.134623790000035],[120.59759873400003,15.131544279000025]]]}},{"type":"Feature","properties":{"geo_id":"geo_ph_0064","name":"Angeles / Clark","boundary_level":"approximate_component","component":"Angeles City","source_correspondence_code":"035401000"},"geometry":{"type":"Polygon","coordinates":[[[120.5888489130001,15.140870085000074],[120.58972346500002,15.138717254000028],[120.58454246200006,15.138827389000028],[120.58604124800002,15.141203669000049],[120.58782499600011,15.14127316500003],[120.5888489130001,15.140870085000074]]]}},{"type":"Feature","properties":{"geo_id":"geo_ph_0064","name":"Angeles / Clark","boundary_level":"approximate_component","component":"Angeles City","source_correspondence_code":"035401000"},"geometry":{"type":"Polygon","coordinates":[[[120.58980097000006,15.148189862000038],[120.58974910800009,15.148041388000024],[120.5886984340001,15.144995330000029],[120.58491696300007,15.148720689000072],[120.58383053600005,15.151013319000072],[120.58980097000006,15.148189862000038]]]}},{"type":"Feature","properties":{"geo_id":"geo_ph_0064","name":"Angeles / Clark","boundary_level":"approximate_component","component":"Angeles City","source_correspondence_code":"035401000"},"geometry":{"type":"Polygon","coordinates":[[[120.58604124800002,15.141203669000049],[120.58454246200006,15.138827389000028],[120.58361612700003,15.139388792000034],[120.5796171070001,15.142996977000053],[120.5803466100001,15.144845898000028],[120.58604124800002,15.141203669000049]]]}},{"type":"Feature","properties":{"geo_id":"geo_ph_0064","name":"Angeles / Clark","boundary_level":"approximate_component","component":"Angeles City","source_correspondence_code":"035401000"},"geometry":{"type":"Polygon","coordinates":[[[120.61127867400012,15.135541274000047],[120.59200033500008,15.136662322000063],[120.58972346500002,15.138717254000028],[120.59312535100003,15.139892523000071],[120.59663496500002,15.142768439000065],[120.59906949200001,15.145886339000072],[120.61127867400012,15.135541274000047]]]}},{"type":"Feature","properties":{"geo_id":"geo_ph_0064","name":"Angeles / Clark","boundary_level":"approximate_component","component":"Angeles City","source_correspondence_code":"035401000"},"geometry":{"type":"Polygon","coordinates":[[[120.60756337900011,15.127550107000047],[120.58166927200011,15.124031315000025],[120.58921859800012,15.126198945000056],[120.58942602500008,15.126315971000054],[120.59759873400003,15.131544279000025],[120.60756337900011,15.127550107000047]]]}},{"type":"Feature","properties":{"geo_id":"geo_ph_0064","name":"Angeles / Clark","boundary_level":"approximate_component","component":"Angeles City","source_correspondence_code":"035401000"},"geometry":{"type":"Polygon","coordinates":[[[120.58454246200006,15.138827389000028],[120.58972346500002,15.138717254000028],[120.59200033500008,15.136662322000063],[120.592569378,15.134623790000035],[120.58942602500008,15.126315971000054],[120.58921859800012,15.126198945000056],[120.58361612700003,15.139388792000034],[120.58454246200006,15.138827389000028]]]}},{"type":"Feature","properties":{"geo_id":"geo_ph_0064","name":"Angeles / Clark","boundary_level":"approximate_component","component":"Angeles City","source_correspondence_code":"035401000"},"geometry":{"type":"Polygon","coordinates":[[[120.63654868100002,15.150400274000049],[120.62385800600009,15.149280976000057],[120.61760583500006,15.157274409000024],[120.62744844400004,15.165920626000059],[120.63609135100012,15.167243106000058],[120.63654868100002,15.150400274000049]]]}},{"type":"Feature","properties":{"geo_id":"geo_ph_0064","name":"Angeles / Clark","boundary_level":"approximate_component","component":"Angeles City","source_correspondence_code":"035401000"},"geometry":{"type":"Polygon","coordinates":[[[120.52773441000011,15.170294282000043],[120.51976866000007,15.154271459000029],[120.46726020500012,15.144220507000057],[120.47894046600004,15.177077806000057],[120.52773441000011,15.170294282000043]]]}},{"type":"Feature","properties":{"geo_id":"geo_ph_0064","name":"Angeles / Clark","boundary_level":"approximate_component","component":"Angeles City","source_correspondence_code":"035401000"},"geometry":{"type":"Polygon","coordinates":[[[120.62083235300008,15.149434858000063],[120.61393445100009,15.145911942000055],[120.60852594000005,15.14758325300005],[120.61342708500001,15.156254034000028],[120.62083235300008,15.149434858000063]]]}},{"type":"Feature","properties":{"geo_id":"geo_ph_0064","name":"Angeles / Clark","boundary_level":"approximate_component","component":"Angeles City","source_correspondence_code":"035401000"},"geometry":{"type":"Polygon","coordinates":[[[120.59332391300006,15.149213132000057],[120.58999716200003,15.148610460000043],[120.5920318530001,15.152889138000035],[120.59332391300006,15.149213132000057]]]}},{"type":"Feature","properties":{"geo_id":"geo_ph_0064","name":"Angeles / Clark","boundary_level":"approximate_component","component":"Angeles City","source_correspondence_code":"035401000"},"geometry":{"type":"Polygon","coordinates":[[[120.58120906600004,15.151376893000077],[120.56474091000007,15.156520078000028],[120.56752603400002,15.161052148000067],[120.58120906600004,15.151376893000077]]]}},{"type":"Feature","properties":{"geo_id":"geo_ph_0064","name":"Angeles / Clark","boundary_level":"approximate_component","component":"Angeles City","source_correspondence_code":"035401000"},"geometry":{"type":"Polygon","coordinates":[[[120.59815362200004,15.149755336000055],[120.59361666200004,15.148616447000052],[120.59332391300006,15.149213132000057],[120.5920318530001,15.152889138000035],[120.59211416800008,15.154866611000045],[120.5974620830001,15.157674730000053],[120.59875695200003,15.158157376000077],[120.59815362200004,15.149755336000055]]]}},{"type":"Feature","properties":{"geo_id":"geo_ph_0064","name":"Angeles / Clark","boundary_level":"approximate_component","component":"Mabalacat City / Clark","source_correspondence_code":"305409000"},"geometry":{"type":"Polygon","coordinates":[[[120.61660804800012,15.262939516000072],[120.56732752500011,15.263818960000037],[120.52199098000006,15.226423853000032],[120.44756009000004,15.203252026000031],[120.44977598600008,15.175672598000059],[120.57103388300004,15.222424351000031],[120.58261167100012,15.170371668000028],[120.623465527,15.175674680000043],[120.63295860200004,15.187977114000033],[120.61660804800012,15.262939516000072]]]}}]}