{"type":"FeatureCollection","features":[{"type":"Feature","properties":{"geo_id":"geo_ph_0061","name":"San Juan, Siquijor","psgc":"0706105000","boundary_level":"municipality","source_name":"San Juan","source_psgc":"0706105000"},"geometry":{"type":"Polygon","coordinates":[[[123.45271731900006,9.193665061000045],[123.46480565300011,9.175434653000025],[123.48558397000012,9.16498992900006],[123.51466282900005,9.137711243000071],[123.55140887000005,9.114847222000039],[123.55958421700007,9.10126005400002],[123.57181040900002,9.129051274000059],[123.55523197300012,9.133698355000037],[123.5373347520001,9.168980479000027],[123.50629286100002,9.17645144000005],[123.47488068200005,9.189440728000019],[123.45317509100006,9.193093148000056],[123.45309559500004,9.193108116000074],[123.45271731900006,9.193665061000045]]]}}]}