{"type":"FeatureCollection","features":[{"type":"Feature","properties":{"geo_id":"geo_ph_0059","name":"Iloilo City","psgc":"631000000","boundary_level":"city_huc"},"geometry":{"type":"Polygon","coordinates":[[[122.59547,10.7602],[122.58482,10.77417],[122.56615,10.7832],[122.55894,10.76043],[122.51324,10.73923],[122.5241,10.7131],[122.51092,10.69434],[122.49478,10.68175],[122.53167,10.67933],[122.56108,10.69136],[122.58092,10.68759],[122.59359,10.7047],[122.59967,10.73458],[122.58786,10.74305],[122.59547,10.7602]]]}}]}