{"type":"FeatureCollection","features":[{"type":"Feature","properties":{"geo_id":"geo_ph_0033","name":"Albay","psgc":"0500500000","boundary_level":"province","source_psgc":"0500500000"},"geometry":{"type":"MultiPolygon","coordinates":[[[[123.60125067900003,13.522687456000027],[123.54560845100002,13.516697864000035],[123.54328423700008,13.501666299000018],[123.54544748100011,13.485836639000068],[123.55664269700004,13.469524604000071],[123.57268960300009,13.458021292000069],[123.5812924910001,13.448367139000023],[123.58806336800002,13.422057589000076],[123.58243122100009,13.395386389000063],[123.57621389300004,13.378277725000034],[123.56798881000009,13.371857841000063],[123.57150571400007,13.365336622000026],[123.55934980300003,13.360391644000057],[123.55561125500003,13.354617189000066],[123.52370334700002,13.352766140000028],[123.51239273900002,13.346792858000072],[123.49379612100006,13.344597269000076],[123.49383574500008,13.361898781000036],[123.46802729700006,13.363971094000023],[123.4585464270001,13.367820793000021],[123.43280213500009,13.363097290000042],[123.41758121300005,13.352300169000044],[123.40645509100011,13.347575831000029],[123.39879749300009,13.33465374700006],[123.39259550500005,13.341061079000042],[123.38393397400013,13.336091727000051],[123.37317003100007,13.33751864900006],[123.38092833200005,13.33090983100004],[123.38384769300002,13.321214429000062],[123.37775489500005,13.305574159000058],[123.36044881300006,13.299699216000016],[123.3526878670001,13.306672606000062],[123.33555191200004,13.294827203000068],[123.31225141000004,13.287249039000073],[123.28522357100007,13.269512651000069],[123.28127328200003,13.258541065000031],[123.29278121400013,13.253141184000068],[123.31465514000003,13.221597847000053],[123.31910671500007,13.209473701000036],[123.32734117800011,13.198223321000057],[123.3242564000001,13.190830445000069],[123.3096000170001,13.191584660000048],[123.30488054100012,13.177834879000045],[123.31089495300012,13.16862218800003],[123.3012572680001,13.155904717000055],[123.28868467900008,13.146838289000073],[123.29193012500004,13.134971285000063],[123.29182998000012,13.118410209000045],[123.28871334900009,13.107095036000034],[123.29628711800002,13.087484024000046],[123.29398133200004,13.07252150000005],[123.28920846200003,13.064442088000021],[123.30135416000007,13.049536619000037],[123.30149615900008,13.039262514000027],[123.30752578900002,13.024373040000054],[123.31953698200006,13.006877386000046],[123.3385821720001,13.011880753000069],[123.3698917900001,13.027586874000063],[123.3704314680001,13.035607095000046],[123.38335280900004,13.04082455800005],[123.39075768600003,13.036232432000077],[123.40788715700012,13.04591226400004],[123.41946437300011,13.039157861000033],[123.42583445000004,13.03991796400004],[123.43637977000004,13.029829243000052],[123.44761729100004,13.027219128000068],[123.45832104000011,13.014859250000027],[123.46184795600004,13.00489742700006],[123.48226570000008,12.988444596000024],[123.49216108500002,13.00091114700007],[123.51782511400006,13.012754216000074],[123.53782893100005,13.01813417300002],[123.54809213500006,13.024415272000056],[123.56306575500003,13.02307481200006],[123.57486209300009,13.030070694000072],[123.58691683200004,13.022239605000037],[123.62025036800004,13.022980362000055],[123.62968937800008,13.010442943000044],[123.65000598900008,13.01932447300004],[123.68452626700004,13.02852085000006],[123.71473746600009,13.039926492000063],[123.72308167900009,13.034239268000023],[123.72238104200005,13.027039090000073],[123.73445022100007,13.026391081000043],[123.7364397980001,13.01621579400006],[123.74598040500007,12.996885520000037],[123.76215491200004,12.997107576000072],[123.76765605700007,12.986184890000061],[123.78231135300005,12.994530540000028],[123.7872156410001,13.004620741000048],[123.79577553900005,13.00827792900003],[123.80564823300006,13.019028077000028],[123.82253470700006,13.02440377700003],[123.85924674000012,13.040744483000024],[123.87528872300005,13.042301291000058],[123.89598666200006,13.03764349000005],[123.90670266300005,13.040932211000039],[123.9155897280001,13.054929226000066],[123.92101326300008,13.083766269000023],[123.92917038300006,13.102068074000046],[123.92676515300003,13.120887665000055],[123.9112910460001,13.122745912000026],[123.90849467500004,13.138472829000019],[123.87943236900004,13.143195179000033],[123.86547750200009,13.137671910000051],[123.8615406130001,13.132382013000038],[123.86022079200006,13.113080184000069],[123.85420815400005,13.107569650000071],[123.83861827800001,13.108886273000051],[123.83910970000011,13.089348911000057],[123.83002741800011,13.075609881000045],[123.81360943700008,13.064386235000027],[123.81286711700011,13.054511989000046],[123.79430548000006,13.046002164000072],[123.77415767400011,13.051709798000047],[123.75676978000003,13.063679161000037],[123.76507158600009,13.074638358000069],[123.7503574640001,13.08454801700003],[123.7526960450001,13.090351708000073],[123.7756962860001,13.09813189400006],[123.78507549500011,13.110741827000027],[123.78590890900013,13.118038575000071],[123.77003674600007,13.128581102000053],[123.75653273600007,13.14470742000003],[123.75691776100008,13.159143655000033],[123.75400483200006,13.173593197000056],[123.76190656200004,13.203602914000044],[123.77472171200009,13.227651745000056],[123.78718215000004,13.237998711000047],[123.8019283220001,13.23793046100008],[123.81794087700007,13.230503289000069],[123.85769196800004,13.224262921000047],[123.86830844800012,13.235793731000054],[123.85013185100001,13.247791731000063],[123.84481527500009,13.265052179000065],[123.82880871600004,13.266778777000066],[123.82622064500005,13.252059555000077],[123.8161600520001,13.261035390000076],[123.82142379000005,13.266515310000043],[123.8136288160001,13.283708149000061],[123.8155418030001,13.288000042000021],[123.80278131500006,13.297034033000044],[123.7930146310001,13.29697465300006],[123.78274044900003,13.301935014000035],[123.78001324300008,13.311616324000056],[123.75639036800011,13.323684983000017],[123.74694698500002,13.323091477000048],[123.7415387000001,13.33292896600005],[123.74053272100002,13.349800832000026],[123.73535862000006,13.368178156000054],[123.72725499600006,13.371132964000028],[123.72590146000005,13.39112465100004],[123.7140309560001,13.409821892000025],[123.71345990300006,13.417797527000063],[123.70324286700009,13.431673411000075],[123.69852355600007,13.447561618000066],[123.68552568700012,13.459491162000063],[123.68243194600008,13.469922297000037],[123.67412188900005,13.479258905000052],[123.66474253700005,13.47865629900002],[123.63940493200005,13.484268299000062],[123.62412979400007,13.491885283000043],[123.60490248100005,13.51506624600006],[123.60125067900003,13.522687456000027]]],[[[123.76545898200004,13.407387588000061],[123.77403737300006,13.389320779000057],[123.79029151700001,13.378579207000026],[123.7983094240001,13.366354247000059],[123.81093411600011,13.356016579000027],[123.83557730200005,13.344191875000039],[123.84168565300001,13.363234952000026],[123.82980221800007,13.36871433600004],[123.81760026800009,13.387786940000069],[123.80025171000011,13.395556055000043],[123.793346143,13.39244130000003],[123.78264617200011,13.402044838000052],[123.77447899100004,13.399582367000049],[123.76545898200004,13.407387588000061]]],[[[123.8507392460001,13.354140749000067],[123.84367772100006,13.351438892000033],[123.84009124600004,13.337295589000064],[123.86115489800011,13.317835872000044],[123.85149474700007,13.308725597000032],[123.84921496000005,13.293349068000055],[123.84998965300008,13.267937806000075],[123.85607143000004,13.255311712000035],[123.86838695500013,13.246402221000038],[123.87420404300006,13.230091798000043],[123.8923504060001,13.230673817000023],[123.90091586300004,13.23995351000008],[123.90493093200008,13.250117771000076],[123.89413230000002,13.25897957400002],[123.88652057800005,13.271612499000069],[123.8884032830001,13.28021835700002],[123.90479968700004,13.304104434000063],[123.91806194800007,13.304846614000038],[123.92901212800007,13.321099050000045],[123.9215326860001,13.33038318900003],[123.905724737,13.330950301000032],[123.90635535900003,13.339577071000065],[123.88874107400012,13.34054588300006],[123.88419411200005,13.34758806600007],[123.87421260200007,13.347925036000047],[123.8507392460001,13.354140749000067]]],[[[123.93769424600009,13.32452823800003],[123.92727945100012,13.306531816000074],[123.94861347900007,13.306242279000058],[123.93769424600009,13.32452823800003]]],[[[123.97712102700007,13.291520552000067],[123.9746344470001,13.283317575000071],[123.9659869200001,13.280285960000066],[123.95098546800013,13.29061577600004],[123.92982109600005,13.286057735000043],[123.91516663100003,13.286194613000077],[123.91313382300008,13.274335149000024],[123.918304809,13.260311084000023],[123.95751028100005,13.23168670500007],[123.97245797800008,13.232155538000029],[123.98389321000002,13.236663143000044],[124.00136363000001,13.222010157000057],[124.02236600800008,13.216965371000072],[124.03881015900005,13.218640185000027],[124.05216398100004,13.22769569400003],[124.06384609300007,13.239853340000021],[124.06493934200012,13.25094863300006],[124.07617549800011,13.25298086000004],[124.0861054510001,13.260491645000055],[124.08371138000007,13.267401418000073],[124.07451334200006,13.271555696000064],[124.0651883930001,13.269938498000041],[124.05386907800005,13.278367106000076],[124.04056050500004,13.27895073000008],[124.03673777900008,13.260322448000066],[124.01676857100006,13.284410512000019],[124.00171443300009,13.286704579000059],[123.99173658500003,13.26106065300007],[123.98297530100001,13.261381213000053],[123.9832006900001,13.274961564000021],[123.97591375600008,13.281254258000049],[123.97712102700007,13.291520552000067]]],[[[124.12990765300005,13.236041439000076],[124.12523771000009,13.227446823000037],[124.08303347800006,13.21220501700003],[124.07711992200008,13.203195288000073],[124.09900134700003,13.189683735000074],[124.12594292400001,13.184993563000033],[124.14614155900006,13.187129072000062],[124.15705103100004,13.180565597000056],[124.16469464000012,13.18140939600005],[124.18049767200013,13.173106918000032],[124.19826132900005,13.173966368000038],[124.20962945500001,13.169525778000036],[124.2194946190001,13.179584489000032],[124.21396605600012,13.18987201300007],[124.21448630900011,13.19901217600005],[124.20809752000002,13.207543222000027],[124.19420327100012,13.216271395000033],[124.18589094800006,13.216956469000024],[124.15458882400003,13.231168857000055],[124.1448164310001,13.22880707400003],[124.12990765300005,13.236041439000076]]]]}}]}