{"type":"FeatureCollection","features":[{"type":"Feature","properties":{"geo_id":"geo_ph_0024","name":"Aklan","psgc":"600400000","boundary_level":"province"},"geometry":{"type":"MultiPolygon","coordinates":[[[[121.92162284600012,11.999319628000022],[121.90508849700005,11.988213816000043],[121.910296893,11.976976423000053],[121.92416211900002,11.961779904000023],[121.93356751000012,11.94007769500007],[121.94351172400003,11.940699905000033],[121.94698429200004,11.954844540000067],[121.93439107800009,11.957072397000045],[121.92720573300006,11.970059879000075],[121.92162284600012,11.999319628000022]]],[[[122.57735727300008,11.553467966000028],[122.57431884700009,11.563781681000025],[122.50787030400011,11.592123358000038],[122.4950665660001,11.594832677000056],[122.49623150200013,11.57795175100006],[122.48579240900006,11.559741923000043],[122.47492937000004,11.553764942000042],[122.45774135600003,11.550535951000029],[122.44663690100005,11.562591335000034],[122.4434120530001,11.575997051000058],[122.46047139000007,11.580008909000073],[122.48305983900002,11.562633574000074],[122.48473157500008,11.575115965000062],[122.47085333400003,11.584563536000074],[122.46562593700003,11.593524376000062],[122.44586291000007,11.608806424000022],[122.43373764700004,11.59767436100003],[122.43055891100005,11.611110025000073],[122.4220099920001,11.611882766000065],[122.39745368900002,11.635466659000027],[122.39861638600007,11.645491374000072],[122.40859741700002,11.646555625000076],[122.40869410500011,11.657871441000053],[122.43039513300006,11.651052535000076],[122.43347159000007,11.639783437000062],[122.46078944900013,11.613807832000077],[122.47652135200008,11.606616810000048],[122.48664180400009,11.594936050000056],[122.49225852100005,11.609933782000043],[122.45268663100002,11.634719858000036],[122.42577978800013,11.659076303000063],[122.39741526900002,11.695415923000043],[122.39062272600006,11.709199415000057],[122.39358715500009,11.717685703000027],[122.38536589500006,11.734491677000051],[122.37445671600007,11.738385246000064],[122.34476466000001,11.738372656000026],[122.33130037,11.735422485000072],[122.30221919300006,11.747664161000046],[122.27499079100005,11.768384858000047],[122.25842803700004,11.785607028000072],[122.23526191500002,11.788414241000055],[122.22487558000012,11.79607389000006],[122.22208112500003,11.813653740000063],[122.19964430100003,11.807878037000025],[122.18531555900007,11.81277714600003],[122.16460698600007,11.825291022000043],[122.13882496200006,11.825063338000064],[122.09948816500003,11.830272682000043],[122.0820770050001,11.836972984000056],[122.05697774600004,11.851601892000076],[122.03607051100005,11.866912076000062],[122.02510853000001,11.879563205000064],[122.0184560460001,11.893225010000036],[122.00033174300007,11.907702384000062],[121.97380907500006,11.920085119000019],[121.95993367500013,11.936479263000022],[121.95115797000007,11.939131072000064],[121.94799894900005,11.918429136000043],[121.91678278300004,11.902410129000033],[121.88707202000012,11.899884822000045],[121.88197357400009,11.884735659000057],[121.8834896620001,11.854602827000067],[121.88841652500004,11.848225484000068],[121.88225247300011,11.833468579000055],[121.8788387830001,11.810293],[121.86092850100012,11.77964142700006],[121.84359594500006,11.764169970000067],[121.8777692450001,11.771529970000076],[121.89276889900009,11.799825263000061],[121.90380822800012,11.799311806000047],[121.93343850300005,11.821365564000075],[121.96754248800006,11.823849226000048],[121.99037648900003,11.827633858000071],[122.00332330500011,11.825534597000058],[122.02240899100002,11.817209906000073],[122.06392905100007,11.794101714000021],[122.07541857100011,11.784862795000038],[122.0923394880001,11.776767171000072],[122.10901278300003,11.779049931000033],[122.1281677500001,11.763640585000076],[122.15647591200002,11.756762532000039],[122.1554060860001,11.74678345900003],[122.16945530700004,11.732364552000035],[122.17457459100001,11.696275940000024],[122.1706523490001,11.685672361000057],[122.14606124000011,11.656123132000063],[122.14205087300002,11.641073437000045],[122.14231530000008,11.618848266000043],[122.1491168750001,11.595908877000054],[122.13995703900004,11.566394845000046],[122.141238971,11.553002749000028],[122.15490996200003,11.531966966000025],[122.135959737,11.505061038000063],[122.1341435800001,11.473020229000038],[122.13804953300009,11.46445179400007],[122.16159341800005,11.44535398200003],[122.1661023710001,11.43668455100004],[122.16696420200005,11.402434884000057],[122.18810468400011,11.392383335000032],[122.19372804200007,11.374901635000072],[122.1919104650001,11.363839978000046],[122.18272222200005,11.345952808000048],[122.18456384000002,11.332032606000041],[122.19990772800008,11.311955905000046],[122.21426972200005,11.311229724000041],[122.2468685550001,11.317676399000048],[122.27312304000009,11.329970397000066],[122.29807632200004,11.348349114000028],[122.32608554300009,11.374853227000074],[122.34515057400006,11.408734009000057],[122.35076840300007,11.44225880600004],[122.37082335300012,11.42764624600005],[122.40012524700012,11.455984206000037],[122.399397539,11.474120096000036],[122.40507282600005,11.47768442800003],[122.43921808000003,11.475965538000024],[122.45351579300007,11.479252978000032],[122.47260793400005,11.476178983000066],[122.48457481000004,11.48872118600002],[122.50488909,11.484729438000045],[122.53002524900012,11.493157942000039],[122.52670540000008,11.512783739000042],[122.5326996450001,11.518185372000062],[122.535941728,11.535662641000046],[122.55077428000004,11.535207513000044],[122.56479972600006,11.546975991000068],[122.57376008400001,11.541323981000062],[122.57735727300008,11.553467966000028]]],[[[122.45845579500009,11.608081214000036],[122.43072736500007,11.638086020000062],[122.4255840080001,11.635033968000073],[122.43953144800003,11.619233050000048],[122.45845579500009,11.608081214000036]]]]}}]}