{"type":"FeatureCollection","features":[{"type":"Feature","properties":{"geo_id":"geo_ph_0036","name":"Cordillera / Ifugao / Sagada","component":"Ifugao","psgc":"1402700000","boundary_level":"approximate_component"},"geometry":{"type":"Polygon","coordinates":[[[121.567500181,17.07905657500004],[120.89301445400008,16.821064410000073],[120.92950614800007,16.600053544000048],[121.52132234000011,16.838934767000065],[121.567500181,17.07905657500004]]]}},{"type":"Feature","properties":{"geo_id":"geo_ph_0036","name":"Cordillera / Ifugao / Sagada","component":"Mountain Province","psgc":"1404400000","boundary_level":"approximate_component"},"geometry":{"type":"Polygon","coordinates":[[[121.53451524700006,17.269512453000065],[120.91189962700004,17.24891692500006],[120.80474638400005,17.17126978500005],[120.78527385300004,16.92133500700004],[120.89301445400008,16.821064410000073],[121.567500181,17.07905657500004],[121.53451524700006,17.269512453000065]]]}}]}