{"type":"FeatureCollection","features":[{"type":"Feature","properties":{"geo_id":"geo_ph_0028","name":"Negros Occidental","psgc":"0604500000","boundary_level":"province","source_psgc":"0604500000"},"geometry":{"type":"MultiPolygon","coordinates":[[[[123.33591507200003,10.382476470000029],[123.35135076000006,10.40687664200004],[123.35922,10.440724528000034],[123.36683408100009,10.45110532800004],[123.37713956900005,10.45404533900006],[123.3958821230001,10.469591837000051],[123.40390163000006,10.468597393000037],[123.41678266200007,10.479156876000046],[123.42230119200008,10.47656190500004],[123.43339007100009,10.494873640000035],[123.4491583360001,10.505254191000061],[123.45707654600007,10.520950955000044],[123.45741811700009,10.536400627000033],[123.47294735700007,10.550248949000034],[123.46912568900008,10.56322936600003],[123.47609632800003,10.574025342000025],[123.48009462000005,10.589139412000065],[123.49362535400007,10.621887118000071],[123.49311727400004,10.636283787000023],[123.50223441700007,10.66432117100004],[123.50805912100009,10.704604432000053],[123.51485614700003,10.712594258000024],[123.51788428200007,10.725603066000078],[123.53119306800012,10.740268091000074],[123.53082647200004,10.755047500000046],[123.5427817110001,10.751072013000053],[123.54757906100008,10.769561734000035],[123.55977488200004,10.774305902000037],[123.56014187200003,10.78843673500006],[123.56827832600004,10.794357373000025],[123.55729167400013,10.81873388300005],[123.56697624800006,10.82821124700007],[123.5649135660001,10.836623439000052],[123.5320891230001,10.836966821000033],[123.5360060270001,10.85067488200002],[123.52261662400008,10.865664706000075],[123.52246850500002,10.878194250000035],[123.51660107700003,10.890373831000035],[123.51962607300004,10.90122781800005],[123.50807482800008,10.908176423000043],[123.51451924900003,10.918123327000046],[123.49690299000008,10.926342117000047],[123.48888959300008,10.934592829000055],[123.47275535500012,10.921267895000026],[123.44807960100002,10.937497375000019],[123.40837932100011,10.952905679000024],[123.37314997200008,10.961160006000055],[123.34842717100003,10.949895956000033],[123.3314678150001,10.954125227000079],[123.3210697200001,10.950981074000026],[123.27271319100011,10.97810496300002],[123.26658373400005,10.98615212800007],[123.24782775400003,10.988555079000038],[123.24761064100004,10.996740797000028],[123.23351965300003,10.99428831100005],[123.20490193900002,10.99840492900006],[123.19567760300004,11.003010359000028],[123.18495928200002,10.992989050000062],[123.17522946500003,10.98983318300003],[123.1632630030001,10.976567377000038],[123.155340796,10.97748614300002],[123.13159237800005,10.971452222000034],[123.12061054700008,10.95740220700003],[123.11280171100009,10.956259956000054],[123.10281645500004,10.943333050000033],[123.09123172800003,10.93767340700003],[123.07558634300005,10.915364707000036],[123.066919309,10.913216540000066],[123.0472556400001,10.92325647100006],[123.03824302200007,10.923837699000046],[123.01515605400006,10.912932484000066],[122.99646342200003,10.913651507000052],[122.9860922460001,10.90833454400007],[122.98122463600009,10.899196588000052],[122.95728674700003,10.896418433000068],[122.9568535630001,10.867165726000053],[122.9482728250001,10.863394301000028],[122.94647077600007,10.843385618000069],[122.95076010600009,10.826541858000043],[122.94932948400002,10.80581823600005],[122.96237284600012,10.80315329600006],[122.96808340100007,10.795079292000024],[122.96197552700006,10.768530535000027],[122.96434184200007,10.754953653000028],[122.96019569400005,10.72576192400004],[122.9457175240001,10.722817685000054],[122.95102433900001,10.685706885000059],[122.94338441400009,10.681090508000068],[122.93882372700011,10.669056499000023],[122.92954640100004,10.660454728000047],[122.92401483600008,10.646335408000025],[122.92617867500007,10.635101265000058],[122.91446952700005,10.605416661000048],[122.90263193500003,10.599788658000021],[122.89491926300002,10.587138889000073],[122.88294961200006,10.581475059000072],[122.88104856600012,10.565182044000037],[122.8660057190001,10.552488035000067],[122.84943456800012,10.547419128000056],[122.83410222300007,10.552693431000023],[122.8239249710001,10.551298637000059],[122.79567834500007,10.522731827000031],[122.81015991200002,10.506097993000026],[122.82063607400005,10.47792687800006],[122.82400820800002,10.441862342000036],[122.8346714920001,10.425531188000038],[122.85027644100013,10.408102704000044],[122.85691642700012,10.406909893000032],[122.86365782000007,10.376634140000021],[122.86607087200002,10.355070062000035],[122.8596960630001,10.348916452000026],[122.85731429400005,10.325396443000043],[122.84946966500002,10.31623666900003],[122.84178759800011,10.297929047000027],[122.84577374200002,10.28148435600002],[122.84532578000005,10.250295792000031],[122.83988231700005,10.229463500000065],[122.84187158700003,10.20890309200007],[122.85667690700008,10.168864855000038],[122.86218179900003,10.141725282000039],[122.862451565,10.111790203000055],[122.85942301900002,10.093407432000047],[122.84813908300009,10.076743456000031],[122.82181533700009,10.06309428000003],[122.80773288200008,10.061147037000067],[122.78259067500005,10.073302307000064],[122.77497546500003,10.060460779000039],[122.76277786800004,10.054775576000052],[122.75492270400002,10.045121649000064],[122.72363811600007,10.019393479000028],[122.72312204700005,10.015519071000027],[122.6989659730001,9.994295202000044],[122.66985221400012,9.98031723500003],[122.6554276510001,9.976098191000062],[122.61658511300003,9.97527168700003],[122.58136476800007,9.981356524000036],[122.57323076000011,9.979751783000038],[122.50804284600007,9.986625727000044],[122.49343500400005,9.981573188000027],[122.47020779600005,9.982074655000078],[122.45210660500004,9.976125470000053],[122.45072292000009,9.959890089000055],[122.4431860840001,9.936856788000055],[122.44309076600008,9.92387132600004],[122.435263587,9.904481152000072],[122.41874877600003,9.890659012000073],[122.40867404000005,9.87106204400004],[122.39417565200006,9.853864761000066],[122.38179310700004,9.844187581000027],[122.38624574800008,9.835761718000072],[122.38455933300008,9.823714637000025],[122.40110146800009,9.814947174000054],[122.39322891500002,9.785415785000055],[122.39894722200007,9.763991059000034],[122.39863214300011,9.742015355000033],[122.39437237200002,9.72864300100002],[122.3807111750001,9.707460850000075],[122.39701636400004,9.69154067900007],[122.41415362300006,9.706435960000022],[122.420560817,9.693694729000072],[122.40701084900002,9.680355967000024],[122.39871109900002,9.677162419000071],[122.40839249600005,9.659435950000043],[122.43077837800001,9.671614296000032],[122.44387423600006,9.663232461000064],[122.45704037700013,9.660954456000066],[122.458858071,9.644428950000076],[122.44785730000001,9.621929683000076],[122.46445152400008,9.625307175000044],[122.46009152600006,9.609883007000063],[122.47930850600004,9.57738044000007],[122.48068037400003,9.564795279000066],[122.50522822000006,9.556067455000058],[122.51840054600007,9.543942378000054],[122.51668853800003,9.534235640000075],[122.52729810900007,9.517584143000022],[122.53622525900005,9.511394340000036],[122.53340901600008,9.503411899000069],[122.54489377400012,9.489219642000025],[122.55192588600006,9.474784055000043],[122.559039772,9.47221040000005],[122.57891585100005,9.447301326000058],[122.58904149600005,9.444246713000041],[122.59290813500002,9.463638548000059],[122.63557722800009,9.507626268000024],[122.65689231000009,9.533703346000037],[122.68364140000007,9.562847185000065],[122.72332949600003,9.597365594000053],[122.80423183000005,9.70080798600003],[122.87659409700005,9.785435739000036],[122.90675043800003,9.818935856000053],[122.93288003100008,9.852716447000036],[122.98320250300004,9.912625363000075],[123.00419872600001,9.971277159000065],[123.01579588600009,10.012187241000047],[123.07135866600004,10.09779056900004],[123.11066842700008,10.165420105000065],[123.13651653700003,10.198260696000034],[123.18881825200003,10.260563292000029],[123.19455747000005,10.271815747000062],[123.19119873300008,10.303034610000054],[123.16768247000005,10.305539149000024],[123.1634561410001,10.315518531000064],[123.18145967400007,10.322771078000073],[123.18321414700006,10.358187988000054],[123.16031414800011,10.387797962000034],[123.13183057200003,10.41167899100003],[123.14432497400004,10.434843284000067],[123.21869044600011,10.439600951000045],[123.23662027800003,10.437750262000064],[123.2444814260001,10.431866907000028],[123.25046234200009,10.41492806300005],[123.27376300500009,10.405036659000075],[123.33591507200003,10.382476470000029]]],[[[123.5514913500001,10.952387758000041],[123.5721608560001,10.955115708000047],[123.56290941500005,10.969659804000058],[123.5514913500001,10.952387758000041]]],[[[123.42344792800009,10.437640325000073],[123.44061539300004,10.462858864000054],[123.44883125100013,10.467471238000028],[123.44373896100002,10.47931616900007],[123.4311055610001,10.460240997000025],[123.41730136300009,10.44552416500005],[123.42344792800009,10.437640325000073]]]]}}]}