{"type":"FeatureCollection","features":[{"type":"Feature","properties":{"geo_id":"geo_ph_0023","name":"Ilocos Sur","psgc":"102900000","boundary_level":"province"},"geometry":{"type":"Polygon","coordinates":[[[120.57182232500008,17.786033365000037],[120.54059008000002,17.824333185000057],[120.5281210910001,17.878524456000036],[120.48002829200006,17.898077388000043],[120.44338379200008,17.90272064800007],[120.44005329900004,17.867140905000042],[120.45311075100005,17.819130408000035],[120.40263634400003,17.794080668000053],[120.42606927300005,17.774510965000047],[120.43523230500013,17.731811538000045],[120.415776563,17.70888861900005],[120.38320818900002,17.692943489000072],[120.35281905200009,17.635678444000064],[120.34437655300009,17.577796981000063],[120.35184339200009,17.548208770000027],[120.39159110500009,17.516358779000033],[120.41357341600009,17.516623544000026],[120.43594567000004,17.47842835400007],[120.4612753570001,17.40782160400005],[120.45456856300007,17.36126159800005],[120.42839832000006,17.31631017800004],[120.417079553,17.253710443000045],[120.41427879900006,17.204509846000064],[120.42630269900006,17.16897719900004],[120.43625797100003,17.083883638000028],[120.44818463300011,17.04352363600003],[120.444812522,16.974010931000063],[120.41079750900008,16.920904919000066],[120.43577346200004,16.900497252000033],[120.46426010700009,16.914504663000056],[120.48999382900001,16.90546628500005],[120.51072422900006,16.918236059000037],[120.50695831400003,16.846549994000043],[120.53520039300008,16.816054985000047],[120.53514004700003,16.787169211000048],[120.54890816500007,16.767490429000077],[120.54544368800009,16.728928588000027],[120.53478210300011,16.720904921000056],[120.5650648840001,16.669766382000034],[120.57452221100006,16.67126486700004],[120.59903624900006,16.738317935000055],[120.58961744100009,16.747182695000053],[120.58601613200004,16.836661373000027],[120.61018355700003,16.840016965000075],[120.62453594000011,16.877777002000073],[120.669563,16.911981],[120.73856888600005,16.915983209000046],[120.74751261300004,16.926550587000058],[120.78527385300004,16.92133500700004],[120.7800911270001,17.016488273000046],[120.76761284700002,17.066790583000053],[120.77482395200002,17.10802099300002],[120.81235520500002,17.155871674000025],[120.75133329500011,17.15525632500004],[120.73368256900007,17.167989204000037],[120.68144676200005,17.18662150900008],[120.67840099500005,17.25683886900003],[120.63616998800002,17.275628543000032],[120.61194929200009,17.302219217000076],[120.56675985500011,17.30715998400006],[120.5378136380001,17.356986044000053],[120.57786001500004,17.430012811000037],[120.58165948100009,17.471827468000072],[120.56549074100006,17.50175551600006],[120.54333671200003,17.492196233000076],[120.51159320200009,17.49823266400005],[120.47441593400005,17.484247811000042],[120.46816717700004,17.51472706000004],[120.48964597200006,17.55323366400006],[120.48809572800008,17.58461679900006],[120.49781832400004,17.625130266000042],[120.51638505600012,17.649240339000077],[120.54274383600011,17.735323652000037],[120.57182232500008,17.786033365000037]]]}}]}