{"type":"FeatureCollection","features":[{"type":"Feature","properties":{"geo_id":"geo_ph_0031","name":"Occidental Mindoro","psgc":"1705100000","boundary_level":"province"},"geometry":{"type":"MultiPolygon","coordinates":[[[[120.04541247400003,13.866463494000072],[120.0572684030001,13.872208980000039],[120.05479465400005,13.885152870000068],[120.0459672920001,13.896655501000051],[120.02539039300008,13.897023877000038],[120.0180315120001,13.888869304000025],[120.02204174300003,13.88155898100007],[120.03134108600011,13.87765553300005],[120.04541247400003,13.866463494000072]]],[[[120.26887019900003,13.670427757000027],[120.27996166100002,13.687601585000039],[120.2909810860001,13.683258233000059],[120.28690590100007,13.698434228000052],[120.28773679600009,13.711167919000046],[120.2756836870001,13.704371559000037],[120.26866719600002,13.705411269000022],[120.25305381500004,13.716661677000046],[120.25065965100009,13.725849982000057],[120.25669138,13.733890734000054],[120.27887556600001,13.741518611000057],[120.26831343000005,13.750945422000028],[120.26334825100002,13.765133735000063],[120.26374010400002,13.777289721000049],[120.25596737000002,13.784109504000071],[120.2543151650001,13.79234965900002],[120.23616282300009,13.79222571900004],[120.23964758200009,13.801349999000019],[120.23532256200006,13.810009728000066],[120.2232862820001,13.820672090000075],[120.21158271500009,13.82279304100007],[120.210547474,13.812238258000038],[120.20240632100003,13.810935963000077],[120.19251206300008,13.825744945000054],[120.17187965100004,13.825897433000021],[120.16372692600011,13.83020353100005],[120.14875890200005,13.84947336500005],[120.1325082830001,13.857781291000036],[120.10543769700007,13.863482031000046],[120.09021436700004,13.864584576000027],[120.07679464100012,13.85016738200005],[120.08468640800004,13.839152030000033],[120.09427551300008,13.835650970000074],[120.09088033500007,13.810024699000055],[120.0995642490001,13.785622679000028],[120.11178104300006,13.781731384000068],[120.12119734300006,13.769867473000032],[120.12897845600003,13.764820290000047],[120.13992146500004,13.764983045000065],[120.15377221200004,13.758943768000053],[120.15617198300005,13.746355252000056],[120.17434889700007,13.736791960000064],[120.18478645900007,13.740772915000036],[120.20298017800008,13.733987002000047],[120.2098528800001,13.728197713000041],[120.21577379100006,13.71365380700007],[120.23451918400008,13.71148234000003],[120.25391911500003,13.702342792000021],[120.25375496200002,13.695526272000052],[120.26887019900003,13.670427757000027]]],[[[120.30505769400008,13.832022729000071],[120.29671871900008,13.835864352000042],[120.2845754110001,13.832276659000057],[120.28831142500007,13.82257347900003],[120.28408713300006,13.814954912000074],[120.25999405400012,13.811589532000026],[120.2638526950001,13.804629826000053],[120.27423348500008,13.806408271000066],[120.27706840300006,13.788082510000036],[120.31022625100002,13.775112397000044],[120.31471253700009,13.78261236700007],[120.33004386100004,13.787211295000075],[120.33519881200006,13.806161148000058],[120.32707639500006,13.80778972500008],[120.32353852000004,13.819446562000053],[120.30884914300007,13.823301508000043],[120.30505769400008,13.832022729000071]]],[[[120.42262117300004,13.627657895000027],[120.423194382,13.64075457800004],[120.41877643700003,13.647378294000074],[120.40686980200007,13.65497876900002],[120.38004278400001,13.654374891000032],[120.37231573900011,13.666223097000053],[120.35549972200012,13.666331562000039],[120.3400528850001,13.675336285000068],[120.32677948900003,13.675167937000023],[120.31752542300002,13.669970451000042],[120.32895395000003,13.66304811200007],[120.34699723400003,13.661066681000023],[120.36109514400005,13.650138835000066],[120.36719050300007,13.650005990000068],[120.38446187200007,13.640805602000055],[120.38407600200004,13.635679763000038],[120.39874816800011,13.633019374000073],[120.40524104500001,13.628681298000062],[120.42262117300004,13.627657895000027]]],[[[120.88377781900009,13.500751612000043],[120.8742962130001,13.49727023200006],[120.8551514090001,13.484727092000067],[120.84276594900007,13.486814472000045],[120.8130906360001,13.478439081000031],[120.78582836700002,13.468433221000057],[120.77887216900001,13.469991221000045],[120.76270750000003,13.464652527000053],[120.74723758400013,13.466042472000025],[120.73421838000002,13.470384610000053],[120.72162419300004,13.479308338000065],[120.67922616900012,13.488001370000065],[120.67247906900003,13.491943779000053],[120.65348829100004,13.49237210800004],[120.64777054300008,13.488710863000053],[120.61419522200005,13.48910294500007],[120.60964990800005,13.494662037000067],[120.59367624100003,13.496857040000068],[120.58583789400006,13.501766335000067],[120.56043521700008,13.508323020000034],[120.55162686300002,13.504378651000021],[120.52631248300008,13.504285680000066],[120.50545729300006,13.509846982000054],[120.47822040700011,13.50386135300005],[120.4649971120001,13.508510244000034],[120.4537128410001,13.51813722700007],[120.41326832000004,13.53084025500004],[120.36402446700004,13.514656403000062],[120.34544126500009,13.505214643000047],[120.34211065600006,13.497369588000025],[120.32719859300005,13.491132975000024],[120.32011422000005,13.479490019000025],[120.31333364500004,13.47623647800003],[120.31047649800009,13.455868321000022],[120.29917599000011,13.445166755000056],[120.30919437400007,13.431479728000056],[120.3106495510001,13.42018476800007],[120.32412864000003,13.406812655000065],[120.33487999700003,13.391958764000037],[120.34508311500007,13.382094476000075],[120.36109817400006,13.384414676000063],[120.372937492,13.377651851000053],[120.38673705500003,13.375043978000065],[120.39454458100012,13.385472898000046],[120.38880181900004,13.403519739000048],[120.39413816500007,13.411839410000027],[120.4116261040001,13.414590847000055],[120.42576141000006,13.424619798000037],[120.43568731500011,13.427135893000068],[120.45657850900011,13.418639173000033],[120.47422840600005,13.396813493000025],[120.46641339200006,13.379206900000042],[120.46785317700005,13.367730049000043],[120.47403321400009,13.356905287000075],[120.48640964800006,13.320106725000072],[120.48776233700004,13.304359477000045],[120.48207239500005,13.293314112000074],[120.50488060900011,13.265128078000032],[120.51609246800002,13.269856052000021],[120.52318650200003,13.266436541000076],[120.52999459400007,13.247949722000046],[120.5250827200001,13.231103159000043],[120.53013986700012,13.227101528000048],[120.545179865,13.230839737000055],[120.55726798500007,13.225946708000038],[120.57295123400002,13.226951897000047],[120.57329242800006,13.221164849000045],[120.59369627700005,13.221072173000035],[120.6098776560001,13.198568678000072],[120.6216420830001,13.198152470000023],[120.63462856000001,13.193328257000077],[120.64790500700008,13.191938336000021],[120.65362338300008,13.187526114000034],[120.65728720700008,13.175805997000055],[120.67738559300005,13.151344281000036],[120.68324645000008,13.13373403600002],[120.70418807700003,13.106089063000068],[120.72510151100005,13.064967652000064],[120.73181595300002,13.064380409000023],[120.73720078400002,13.055098485000029],[120.76067512800012,13.002569031000064],[120.77139801900013,12.952553632000047],[120.77439830700007,12.932882029000043],[120.7796215420001,12.917398886000058],[120.78344017200006,12.882588960000023],[120.782458571,12.86918232600004],[120.77305419000004,12.845372235000069],[120.77341125900011,12.836381308000059],[120.78393965600003,12.823705027000074],[120.7886725400001,12.790123648000076],[120.78464413800008,12.784737781000048],[120.79251982300003,12.753259814000046],[120.78899065000009,12.734430004000048],[120.79619166500004,12.724348959000054],[120.80423164600008,12.72022516800007],[120.81905997800004,12.72117473900005],[120.83655768500012,12.727594016000069],[120.85297829900004,12.719055145000029],[120.85945118000006,12.712935992000043],[120.87015031000011,12.68273848600006],[120.87950452000007,12.67783007600008],[120.88757624800009,12.663096578000022],[120.90146461900008,12.656961366000072],[120.91201456400006,12.639113303000043],[120.91916307200006,12.619494609000068],[120.92824469900006,12.614455774000021],[120.93854947400007,12.58082537300004],[120.9343025170001,12.558834822000051],[120.92360172000008,12.549946022000029],[120.91956621900009,12.532348773000022],[120.92549691000012,12.514753682000045],[120.92460034300005,12.505793615000073],[120.93339971400009,12.494046264000078],[120.9437958630001,12.487675544000071],[120.960035531,12.456248022000066],[120.97208021500002,12.439876087000073],[120.98010639300004,12.423448437000046],[120.9901790790001,12.417304363000024],[121.00745252900003,12.411373962000026],[121.01676180100002,12.398580592000028],[121.0274908990001,12.377250490000053],[121.04147170100009,12.35966507200004],[121.05854617900002,12.352368202000036],[121.06749464300003,12.339855598000039],[121.08514299400008,12.328081962000054],[121.08755456400003,12.33742644700004],[121.10375673000011,12.327092435000054],[121.11970399400002,12.328331119000037],[121.1182147090001,12.320052118000037],[121.10309947300004,12.30491845700004],[121.09320334000007,12.28893985600007],[121.09482275800008,12.270025366000025],[121.1032587970001,12.275271344000032],[121.11252697000008,12.266284247000042],[121.11077491700007,12.254042585000036],[121.11416599100005,12.244523963000061],[121.12819542400005,12.240812916000039],[121.15083228800007,12.245474187000069],[121.1894971480001,12.244013404000043],[121.21098967300009,12.237882374000037],[121.21942062300002,12.228524634000053],[121.2323294580001,12.223635932000036],[121.24350371600008,12.207783105000033],[121.24089554400008,12.24314360300002],[121.242770747,12.26584895800005],[121.24686917500003,12.291886716000018],[121.23585117000006,12.319666766000067],[121.22949510200012,12.411468316000027],[121.23222803800002,12.440650479000055],[121.23510219400008,12.488426217000038],[121.23873678200006,12.522414437000066],[121.24943248000011,12.545303128000057],[121.2586164600001,12.65069202100005],[121.261273361,12.694725695000047],[121.2562867600001,12.728058734000056],[121.25874112900009,12.756897567000067],[121.24702429300011,12.826554369000064],[121.24354899100003,12.899506232000023],[121.24529862100007,12.923056417000057],[121.24308735500006,12.978253805000064],[121.23957866800005,13.010270545000026],[121.24088143300004,13.065091710000045],[121.18545674800009,13.081633324000055],[121.16962748800006,13.093317855000066],[121.11848852900006,13.105488950000051],[121.00383125200007,13.180538426000057],[120.973278316,13.197198405000055],[120.95167571400009,13.206755686000065],[120.90952363500004,13.227908476000039],[120.86773544400013,13.24703289200005],[120.80067606600007,13.280248262000041],[120.88701512500006,13.422209404000055],[120.888238235,13.477842442000053],[120.88377781900009,13.500751612000043]]],[[[121.10333763100006,12.208372861000042],[121.1058824800001,12.227924586000029],[121.102502576,12.239251178000075],[121.09274652600006,12.256078851000039],[121.0865930110001,12.276194684000073],[121.07421544600005,12.297520782000047],[121.05056855600003,12.293938633000039],[121.04290208200007,12.289966467000058],[121.03506012300011,12.272325569000031],[121.03323711600002,12.243940328000061],[121.03919181300012,12.223300557000073],[121.06873986200004,12.21537058700005],[121.08047013200007,12.206671990000075],[121.08813198800009,12.18992360800007],[121.08639337400007,12.173900804000025],[121.10512202500003,12.171322328000029],[121.11819863700009,12.153010055000037],[121.13514097400002,12.159443421000045],[121.13343681400012,12.170207184000049],[121.12403664400006,12.182697406000045],[121.11577244900002,12.198583619000031],[121.10144754500006,12.200921584000072],[121.10333763100006,12.208372861000042]]],[[[121.0276966460001,12.18542067900006],[121.01915907400007,12.196057111000073],[121.02545249200011,12.204545167000049],[121.03773895100007,12.204157564000067],[121.025831367,12.217842393000069],[121.02139019100002,12.229909659000041],[121.00755031800009,12.232320660000028],[121.00159230100007,12.219654459000026],[121.00672925800008,12.201413520000076],[121.01209398200001,12.201008354000065],[121.0276966460001,12.18542067900006]]]]}}]}