{"type":"FeatureCollection","features":[{"type":"Feature","properties":{"geo_id":"geo_ph_0068","name":"Dumaguete","psgc":"0704610000","boundary_level":"municipality","source_name":"City of Dumaguete","source_psgc":"0704610000"},"geometry":{"type":"Polygon","coordinates":[[[123.30958649900003,9.332437018000064],[123.2517841990001,9.323173650000058],[123.26600095900007,9.273704493000027],[123.30152086600002,9.275949610000055],[123.31170202400006,9.29949504000007],[123.30958649900003,9.332437018000064]]]}}]}