{
  "type": "FeatureCollection",
  "features": [
    {
      "type": "Feature",
      "properties": {
        "geo_id": "geo_bn_0003",
        "name": "Belait",
        "boundary_level": "district",
        "osm_type": "relation",
        "osm_id": 3853884,
        "source_checked_at": "2026-10-01"
      },
      "geometry": {
        "type": "Polygon",
        "coordinates": [
          [
            [
              114.00257,
              4.773937
            ],
            [
              114.053639,
              4.724553
            ],
            [
              114.06198,
              4.713484
            ],
            [
              114.068188,
              4.701101
            ],
            [
              114.071519,
              4.690349
            ],
            [
              114.073298,
              4.678363
            ],
            [
              114.073298,
              4.667975
            ],
            [
              114.071667,
              4.655556
            ],
            [
              114.073611,
              4.595833
            ],
            [
              114.076425,
              4.58389
            ],
            [
              114.162633,
              4.573385
            ],
            [
              114.190518,
              4.54632
            ],
            [
              114.199079,
              4.531405
            ],
            [
              114.213346,
              4.536247
            ],
            [
              114.260631,
              4.506353
            ],
            [
              114.283572,
              4.463798
            ],
            [
              114.282988,
              4.454907
            ],
            [
              114.29498,
              4.440807
            ],
            [
              114.307962,
              4.415427
            ],
            [
              114.314949,
              4.393222
            ],
            [
              114.309055,
              4.376962
            ],
            [
              114.306565,
              4.366241
            ],
            [
              114.332961,
              4.348711
            ],
            [
              114.326558,
              4.325668
            ],
            [
              114.323459,
              4.318351
            ],
            [
              114.316447,
              4.263627
            ],
            [
              114.324069,
              4.256921
            ],
            [
              114.347874,
              4.259105
            ],
            [
              114.364565,
              4.255676
            ],
            [
              114.372035,
              4.263958
            ],
            [
              114.382553,
              4.264872
            ],
            [
              114.397593,
              4.261112
            ],
            [
              114.399829,
              4.262865
            ],
            [
              114.402445,
              4.263272
            ],
            [
              114.405265,
              4.261951
            ],
            [
              114.407247,
              4.258292
            ],
            [
              114.419289,
              4.254684
            ],
            [
              114.419747,
              4.253389
            ],
            [
              114.422414,
              4.253058
            ],
            [
              114.423557,
              4.253719
            ],
            [
              114.423685,
              4.256336
            ],
            [
              114.425844,
              4.258749
            ],
            [
              114.427648,
              4.263551
            ],
            [
              114.427521,
              4.264288
            ],
            [
              114.426073,
              4.2651
            ],
            [
              114.425615,
              4.266015
            ],
            [
              114.428537,
              4.266726
            ],
            [
              114.430518,
              4.26787
            ],
            [
              114.431306,
              4.272112
            ],
            [
              114.43278,
              4.272697
            ],
            [
              114.434024,
              4.274399
            ],
            [
              114.43499,
              4.274653
            ],
            [
              114.435854,
              4.274348
            ],
            [
              114.43654,
              4.272214
            ],
            [
              114.438013,
              4.272138
            ],
            [
              114.43997,
              4.275644
            ],
            [
              114.440554,
              4.278108
            ],
            [
              114.444289,
              4.279836
            ],
            [
              114.449218,
              4.27887
            ],
            [
              114.450666,
              4.27793
            ],
            [
              114.452165,
              4.275237
            ],
            [
              114.452953,
              4.27003
            ],
            [
              114.453918,
              4.268429
            ],
            [
              114.4559,
              4.267387
            ],
            [
              114.455315,
              4.264923
            ],
            [
              114.456636,
              4.263602
            ],
            [
              114.455518,
              4.261315
            ],
            [
              114.45656,
              4.2588
            ],
            [
              114.456179,
              4.250772
            ],
            [
              114.454051,
              4.248155
            ],
            [
              114.453898,
              4.243785
            ],
            [
              114.454178,
              4.241829
            ],
            [
              114.457023,
              4.236367
            ],
            [
              114.458344,
              4.231972
            ],
            [
              114.458954,
              4.231108
            ],
            [
              114.46091,
              4.230269
            ],
            [
              114.461393,
              4.229228
            ],
            [
              114.460224,
              4.219828
            ],
            [
              114.463832,
              4.213477
            ],
            [
              114.463806,
              4.210098
            ],
            [
              114.466626,
              4.208015
            ],
            [
              114.467211,
              4.205601
            ],
            [
              114.469726,
              4.204254
            ],
            [
              114.470793,
              4.201764
            ],
            [
              114.472775,
              4.199859
            ],
            [
              114.474223,
              4.194752
            ],
            [
              114.476153,
              4.191348
            ],
            [
              114.477322,
              4.187283
            ],
            [
              114.478796,
              4.185631
            ],
            [
              114.482251,
              4.171913
            ],
            [
              114.485249,
              4.166222
            ],
            [
              114.489314,
              4.161649
            ],
            [
              114.492363,
              4.154383
            ],
            [
              114.495894,
              4.150089
            ],
            [
              114.496097,
              4.148895
            ],
            [
              114.495056,
              4.147168
            ],
            [
              114.497977,
              4.146025
            ],
            [
              114.500213,
              4.143611
            ],
            [
              114.503211,
              4.142442
            ],
            [
              114.509016,
              4.143687
            ],
            [
              114.514199,
              4.146634
            ],
            [
              114.516689,
              4.14671
            ],
            [
              114.520525,
              4.144398
            ],
            [
              114.527816,
              4.135837
            ],
            [
              114.533532,
              4.13134
            ],
            [
              114.537343,
              4.128977
            ],
            [
              114.541459,
              4.128647
            ],
            [
              114.544863,
              4.126005
            ],
            [
              114.547074,
              4.118129
            ],
            [
              114.547785,
              4.111295
            ],
            [
              114.547277,
              4.109872
            ],
            [
              114.545371,
              4.108348
            ],
            [
              114.544203,
              4.104867
            ],
            [
              114.545244,
              4.103546
            ],
            [
              114.548725,
              4.103622
            ],
            [
              114.55063,
              4.102936
            ],
            [
              114.551951,
              4.098491
            ],
            [
              114.554035,
              4.095899
            ],
            [
              114.556016,
              4.094553
            ],
            [
              114.554975,
              4.091275
            ],
            [
              114.555127,
              4.089674
            ],
            [
              114.552764,
              4.084873
            ],
            [
              114.553755,
              4.082332
            ],
            [
              114.555635,
              4.081087
            ],
            [
              114.55998,
              4.080782
            ],
            [
              114.562774,
              4.078902
            ],
            [
              114.56595,
              4.078826
            ],
            [
              114.567423,
              4.077937
            ],
            [
              114.570904,
              4.073949
            ],
            [
              114.573318,
              4.069858
            ],
            [
              114.578907,
              4.063964
            ],
            [
              114.57972,
              4.05995
            ],
            [
              114.583023,
              4.054945
            ],
            [
              114.583938,
              4.049508
            ],
            [
              114.587647,
              4.047501
            ],
            [
              114.591026,
              4.046536
            ],
            [
              114.59692,
              4.046638
            ],
            [
              114.602052,
              4.047933
            ],
            [
              114.614449,
              4.044554
            ],
            [
              114.616914,
              4.042242
            ],
            [
              114.619505,
              4.038127
            ],
            [
              114.627305,
              4.030251
            ],
            [
              114.627559,
              4.028371
            ],
            [
              114.626543,
              4.026109
            ],
            [
              114.62634,
              4.022426
            ],
            [
              114.625196,
              4.02019
            ],
            [
              114.624764,
              4.017675
            ],
            [
              114.617117,
              4.012645
            ],
            [
              114.614221,
              4.007386
            ],
            [
              114.610029,
              4.005378
            ],
            [
              114.609902,
              4.004591
            ],
            [
              114.610715,
              4.003498
            ],
            [
              114.619073,
              4.002508
            ],
            [
              114.627152,
              4.003066
            ],
            [
              114.636298,
              4.005556
            ],
            [
              114.642116,
              4.005175
            ],
            [
              114.649205,
              4.006242
            ],
            [
              114.660129,
              4.010256
            ],
            [
              114.676567,
              4.017141
            ],
            [
              114.696612,
              4.028167
            ],
            [
              114.703344,
              4.033401
            ],
            [
              114.718511,
              4.043715
            ],
            [
              114.724151,
              4.049026
            ],
            [
              114.726844,
              4.053243
            ],
            [
              114.733348,
              4.06122
            ],
            [
              114.741808,
              4.075295
            ],
            [
              114.753063,
              4.088735
            ],
            [
              114.755718,
              4.09327
            ],
            [
              114.759478,
              4.096496
            ],
            [
              114.76494,
              4.102543
            ],
            [
              114.774239,
              4.110876
            ],
            [
              114.777897,
              4.119031
            ],
            [
              114.78341,
              4.121825
            ],
            [
              114.788593,
              4.1234
            ],
            [
              114.79126,
              4.123655
            ],
            [
              114.793267,
              4.125509
            ],
            [
              114.793877,
              4.129549
            ],
            [
              114.792785,
              4.132216
            ],
            [
              114.796265,
              4.134071
            ],
            [
              114.797383,
              4.135748
            ],
            [
              114.800559,
              4.13806
            ],
            [
              114.801423,
              4.143116
            ],
            [
              114.80249,
              4.145148
            ],
            [
              114.80719,
              4.148451
            ],
            [
              114.808841,
              4.157216
            ],
            [
              114.808562,
              4.158791
            ],
            [
              114.807495,
              4.160188
            ],
            [
              114.804777,
              4.161281
            ],
            [
              114.798171,
              4.158029
            ],
            [
              114.79563,
              4.157597
            ],
            [
              114.793903,
              4.158435
            ],
            [
              114.793115,
              4.159883
            ],
            [
              114.793827,
              4.163593
            ],
            [
              114.795097,
              4.165777
            ],
            [
              114.796723,
              4.166971
            ],
            [
              114.797663,
              4.16847
            ],
            [
              114.798603,
              4.170528
            ],
            [
              114.800051,
              4.178023
            ],
            [
              114.802719,
              4.182469
            ],
            [
              114.805285,
              4.184831
            ],
            [
              114.805539,
              4.188591
            ],
            [
              114.807165,
              4.191615
            ],
            [
              114.812626,
              4.197509
            ],
            [
              114.813744,
              4.19977
            ],
            [
              114.817758,
              4.203581
            ],
            [
              114.8204,
              4.207265
            ],
            [
              114.831961,
              4.220044
            ],
            [
              114.832951,
              4.225913
            ],
            [
              114.836737,
              4.229622
            ],
            [
              114.841538,
              4.239174
            ],
            [
              114.84385,
              4.245145
            ],
            [
              114.847612,
              4.250481
            ],
            [
              114.850811,
              4.258777
            ],
            [
              114.857749,
              4.269565
            ],
            [
              114.857831,
              4.272086
            ],
            [
              114.856475,
              4.27486
            ],
            [
              114.856871,
              4.27823
            ],
            [
              114.856342,
              4.278684
            ],
            [
              114.855328,
              4.278498
            ],
            [
              114.850245,
              4.276701
            ],
            [
              114.848172,
              4.275251
            ],
            [
              114.835691,
              4.260475
            ],
            [
              114.834162,
              4.259796
            ],
            [
              114.828017,
              4.259853
            ],
            [
              114.824426,
              4.256862
            ],
            [
              114.820413,
              4.251567
            ],
            [
              114.818163,
              4.250707
            ],
            [
              114.816068,
              4.250877
            ],
            [
              114.81398,
              4.253739
            ],
            [
              114.814042,
              4.25711
            ],
            [
              114.816578,
              4.259711
            ],
            [
              114.819579,
              4.264779
            ],
            [
              114.825157,
              4.272539
            ],
            [
              114.826433,
              4.273493
            ],
            [
              114.794163,
              4.300239
            ],
            [
              114.758143,
              4.320021
            ],
            [
              114.739488,
              4.346066
            ],
            [
              114.731685,
              4.376607
            ],
            [
              114.715983,
              4.405866
            ],
            [
              114.696686,
              4.429664
            ],
            [
              114.672515,
              4.453088
            ],
            [
              114.650966,
              4.480166
            ],
            [
              114.62797,
              4.503033
            ],
            [
              114.596809,
              4.522334
            ],
            [
              114.590815,
              4.54732
            ],
            [
              114.595517,
              4.577731
            ],
            [
              114.582495,
              4.59804
            ],
            [
              114.559447,
              4.59941
            ],
            [
              114.54105,
              4.601812
            ],
            [
              114.533045,
              4.618616
            ],
            [
              114.533039,
              4.635215
            ],
            [
              114.538339,
              4.663851
            ],
            [
              114.53711,
              4.674084
            ],
            [
              114.526615,
              4.680637
            ],
            [
              114.522211,
              4.686135
            ],
            [
              114.523632,
              4.694847
            ],
            [
              114.526036,
              4.704006
            ],
            [
              114.523423,
              4.708158
            ],
            [
              114.522058,
              4.708684
            ],
            [
              114.518094,
              4.707502
            ],
            [
              114.37871,
              4.856956
            ],
            [
              114.368143,
              4.851138
            ],
            [
              114.356127,
              4.846353
            ],
            [
              114.346061,
              4.841638
            ],
            [
              114.30977,
              4.8289
            ],
            [
              114.273711,
              4.814721
            ],
            [
              114.245619,
              4.804904
            ],
            [
              114.212274,
              4.795485
            ],
            [
              114.203653,
              4.79374
            ],
            [
              114.183327,
              4.795449
            ],
            [
              114.161379,
              4.794954
            ],
            [
              114.1458,
              4.793123
            ],
            [
              114.123073,
              4.788164
            ],
            [
              114.116003,
              4.787687
            ],
            [
              114.10223,
              4.787293
            ],
            [
              114.073861,
              4.787933
            ],
            [
              114.055035,
              4.78684
            ],
            [
              114.042578,
              4.785125
            ],
            [
              114.027199,
              4.781884
            ],
            [
              114.015107,
              4.778426
            ],
            [
              114.003256,
              4.774212
            ],
            [
              114.00257,
              4.773937
            ]
          ]
        ]
      }
    }
  ]
}
