{"type":"FeatureCollection","features":[{"type":"Feature","properties":{"geo_id":"geo_ph_0053","name":"Puerto Princesa","psgc":"1731500000","boundary_level":"city_huc"},"geometry":{"type":"Polygon","coordinates":[[[119.06621,10.22649],[119.05529,10.22528],[118.97151,10.31015],[118.97806,10.29898],[118.95889,10.28304],[118.9507,10.24121],[118.93649,10.20578],[118.89719,10.19629],[118.88073,10.20904],[118.86219,10.20946],[118.84452,10.19009],[118.83116,10.18636],[118.8168,10.19628],[118.80608,10.19263],[118.80471,10.17402],[118.81344,10.13272],[118.81022,10.1114],[118.83052,10.10265],[118.80648,10.05187],[118.80816,10.02818],[118.77452,10.02445],[118.77383,10.07099],[118.77034,10.10608],[118.76359,10.11399],[118.7466,10.10635],[118.74583,10.08481],[118.73707,10.08088],[118.72529,10.05932],[118.72148,10.03508],[118.69213,10.02864],[118.67853,10.00981],[118.64927,9.99977],[118.65218,9.98274],[118.66336,9.97545],[118.64228,9.94754],[118.64573,9.93617],[118.60643,9.90811],[118.61417,9.88818],[118.6062,9.87153],[118.58892,9.85585],[118.56918,9.8475],[118.56834,9.83468],[118.52177,9.77728],[118.47543,9.73264],[118.44867,9.72781],[118.43279,9.71504],[118.40903,9.68108],[118.53303,9.57953],[118.55056,9.56317],[118.59598,9.51068],[118.62267,9.48954],[118.62208,9.50524],[118.63781,9.50474],[118.66075,9.55979],[118.67493,9.56198],[118.69532,9.58477],[118.70355,9.61042],[118.72232,9.62586],[118.74773,9.65725],[118.76059,9.6666],[118.76194,9.68729],[118.74416,9.68252],[118.71962,9.6846],[118.72462,9.70815],[118.69944,9.70887],[118.70066,9.7287],[118.69317,9.74804],[118.69166,9.76964],[118.73568,9.77344],[118.73355,9.72972],[118.77269,9.72876],[118.77198,9.80595],[118.74174,9.84438],[118.7474,9.88257],[118.74105,9.89652],[118.75787,9.93201],[118.79143,9.94488],[118.82256,9.9381],[118.85323,9.97185],[118.88186,9.98127],[118.9125,9.97475],[118.94966,9.98369],[118.98394,9.9863],[119.00321,9.99727],[119.06244,10.00951],[119.09205,10.0213],[119.13609,10.02542],[119.15858,10.12052],[119.06621,10.22649]]]}}]}