{"type":"FeatureCollection","features":[{"type":"Feature","properties":{"geo_id":"geo_ph_0026","name":"Samar","psgc":"806000000","boundary_level":"province"},"geometry":{"type":"MultiPolygon","coordinates":[[[[125.16829145700002,12.282900013000074],[125.15079612000011,12.285214755000025],[125.11634618700009,12.283582044000068],[125.03602115700004,12.24528407500003],[125.0196413990001,12.240434260000027],[124.99363217000005,12.230696290000026],[124.97507719400005,12.227870578000022],[124.9486492640001,12.230541531000027],[124.92910333100008,12.23562228400004],[124.911418421,12.245613691000075],[124.90726746500002,12.252334253000074],[124.9007523780001,12.233276589000068],[124.86831908600004,12.165273406000038],[124.85798196200005,12.137552355000023],[124.83217120800009,12.174381966000052],[124.84402041200009,12.217657946000033],[124.7922166410001,12.240866626000068],[124.75239134100003,12.262225584000078],[124.70963361000008,12.27783331200004],[124.67746106000004,12.245325002000072],[124.67260615600003,12.254165949000024],[124.66395427800012,12.251582995000035],[124.65744595900004,12.241858185000067],[124.64881725600003,12.243071856000029],[124.64856456300004,12.234697057000062],[124.62653126700002,12.228430569000066],[124.60823009600007,12.242421338000042],[124.61705272900008,12.25293091900005],[124.60154314500004,12.264455994000057],[124.59298314000013,12.260343319000071],[124.5949738710001,12.252414318000033],[124.51666026800001,12.315449646000047],[124.51175930900003,12.326589778000026],[124.48980371500012,12.331030033000046],[124.47708579200001,12.34096342300006],[124.42632817000005,12.283301340000037],[124.36841836500003,12.283196331000052],[124.35739338700012,12.281708523000077],[124.36023033100004,12.26670880800003],[124.3667250090001,12.256282593000037],[124.37026357900005,12.243760336000038],[124.38351597000008,12.21778969300004],[124.39045583900008,12.195106796000061],[124.40226768000002,12.189613471000028],[124.41634454900009,12.180249944000021],[124.42189864300009,12.168433981000021],[124.42651788500007,12.169871210000053],[124.4387726770001,12.163596664000067],[124.45047214500003,12.152978216000065],[124.45453407700006,12.142666993000034],[124.46185805300001,12.13715466900004],[124.47252815500008,12.121864829000058],[124.47383139500006,12.112618769000047],[124.48381957600009,12.103002034000042],[124.49379306100002,12.09916891000006],[124.50390595100008,12.090715921000028],[124.50018923600011,12.083190622000073],[124.51197414,12.08271436900003],[124.5212517760001,12.075997147000068],[124.52789562600005,12.06350874100002],[124.53574273400011,12.05826361100003],[124.54623300700007,12.059011906000025],[124.56638506700006,12.066567254000063],[124.5773886070001,12.065143564000039],[124.59427351600004,12.06597374900002],[124.61658138400003,12.056535555000037],[124.63517852300004,12.052539806000029],[124.64941737800007,12.043323365000047],[124.66462003000004,12.027874155000063],[124.67457875000002,12.02108543900005],[124.67677984800001,12.015673761000075],[124.69023594200006,12.003768380000054],[124.6925987200001,11.985363246000073],[124.68650774900006,11.976528758000029],[124.69145434300003,11.96247421000004],[124.7050822560001,11.94501659300005],[124.71323040700008,11.942154814000048],[124.72086235000008,11.944224035000044],[124.72654023600012,11.933695802000043],[124.74216854300005,11.926678170000054],[124.749164564,11.91342814400002],[124.7449938110001,11.896082118000038],[124.75591930700011,11.90269057800003],[124.78870499300002,11.909745275000034],[124.7940323690001,11.912978500000065],[124.80759241200009,11.90105199800007],[124.80344389200002,11.893184877000063],[124.79719290900005,11.904557203000024],[124.79320790200008,11.894640690000072],[124.79896102200006,11.886424188000037],[124.78071844200007,11.881643585000061],[124.78925355500007,11.868978712000056],[124.78504106600008,11.86209458600007],[124.79791092800009,11.858703984000044],[124.80393758400011,11.851580543000068],[124.80446892100007,11.843987959000057],[124.81882848100008,11.845888372000044],[124.82421033900006,11.835869962000062],[124.83588722600008,11.830416181000034],[124.83934680800007,11.817300286000034],[124.8303160600001,11.812242975000062],[124.83095349300004,11.799222003000066],[124.8399537470001,11.802729998000073],[124.8363928010001,11.812405897000072],[124.84262379400002,11.816871213000068],[124.85000278000007,11.812226396000028],[124.85643458100003,11.813658492000059],[124.86511246600004,11.797995806000074],[124.86364373800008,11.786953489000041],[124.8682619430001,11.782089449000066],[124.87730224400003,11.782188537000023],[124.88515147100007,11.762436779000039],[124.88457887800006,11.75670038600003],[124.89269365200005,11.75074333000003],[124.90097564300005,11.754975434000071],[124.90864400900013,11.740830519000042],[124.91895434100002,11.743232873000068],[124.95131353800002,11.76119784900004],[124.95989328000007,11.767300541000054],[124.97225471700007,11.767916462000072],[124.99475736400008,11.777709164000045],[124.99958910600004,11.77540968100004],[125.01292376900005,11.77848712800005],[125.02238681000006,11.76552994900004],[125.032458098,11.765026393000028],[125.04441908200009,11.749525153000034],[125.0235784340001,11.729388201000061],[125.00967931000002,11.702848536000033],[124.99290998600009,11.686142037000023],[124.981386014,11.680819381000049],[124.97348665900007,11.667136438000059],[124.97712043500009,11.654256822000034],[124.98883159700006,11.638584516000035],[124.98965839800006,11.627288400000053],[124.99469819800005,11.619385221000071],[124.98497889900011,11.61696540100007],[124.97184293000008,11.608382609000042],[124.96683944100005,11.600740716000075],[124.95729883300008,11.59638216400003],[124.960235011,11.582479101000049],[124.94950290700001,11.571945298000058],[124.93727553300005,11.573967995000032],[124.92716582900005,11.567218217000061],[124.91051250500006,11.576535902000044],[124.89622711900006,11.573141297000062],[124.88935916900004,11.578650049000032],[124.88017804800008,11.568405244000076],[124.87771721700005,11.560437181000053],[124.8826903710001,11.555411424000058],[124.89321638700005,11.554458979000058],[124.89602715100013,11.547315177000028],[124.89366355600009,11.538729608000038],[124.88688411900011,11.533938273000047],[124.87190364300011,11.533336769000071],[124.86751052900003,11.542323678000061],[124.86020649500006,11.547161321000031],[124.84879388800006,11.541725489000044],[124.84162823300005,11.531532981000057],[124.83475633400008,11.530468032000044],[124.83257385100002,11.512758531000033],[124.8218520140001,11.51084735100005],[124.83169910500011,11.49843926700004],[124.82972555700009,11.490716957000075],[124.83157768600007,11.478183748000049],[124.83806273300002,11.474824350000064],[124.84029821400009,11.465541196000057],[124.85189658900003,11.463243043000038],[124.87551906300008,11.47250600800004],[124.88632217400003,11.47196521500007],[124.88484799100003,11.485543920000055],[124.89285706100007,11.494676183000026],[124.8941745840001,11.507199826000031],[124.90648552800008,11.49704107900004],[124.89955414300003,11.492502149000071],[124.90290890800009,11.481681362000076],[124.9023363010001,11.470665944000073],[124.91470574100002,11.468023571000062],[124.91929552400008,11.459594894000073],[124.935176092,11.454134450000026],[124.94064937900009,11.448705848000031],[124.94774070800008,11.452489806000074],[124.9597959030001,11.454299623000054],[124.96504928700006,11.444560467000032],[124.9636307500001,11.43224096800003],[124.97773140800008,11.430082699000025],[124.98811453300003,11.416668103000061],[124.98601447600004,11.395148807000053],[124.9900718470001,11.387513834000062],[124.98614517200008,11.381542722000063],[124.993178037,11.369885965000037],[124.993349093,11.351249747000054],[124.98550647900004,11.341636641000036],[124.98201532300006,11.33153721900004],[124.97552797300011,11.325835521000043],[124.97394935600005,11.30924058200003],[124.97961426600011,11.296041868000032],[124.97765472400012,11.28469534100003],[124.98857088600005,11.285626787000067],[125.00499343600006,11.267873593000045],[125.01145685200004,11.27622056800004],[125.01946788500004,11.277622990000053],[125.027832212,11.274521514000067],[125.04480258000001,11.281249925000052],[125.06622868500006,11.277869864000024],[125.07172167900002,11.282526439000039],[125.08581716900005,11.279753112000035],[125.10222233500008,11.279791834000035],[125.12442659700004,11.284242653000037],[125.13821140400012,11.282091320000061],[125.1510497180001,11.27535613200007],[125.16021739500003,11.260540803000026],[125.16731370800005,11.256129078000074],[125.16728346200011,11.249212581000052],[125.1771483550001,11.234171503000027],[125.17471012600004,11.229000900000072],[125.182517888,11.212833906000071],[125.17955675500002,11.201993473000073],[125.1822203260001,11.194794860000059],[125.18956427000012,11.191481276000045],[125.19425552300004,11.183798696000052],[125.19369600600008,11.171948326000063],[125.20027251200007,11.146767707000036],[125.20459173200004,11.14264444300005],[125.20226612400006,11.134233295000058],[125.20863763000013,11.125847098000065],[125.21180161400002,11.109337545000074],[125.20720027600011,11.106225783000069],[125.20929185400007,11.098093531000075],[125.2352902120001,11.085927619000074],[125.24251935400002,11.093029469000044],[125.2466330740001,11.122447398000071],[125.24096438700009,11.151653059000068],[125.24661632000006,11.158922365000022],[125.24516387200003,11.17380995900004],[125.24690071700003,11.21118228000006],[125.246335917,11.311455266000051],[125.28066316600007,11.361909573000046],[125.30911645700007,11.396150008000062],[125.28565771500006,11.422534495000038],[125.24267355900007,11.433261028000059],[125.22074837000004,11.446147317000056],[125.21329426300008,11.471111887000063],[125.22197650200008,11.486198664000026],[125.22234098300011,11.516194788000062],[125.21642020100013,11.52838463300003],[125.21038826200002,11.550841041000067],[125.16104075300008,11.564051392000067],[125.1716666860001,11.583237104000034],[125.17756998200002,11.603603475000057],[125.18022646500002,11.63843292000007],[125.21763722000003,11.627072688000055],[125.23009378200004,11.639759928000046],[125.25419052700009,11.657900176000053],[125.28287505800004,11.675657267000075],[125.27900492300012,11.714472447000045],[125.27049977100013,11.757305849000032],[125.2688080260001,11.827750626000066],[125.25328902000001,11.87214929500004],[125.24062638200006,11.895869560000051],[125.2339716670001,11.918785394000054],[125.22550176000004,11.937736278000044],[125.19247005000013,12.00366525800007],[125.14155645500013,12.009628130000065],[125.12540541200008,12.075039856000048],[125.1274242920001,12.17881031200005],[125.155553,12.206284656000035],[125.16829145700002,12.282900013000074]]],[[[124.17556782400005,12.031037765000065],[124.1783039940001,12.040405675000045],[124.18987988700007,12.047749862000046],[124.19722620100005,12.046239243000057],[124.20192293500008,12.053424118000066],[124.22631671200008,12.063856407000058],[124.23690060300011,12.064651843000037],[124.23616731700008,12.07729511900004],[124.22269215600012,12.083944361000022],[124.21056198700012,12.075555928000028],[124.20455951500004,12.078920196000066],[124.18841779700007,12.077821456000038],[124.18190233100007,12.081075992000024],[124.17232435300004,12.07380132000003],[124.1681956330001,12.076779183000038],[124.15761520900001,12.06262553600004],[124.15009180900006,12.06243082800006],[124.15163964700001,12.053692901000034],[124.14517634300012,12.046776657000066],[124.14817955200012,12.042543183000076],[124.16031902800013,12.042940460000064],[124.17556782400005,12.031037765000065]]],[[[124.40902392500003,11.960254519000047],[124.41211987800011,11.958373841000023],[124.42884945100003,11.960440536000021],[124.4338927120001,11.966933442000025],[124.43634386100008,11.977470909000033],[124.4289056880001,11.988547323000036],[124.41517508700008,11.990807979000063],[124.40384412200001,11.985694020000036],[124.4095000100001,11.979876814000024],[124.40354300900005,11.966782088000057],[124.40902392500003,11.960254519000047]]],[[[124.29563770800007,11.894816486000023],[124.31326339500004,11.906963578000044],[124.31603809700006,11.923242497000045],[124.33451554800003,11.93913104400002],[124.33219224600009,11.960211246000027],[124.29918240300005,11.941004848000034],[124.30106389800005,11.936574357000039],[124.2875932190001,11.925287706000063],[124.27878152100004,11.921720942000036],[124.27793898400013,11.908338143000035],[124.28593624000007,11.909912973000075],[124.28246421300003,11.89773826800007],[124.29253818500001,11.899707314000068],[124.29563770800007,11.894816486000023]]],[[[124.36536418700007,11.95256057000006],[124.36192452600005,11.943790873000069],[124.36487816500005,11.937102695000021],[124.37271552500012,11.939881729000035],[124.37453233800012,11.951013555000031],[124.36536418700007,11.95256057000006]]],[[[124.44590735200008,11.882599194000022],[124.45271010500005,11.880561495000052],[124.46697638200011,11.890715585000065],[124.4600192050001,11.89849939000004],[124.4630124800001,11.902520759000025],[124.46067968500006,11.916305327000032],[124.44432787400002,11.931851837000067],[124.42814897000005,11.920672123000031],[124.42337165200001,11.921455418000047],[124.42019947000006,11.907146209000075],[124.4135125460001,11.898444562000066],[124.41658243300004,11.89095573700007],[124.42450703100009,11.890579348000076],[124.43330941500005,11.885644883000055],[124.44590735200008,11.882599194000022]]],[[[124.64038496100012,11.920957904000035],[124.632219082,11.915586898000072],[124.63718059800011,11.902428815000064],[124.64821046900012,11.899286574000028],[124.65802136200011,11.892005549000032],[124.65877660700006,11.90117248100006],[124.66447313000005,11.908622080000042],[124.64413079500002,11.908615474000044],[124.64038496100012,11.920957904000035]]],[[[124.69163610000011,11.829976971000065],[124.70779162200006,11.82449681400004],[124.70799025800011,11.833953397000068],[124.69564608000007,11.835869647000036],[124.69163610000011,11.829976971000065]]],[[[124.67735128800008,11.817251006000047],[124.68609542900005,11.81852346200003],[124.68769533700005,11.826944431000072],[124.67548790100012,11.823640524000039],[124.67735128800008,11.817251006000047]]],[[[124.76569160500003,11.69763829200002],[124.77440319600008,11.707297262000052],[124.77076350700007,11.712200661000054],[124.77510368800006,11.730083851000073],[124.74943827000006,11.723213491000022],[124.75523547700004,11.704221730000025],[124.76569160500003,11.69763829200002]]],[[[124.70693311600009,11.70721327900003],[124.71467063700004,11.705515845000035],[124.7247140400001,11.695927237000033],[124.72024177800004,11.673059806000024],[124.73188226700007,11.67327113500005],[124.732341313,11.66342705100004],[124.74105082200003,11.650356155000054],[124.74798574800002,11.649947027000055],[124.74989932800008,11.64250320900004],[124.75591719800002,11.640494280000041],[124.76062805000004,11.629519057000039],[124.7679562720001,11.627850348000038],[124.78221648300006,11.609461454000042],[124.78647379400003,11.599727969000071],[124.7814131670001,11.594977289000042],[124.76621654100006,11.605617676000067],[124.76076943500004,11.59914157300005],[124.7649673750001,11.576471034000065],[124.78098989900003,11.567858853000073],[124.7921727900001,11.56960397900002],[124.80715273600003,11.565160964000027],[124.80207803600001,11.557839685000031],[124.79080085700004,11.55973476100007],[124.78973157200004,11.555331566000062],[124.79470703000004,11.543813295000062],[124.8042320300001,11.543275443000029],[124.81085683000003,11.535605456000042],[124.8235157270001,11.530000145000027],[124.83917322900005,11.549467884000023],[124.83390712000006,11.556606217000022],[124.83653604800008,11.590280437000043],[124.84370491700008,11.596663204000038],[124.84198424400007,11.605152477000043],[124.83258471600004,11.603148120000071],[124.82325073900007,11.607321409000063],[124.81364824700006,11.602385730000037],[124.80883536700003,11.609604551000077],[124.80004543000007,11.60885138400005],[124.8025898730001,11.599725966000053],[124.79503286200008,11.600040663000073],[124.78749341900004,11.620823415000077],[124.79557507900005,11.621568758000024],[124.79153979200011,11.63004062500005],[124.80198546600002,11.643540758000027],[124.79989000000012,11.649575877000075],[124.78780331800012,11.656520602000056],[124.7869394510001,11.663130865000028],[124.77616784800011,11.670779433000064],[124.767767251,11.670630452000069],[124.78233176800008,11.68414204100003],[124.77418179500012,11.691271968000024],[124.76913942200007,11.685808878000048],[124.75413780300006,11.68613468900003],[124.75713116800011,11.695021510000059],[124.7528854630001,11.700468302000047],[124.74060876100009,11.70168924400002],[124.74196286800009,11.712752680000053],[124.73261368900013,11.716657705000049],[124.72681824100006,11.729077384000048],[124.71657821600003,11.723853990000068],[124.72948077300008,11.716691846000058],[124.72218421700008,11.708628333000036],[124.70839987700002,11.712657429000046],[124.70693311600009,11.70721327900003]]],[[[124.86988436100012,11.715034884000032],[124.87481633700007,11.704195275000076],[124.88028660100008,11.707573358000047],[124.86988436100012,11.715034884000032]]],[[[124.86118637100003,11.619510579000064],[124.88004233400011,11.624553214000061],[124.87707732400008,11.631993672000021],[124.87871054500012,11.63967773400003],[124.87097897300009,11.648236344000054],[124.8781874340001,11.657589402000042],[124.8899927980001,11.665627713000049],[124.89413986900003,11.67187548000004],[124.8894661920001,11.680880025000022],[124.88152850000007,11.680708079000054],[124.87155055400002,11.674323783000032],[124.86125050700004,11.676546492000055],[124.86520934300006,11.68577723100003],[124.85892404800005,11.692711711000074],[124.84600233800005,11.684979849000056],[124.82864780300008,11.698125974000048],[124.83106111300003,11.704745943000036],[124.82527130200003,11.708771148000041],[124.82609598300007,11.678130613000064],[124.83313376800004,11.667194005000054],[124.83095839300006,11.658993480000047],[124.84169166500011,11.640340140000035],[124.83512901800007,11.634371879000069],[124.84045241400008,11.628156615000021],[124.84560674000012,11.635799113000072],[124.85547363300009,11.629227559000071],[124.86118637100003,11.619510579000064]]],[[[124.88684540200006,11.579787614000054],[124.89441184100008,11.593759842000054],[124.89218436100008,11.608878482000023],[124.87773953200006,11.59128961500005],[124.88698236900007,11.58494172400003],[124.88684540200006,11.579787614000054]]]]}}]}