{"type":"FeatureCollection","features":[{"type":"Feature","properties":{"geo_id":"geo_ph_0041","name":"Tubbataha Reefs Natural Park / Sulu Sea","boundary_level":"protected_area","legal_basis":"Republic Act No. 10067","source_datum":"PRS92","display_crs":"EPSG:4326"},"geometry":{"type":"Polygon","coordinates":[[[119.76944444444445,9.081111111111111],[119.80611111111111,9.101388888888888],[120.05333333333333,8.969166666666666],[120.05833333333334,8.891388888888889],[119.84472222222222,8.6925],[119.76277777777777,8.719166666666666],[119.76944444444445,9.081111111111111]]]}}]}