{"type":"FeatureCollection","features":[{"type":"Feature","properties":{"geo_id":"geo_ph_0001","name":"National Capital Region (NCR)","psgc":"1300000000","boundary_level":"region"},"geometry":{"type":"Polygon","coordinates":[[[120.98589039800005,14.560101142000061],[120.98145922900007,14.48827595700004],[120.9660033990001,14.465722366000023],[121.01161116900006,14.380260945000037],[121.00759085400011,14.355170370000051],[121.05150154700004,14.369658617000026],[121.0533802880001,14.454051363000076],[121.06932934800011,14.50668639300005],[121.1033378410001,14.531997657000032],[121.0968965510001,14.569254547000074],[121.11044978200005,14.592235448000055],[121.10549838300007,14.632654354000065],[121.13486852100006,14.65885238300007],[121.11188912900003,14.671163089000059],[121.12478007000006,14.766289029000061],[121.09972917900006,14.765222305000064],[121.05542050700002,14.782563240000059],[121.02402399100004,14.763034879000028],[120.9901370550001,14.75706363100005],[120.97852281100006,14.73480671900006],[120.92596146500011,14.734299748000069],[120.95312750500011,14.694240067000067],[120.92536221600005,14.683986922000035],[120.95779251100011,14.633909253000073],[120.95903865900003,14.584665776000065],[120.98589039800005,14.560101142000061]]]}}]}