{"type":"FeatureCollection","features":[{"type":"Feature","properties":{"geo_id":"geo_ph_0052","name":"Manila","psgc":"1380600000","boundary_level":"municipality_or_city"},"geometry":{"type":"Polygon","coordinates":[[[120.98508259400012,14.63997936800007],[120.9537046920001,14.627663064000043],[120.95903865900003,14.584665776000065],[120.97942024000008,14.575287630000043],[120.98751161400004,14.558607406000023],[121.01643006400002,14.57919822200006],[121.02346203800005,14.599584719000067],[120.98988594100001,14.62564046500006],[120.98508259400012,14.63997936800007]]]}}]}