{
  "type": "FeatureCollection",
  "features": [
    {
      "type": "Feature",
      "properties": {
        "geo_id": "geo_bn_0002",
        "name": "Temburong",
        "boundary_level": "district",
        "osm_type": "relation",
        "osm_id": 7843853,
        "source_checked_at": "2026-10-01"
      },
      "geometry": {
        "type": "Polygon",
        "coordinates": [
          [
            [
              115.022028,
              4.74818
            ],
            [
              115.022483,
              4.74664
            ],
            [
              115.02367,
              4.745391
            ],
            [
              115.025035,
              4.745807
            ],
            [
              115.02855,
              4.748544
            ],
            [
              115.030295,
              4.748256
            ],
            [
              115.031624,
              4.746112
            ],
            [
              115.030938,
              4.744871
            ],
            [
              115.02664,
              4.744952
            ],
            [
              115.025349,
              4.744075
            ],
            [
              115.025244,
              4.741797
            ],
            [
              115.026606,
              4.739076
            ],
            [
              115.026513,
              4.738133
            ],
            [
              115.024756,
              4.735662
            ],
            [
              115.025132,
              4.734764
            ],
            [
              115.028267,
              4.733448
            ],
            [
              115.031154,
              4.73092
            ],
            [
              115.033016,
              4.730593
            ],
            [
              115.033613,
              4.730817
            ],
            [
              115.033852,
              4.731895
            ],
            [
              115.032314,
              4.736148
            ],
            [
              115.03279,
              4.737482
            ],
            [
              115.036841,
              4.733315
            ],
            [
              115.040288,
              4.731694
            ],
            [
              115.043384,
              4.731235
            ],
            [
              115.040227,
              4.726742
            ],
            [
              115.038139,
              4.725403
            ],
            [
              115.033483,
              4.723677
            ],
            [
              115.03305,
              4.722919
            ],
            [
              115.033901,
              4.721535
            ],
            [
              115.038721,
              4.719111
            ],
            [
              115.04096,
              4.71862
            ],
            [
              115.042335,
              4.717248
            ],
            [
              115.04219,
              4.714742
            ],
            [
              115.041259,
              4.713883
            ],
            [
              115.039034,
              4.714192
            ],
            [
              115.037259,
              4.715571
            ],
            [
              115.036303,
              4.715646
            ],
            [
              115.033986,
              4.714554
            ],
            [
              115.032574,
              4.712396
            ],
            [
              115.033602,
              4.711451
            ],
            [
              115.037214,
              4.712537
            ],
            [
              115.038488,
              4.711744
            ],
            [
              115.038701,
              4.710864
            ],
            [
              115.038098,
              4.71039
            ],
            [
              115.035659,
              4.710363
            ],
            [
              115.034753,
              4.709568
            ],
            [
              115.038975,
              4.706409
            ],
            [
              115.039005,
              4.705204
            ],
            [
              115.035359,
              4.704805
            ],
            [
              115.033329,
              4.707431
            ],
            [
              115.032722,
              4.70742
            ],
            [
              115.031153,
              4.705165
            ],
            [
              115.02906,
              4.699158
            ],
            [
              115.03005,
              4.698095
            ],
            [
              115.031931,
              4.698957
            ],
            [
              115.034941,
              4.696601
            ],
            [
              115.038617,
              4.695239
            ],
            [
              115.039715,
              4.693939
            ],
            [
              115.039749,
              4.692895
            ],
            [
              115.03893,
              4.692103
            ],
            [
              115.035569,
              4.69403
            ],
            [
              115.03349,
              4.694039
            ],
            [
              115.033592,
              4.69295
            ],
            [
              115.035474,
              4.691118
            ],
            [
              115.036886,
              4.684882
            ],
            [
              115.040546,
              4.683532
            ],
            [
              115.041191,
              4.6788
            ],
            [
              115.043119,
              4.677051
            ],
            [
              115.043565,
              4.675888
            ],
            [
              115.041682,
              4.674164
            ],
            [
              115.040912,
              4.67233
            ],
            [
              115.046973,
              4.667618
            ],
            [
              115.046914,
              4.666936
            ],
            [
              115.046171,
              4.66662
            ],
            [
              115.040369,
              4.667328
            ],
            [
              115.038946,
              4.666478
            ],
            [
              115.038913,
              4.665916
            ],
            [
              115.041314,
              4.664135
            ],
            [
              115.038983,
              4.659044
            ],
            [
              115.040928,
              4.658
            ],
            [
              115.042872,
              4.65855
            ],
            [
              115.044216,
              4.657404
            ],
            [
              115.041424,
              4.655571
            ],
            [
              115.041311,
              4.653285
            ],
            [
              115.042011,
              4.652753
            ],
            [
              115.047557,
              4.655244
            ],
            [
              115.048338,
              4.654921
            ],
            [
              115.04851,
              4.65403
            ],
            [
              115.046931,
              4.651002
            ],
            [
              115.047852,
              4.650389
            ],
            [
              115.05118,
              4.650714
            ],
            [
              115.051108,
              4.647867
            ],
            [
              115.049955,
              4.64636
            ],
            [
              115.046143,
              4.646321
            ],
            [
              115.044371,
              4.645335
            ],
            [
              115.044165,
              4.643565
            ],
            [
              115.046714,
              4.643972
            ],
            [
              115.047315,
              4.643461
            ],
            [
              115.047195,
              4.640449
            ],
            [
              115.046407,
              4.640081
            ],
            [
              115.045503,
              4.640781
            ],
            [
              115.043154,
              4.641181
            ],
            [
              115.043184,
              4.639082
            ],
            [
              115.040824,
              4.636244
            ],
            [
              115.041623,
              4.634556
            ],
            [
              115.039022,
              4.632525
            ],
            [
              115.03936,
              4.630713
            ],
            [
              115.041618,
              4.63022
            ],
            [
              115.041367,
              4.628859
            ],
            [
              115.045163,
              4.627646
            ],
            [
              115.042946,
              4.626028
            ],
            [
              115.042659,
              4.624381
            ],
            [
              115.043522,
              4.622734
            ],
            [
              115.041465,
              4.620911
            ],
            [
              115.041124,
              4.619458
            ],
            [
              115.04288,
              4.617875
            ],
            [
              115.046543,
              4.617181
            ],
            [
              115.046705,
              4.614749
            ],
            [
              115.044979,
              4.613741
            ],
            [
              115.047666,
              4.612345
            ],
            [
              115.047505,
              4.609724
            ],
            [
              115.049283,
              4.611061
            ],
            [
              115.048975,
              4.609206
            ],
            [
              115.051487,
              4.607634
            ],
            [
              115.050268,
              4.604987
            ],
            [
              115.051683,
              4.604354
            ],
            [
              115.05208,
              4.602838
            ],
            [
              115.054631,
              4.600908
            ],
            [
              115.054564,
              4.599764
            ],
            [
              115.052804,
              4.59955
            ],
            [
              115.052453,
              4.598574
            ],
            [
              115.05362,
              4.59805
            ],
            [
              115.055379,
              4.59879
            ],
            [
              115.055905,
              4.598242
            ],
            [
              115.056353,
              4.596646
            ],
            [
              115.055218,
              4.595267
            ],
            [
              115.05524,
              4.594117
            ],
            [
              115.056004,
              4.593823
            ],
            [
              115.056972,
              4.595494
            ],
            [
              115.058356,
              4.595382
            ],
            [
              115.059335,
              4.596095
            ],
            [
              115.060022,
              4.595419
            ],
            [
              115.060011,
              4.594513
            ],
            [
              115.06183,
              4.594229
            ],
            [
              115.062763,
              4.59312
            ],
            [
              115.063584,
              4.590478
            ],
            [
              115.062543,
              4.590558
            ],
            [
              115.061728,
              4.589933
            ],
            [
              115.062994,
              4.587789
            ],
            [
              115.062821,
              4.586213
            ],
            [
              115.063411,
              4.585775
            ],
            [
              115.06302,
              4.583465
            ],
            [
              115.064211,
              4.583171
            ],
            [
              115.063561,
              4.580874
            ],
            [
              115.066396,
              4.580427
            ],
            [
              115.070307,
              4.578035
            ],
            [
              115.071306,
              4.576267
            ],
            [
              115.07004,
              4.575893
            ],
            [
              115.069868,
              4.57392
            ],
            [
              115.068042,
              4.572679
            ],
            [
              115.066738,
              4.573358
            ],
            [
              115.066186,
              4.572364
            ],
            [
              115.066964,
              4.571161
            ],
            [
              115.069378,
              4.572326
            ],
            [
              115.070381,
              4.570383
            ],
            [
              115.069469,
              4.569358
            ],
            [
              115.069732,
              4.568516
            ],
            [
              115.072591,
              4.566693
            ],
            [
              115.072132,
              4.564701
            ],
            [
              115.075112,
              4.563944
            ],
            [
              115.073382,
              4.562434
            ],
            [
              115.073393,
              4.560297
            ],
            [
              115.071583,
              4.558875
            ],
            [
              115.073374,
              4.556974
            ],
            [
              115.073133,
              4.556172
            ],
            [
              115.072674,
              4.555864
            ],
            [
              115.070019,
              4.557166
            ],
            [
              115.069016,
              4.555223
            ],
            [
              115.070877,
              4.55409
            ],
            [
              115.072771,
              4.553818
            ],
            [
              115.074467,
              4.54684
            ],
            [
              115.072753,
              4.54683
            ],
            [
              115.072847,
              4.545797
            ],
            [
              115.073724,
              4.54464
            ],
            [
              115.075041,
              4.544209
            ],
            [
              115.075926,
              4.542635
            ],
            [
              115.076565,
              4.544469
            ],
            [
              115.077791,
              4.545811
            ],
            [
              115.076999,
              4.542421
            ],
            [
              115.077407,
              4.541463
            ],
            [
              115.078694,
              4.541961
            ],
            [
              115.079891,
              4.540768
            ],
            [
              115.0815,
              4.540774
            ],
            [
              115.080819,
              4.538913
            ],
            [
              115.082171,
              4.536362
            ],
            [
              115.083141,
              4.535752
            ],
            [
              115.082852,
              4.534661
            ],
            [
              115.084483,
              4.533372
            ],
            [
              115.083581,
              4.53234
            ],
            [
              115.085539,
              4.531763
            ],
            [
              115.083689,
              4.530538
            ],
            [
              115.083657,
              4.529682
            ],
            [
              115.084928,
              4.529196
            ],
            [
              115.084987,
              4.528688
            ],
            [
              115.083463,
              4.528239
            ],
            [
              115.08349,
              4.527715
            ],
            [
              115.085287,
              4.526447
            ],
            [
              115.083667,
              4.523271
            ],
            [
              115.083624,
              4.521292
            ],
            [
              115.082782,
              4.521089
            ],
            [
              115.081559,
              4.522693
            ],
            [
              115.080727,
              4.52287
            ],
            [
              115.081033,
              4.5211
            ],
            [
              115.079982,
              4.520329
            ],
            [
              115.081457,
              4.519105
            ],
            [
              115.081559,
              4.518201
            ],
            [
              115.080572,
              4.518388
            ],
            [
              115.080331,
              4.519185
            ],
            [
              115.079617,
              4.518827
            ],
            [
              115.081082,
              4.517196
            ],
            [
              115.081403,
              4.515479
            ],
            [
              115.082514,
              4.515276
            ],
            [
              115.081602,
              4.514554
            ],
            [
              115.082557,
              4.513821
            ],
            [
              115.081682,
              4.512591
            ],
            [
              115.082857,
              4.511211
            ],
            [
              115.080899,
              4.510677
            ],
            [
              115.079338,
              4.509345
            ],
            [
              115.079585,
              4.508655
            ],
            [
              115.080363,
              4.509645
            ],
            [
              115.081167,
              4.509104
            ],
            [
              115.080926,
              4.506693
            ],
            [
              115.079011,
              4.507302
            ],
            [
              115.078866,
              4.506896
            ],
            [
              115.079601,
              4.506158
            ],
            [
              115.079783,
              4.504928
            ],
            [
              115.081741,
              4.506463
            ],
            [
              115.082337,
              4.507725
            ],
            [
              115.083576,
              4.506532
            ],
            [
              115.084526,
              4.506372
            ],
            [
              115.083683,
              4.504222
            ],
            [
              115.085325,
              4.503842
            ],
            [
              115.08629,
              4.504329
            ],
            [
              115.087127,
              4.501147
            ],
            [
              115.08879,
              4.502543
            ],
            [
              115.090024,
              4.502222
            ],
            [
              115.089917,
              4.501404
            ],
            [
              115.087701,
              4.499526
            ],
            [
              115.089874,
              4.498189
            ],
            [
              115.089595,
              4.496943
            ],
            [
              115.092234,
              4.495414
            ],
            [
              115.092143,
              4.494868
            ],
            [
              115.088844,
              4.493045
            ],
            [
              115.088704,
              4.492403
            ],
            [
              115.090829,
              4.492852
            ],
            [
              115.091118,
              4.491975
            ],
            [
              115.092202,
              4.491986
            ],
            [
              115.092395,
              4.49358
            ],
            [
              115.094251,
              4.49282
            ],
            [
              115.094916,
              4.491729
            ],
            [
              115.095067,
              4.490296
            ],
            [
              115.093779,
              4.489119
            ],
            [
              115.095217,
              4.488488
            ],
            [
              115.093865,
              4.486413
            ],
            [
              115.093747,
              4.484039
            ],
            [
              115.091907,
              4.48398
            ],
            [
              115.09247,
              4.481242
            ],
            [
              115.091188,
              4.480375
            ],
            [
              115.091301,
              4.478734
            ],
            [
              115.091633,
              4.478498
            ],
            [
              115.0921,
              4.479723
            ],
            [
              115.093736,
              4.476161
            ],
            [
              115.094026,
              4.474974
            ],
            [
              115.093339,
              4.474364
            ],
            [
              115.0943,
              4.472808
            ],
            [
              115.09527,
              4.475145
            ],
            [
              115.096418,
              4.47537
            ],
            [
              115.095351,
              4.474311
            ],
            [
              115.096622,
              4.474081
            ],
            [
              115.097518,
              4.473134
            ],
            [
              115.096354,
              4.472899
            ],
            [
              115.096311,
              4.47246
            ],
            [
              115.097883,
              4.471722
            ],
            [
              115.096671,
              4.469305
            ],
            [
              115.098859,
              4.470107
            ],
            [
              115.098795,
              4.468497
            ],
            [
              115.097711,
              4.46839
            ],
            [
              115.09608,
              4.466417
            ],
            [
              115.097116,
              4.466438
            ],
            [
              115.097566,
              4.465123
            ],
            [
              115.09651,
              4.464304
            ],
            [
              115.096172,
              4.462203
            ],
            [
              115.09814,
              4.460165
            ],
            [
              115.096241,
              4.459496
            ],
            [
              115.096472,
              4.458988
            ],
            [
              115.098613,
              4.45855
            ],
            [
              115.096091,
              4.457047
            ],
            [
              115.096815,
              4.455763
            ],
            [
              115.097588,
              4.456314
            ],
            [
              115.098055,
              4.455924
            ],
            [
              115.097915,
              4.454908
            ],
            [
              115.096129,
              4.454972
            ],
            [
              115.096048,
              4.454303
            ],
            [
              115.097566,
              4.453961
            ],
            [
              115.096837,
              4.452945
            ],
            [
              115.095834,
              4.45326
            ],
            [
              115.095555,
              4.454261
            ],
            [
              115.092733,
              4.454298
            ],
            [
              115.092052,
              4.453292
            ],
            [
              115.093146,
              4.453469
            ],
            [
              115.0932,
              4.450843
            ],
            [
              115.094101,
              4.451052
            ],
            [
              115.094214,
              4.450003
            ],
            [
              115.093275,
              4.449693
            ],
            [
              115.093946,
              4.448607
            ],
            [
              115.095088,
              4.448554
            ],
            [
              115.093404,
              4.447131
            ],
            [
              115.092116,
              4.448201
            ],
            [
              115.092674,
              4.446768
            ],
            [
              115.092154,
              4.446222
            ],
            [
              115.092926,
              4.445281
            ],
            [
              115.094058,
              4.446677
            ],
            [
              115.094015,
              4.444473
            ],
            [
              115.095201,
              4.443446
            ],
            [
              115.094868,
              4.442928
            ],
            [
              115.092578,
              4.443896
            ],
            [
              115.091944,
              4.434803
            ],
            [
              115.095558,
              4.427082
            ],
            [
              115.100158,
              4.420347
            ],
            [
              115.104236,
              4.417108
            ],
            [
              115.103936,
              4.415225
            ],
            [
              115.104306,
              4.414606
            ],
            [
              115.102026,
              4.410679
            ],
            [
              115.101017,
              4.406565
            ],
            [
              115.099192,
              4.402616
            ],
            [
              115.099892,
              4.402419
            ],
            [
              115.095709,
              4.398887
            ],
            [
              115.09103,
              4.391585
            ],
            [
              115.090137,
              4.386671
            ],
            [
              115.09063,
              4.385356
            ],
            [
              115.104346,
              4.38041
            ],
            [
              115.106723,
              4.376368
            ],
            [
              115.112314,
              4.372379
            ],
            [
              115.119213,
              4.371065
            ],
            [
              115.133354,
              4.373752
            ],
            [
              115.145005,
              4.381361
            ],
            [
              115.155467,
              4.383025
            ],
            [
              115.158082,
              4.374466
            ],
            [
              115.159509,
              4.374941
            ],
            [
              115.164027,
              4.374941
            ],
            [
              115.170959,
              4.370736
            ],
            [
              115.178023,
              4.369422
            ],
            [
              115.187387,
              4.3709
            ],
            [
              115.189358,
              4.370736
            ],
            [
              115.190657,
              4.366144
            ],
            [
              115.197077,
              4.36543
            ],
            [
              115.199692,
              4.363528
            ],
            [
              115.218001,
              4.358535
            ],
            [
              115.218714,
              4.362815
            ],
            [
              115.239297,
              4.366136
            ],
            [
              115.244883,
              4.362194
            ],
            [
              115.245375,
              4.361208
            ],
            [
              115.24554,
              4.357923
            ],
            [
              115.244718,
              4.350202
            ],
            [
              115.245967,
              4.345199
            ],
            [
              115.244631,
              4.342842
            ],
            [
              115.24582,
              4.341177
            ],
            [
              115.248856,
              4.340664
            ],
            [
              115.25336,
              4.336215
            ],
            [
              115.255694,
              4.335955
            ],
            [
              115.257768,
              4.336474
            ],
            [
              115.259842,
              4.335696
            ],
            [
              115.265028,
              4.33803
            ],
            [
              115.267881,
              4.342179
            ],
            [
              115.272029,
              4.342956
            ],
            [
              115.274104,
              4.344512
            ],
            [
              115.275141,
              4.343734
            ],
            [
              115.275141,
              4.342697
            ],
            [
              115.277475,
              4.34166
            ],
            [
              115.27929,
              4.338289
            ],
            [
              115.281364,
              4.336993
            ],
            [
              115.295885,
              4.33803
            ],
            [
              115.295107,
              4.333103
            ],
            [
              115.295107,
              4.328954
            ],
            [
              115.293811,
              4.325583
            ],
            [
              115.294329,
              4.324027
            ],
            [
              115.309109,
              4.310803
            ],
            [
              115.309887,
              4.307692
            ],
            [
              115.320778,
              4.299135
            ],
            [
              115.322771,
              4.296209
            ],
            [
              115.330631,
              4.298357
            ],
            [
              115.33478,
              4.301209
            ],
            [
              115.336595,
              4.303284
            ],
            [
              115.337373,
              4.305358
            ],
            [
              115.343856,
              4.308988
            ],
            [
              115.344115,
              4.312878
            ],
            [
              115.346708,
              4.316249
            ],
            [
              115.351375,
              4.317545
            ],
            [
              115.352672,
              4.31936
            ],
            [
              115.352931,
              4.321175
            ],
            [
              115.353968,
              4.32299
            ],
            [
              115.356043,
              4.323509
            ],
            [
              115.356561,
              4.324546
            ],
            [
              115.356043,
              4.326102
            ],
            [
              115.356302,
              4.327139
            ],
            [
              115.358376,
              4.329473
            ],
            [
              115.359932,
              4.329732
            ],
            [
              115.359932,
              4.332325
            ],
            [
              115.362266,
              4.336993
            ],
            [
              115.363562,
              4.344772
            ],
            [
              115.363044,
              4.346327
            ],
            [
              115.356302,
              4.349439
            ],
            [
              115.34956,
              4.351773
            ],
            [
              115.34593,
              4.358514
            ],
            [
              115.34593,
              4.360589
            ],
            [
              115.343337,
              4.361626
            ],
            [
              115.336595,
              4.375369
            ],
            [
              115.336595,
              4.378481
            ],
            [
              115.334002,
              4.381074
            ],
            [
              115.333483,
              4.387297
            ],
            [
              115.332187,
              4.387556
            ],
            [
              115.329594,
              4.38626
            ],
            [
              115.327779,
              4.38626
            ],
            [
              115.326742,
              4.387037
            ],
            [
              115.326482,
              4.388593
            ],
            [
              115.323889,
              4.391705
            ],
            [
              115.318963,
              4.392742
            ],
            [
              115.318185,
              4.394039
            ],
            [
              115.313777,
              4.394039
            ],
            [
              115.308331,
              4.395854
            ],
            [
              115.301849,
              4.40078
            ],
            [
              115.299256,
              4.406485
            ],
            [
              115.299774,
              4.410893
            ],
            [
              115.292514,
              4.418413
            ],
            [
              115.291477,
              4.420487
            ],
            [
              115.28655,
              4.423339
            ],
            [
              115.281364,
              4.430341
            ],
            [
              115.281105,
              4.432415
            ],
            [
              115.27929,
              4.432934
            ],
            [
              115.277993,
              4.435008
            ],
            [
              115.274104,
              4.446417
            ],
            [
              115.272289,
              4.447714
            ],
            [
              115.272548,
              4.450825
            ],
            [
              115.273585,
              4.453159
            ],
            [
              115.276438,
              4.456789
            ],
            [
              115.276438,
              4.464309
            ],
            [
              115.277993,
              4.467161
            ],
            [
              115.278771,
              4.471569
            ],
            [
              115.280068,
              4.473384
            ],
            [
              115.279031,
              4.474681
            ],
            [
              115.277215,
              4.4752
            ],
            [
              115.275141,
              4.478311
            ],
            [
              115.273326,
              4.483756
            ],
            [
              115.273326,
              4.487387
            ],
            [
              115.275919,
              4.498537
            ],
            [
              115.274019,
              4.503107
            ],
            [
              115.268866,
              4.52121
            ],
            [
              115.267881,
              4.527288
            ],
            [
              115.271659,
              4.53271
            ],
            [
              115.271823,
              4.537145
            ],
            [
              115.269852,
              4.542402
            ],
            [
              115.269852,
              4.546016
            ],
            [
              115.271166,
              4.548808
            ],
            [
              115.27363,
              4.561786
            ],
            [
              115.277244,
              4.571314
            ],
            [
              115.282337,
              4.578542
            ],
            [
              115.287101,
              4.597926
            ],
            [
              115.289236,
              4.60384
            ],
            [
              115.288086,
              4.617146
            ],
            [
              115.286115,
              4.619774
            ],
            [
              115.286279,
              4.625688
            ],
            [
              115.284637,
              4.633245
            ],
            [
              115.280858,
              4.640801
            ],
            [
              115.271987,
              4.647701
            ],
            [
              115.25901,
              4.654929
            ],
            [
              115.258353,
              4.657557
            ],
            [
              115.258846,
              4.66035
            ],
            [
              115.260324,
              4.665935
            ],
            [
              115.265581,
              4.675627
            ],
            [
              115.265745,
              4.681048
            ],
            [
              115.261145,
              4.691562
            ],
            [
              115.25326,
              4.691397
            ],
            [
              115.251618,
              4.69189
            ],
            [
              115.249318,
              4.69534
            ],
            [
              115.247511,
              4.700104
            ],
            [
              115.255724,
              4.727702
            ],
            [
              115.255396,
              4.729673
            ],
            [
              115.254739,
              4.731316
            ],
            [
              115.244554,
              4.740351
            ],
            [
              115.241268,
              4.744293
            ],
            [
              115.236833,
              4.756285
            ],
            [
              115.232069,
              4.762363
            ],
            [
              115.231741,
              4.763678
            ],
            [
              115.234088,
              4.789273
            ],
            [
              115.237307,
              4.792117
            ],
            [
              115.2375,
              4.795838
            ],
            [
              115.234862,
              4.803432
            ],
            [
              115.228241,
              4.811169
            ],
            [
              115.191658,
              4.839079
            ],
            [
              115.190344,
              4.840558
            ],
            [
              115.184594,
              4.8491
            ],
            [
              115.182787,
              4.850742
            ],
            [
              115.183609,
              4.8514
            ],
            [
              115.183937,
              4.852878
            ],
            [
              115.182952,
              4.856163
            ],
            [
              115.181473,
              4.857806
            ],
            [
              115.181473,
              4.859449
            ],
            [
              115.183937,
              4.86257
            ],
            [
              115.184759,
              4.86487
            ],
            [
              115.184594,
              4.86602
            ],
            [
              115.183609,
              4.866841
            ],
            [
              115.179502,
              4.868155
            ],
            [
              115.17638,
              4.867663
            ],
            [
              115.173752,
              4.866184
            ],
            [
              115.171617,
              4.866677
            ],
            [
              115.170795,
              4.867498
            ],
            [
              115.169833,
              4.872178
            ],
            [
              115.167631,
              4.873145
            ],
            [
              115.159105,
              4.868399
            ],
            [
              115.156735,
              4.86897
            ],
            [
              115.150383,
              4.872038
            ],
            [
              115.149559,
              4.871965
            ],
            [
              115.14944,
              4.873446
            ],
            [
              115.150733,
              4.878226
            ],
            [
              115.152947,
              4.879377
            ],
            [
              115.153101,
              4.880027
            ],
            [
              115.15327,
              4.883077
            ],
            [
              115.15202,
              4.885388
            ],
            [
              115.152502,
              4.886218
            ],
            [
              115.156071,
              4.887672
            ],
            [
              115.159224,
              4.885972
            ],
            [
              115.159836,
              4.887231
            ],
            [
              115.158703,
              4.890969
            ],
            [
              115.158886,
              4.894224
            ],
            [
              115.157534,
              4.897196
            ],
            [
              115.153811,
              4.900049
            ],
            [
              115.156233,
              4.905512
            ],
            [
              115.155341,
              4.910576
            ],
            [
              115.153611,
              4.913889
            ],
            [
              115.146944,
              4.919722
            ],
            [
              115.143333,
              4.926667
            ],
            [
              115.132222,
              4.933889
            ],
            [
              115.129444,
              4.937222
            ],
            [
              115.129167,
              4.940833
            ],
            [
              115.132222,
              4.962222
            ],
            [
              115.085906,
              4.939093
            ],
            [
              115.066944,
              4.870833
            ],
            [
              115.06,
              4.859444
            ],
            [
              115.055556,
              4.856111
            ],
            [
              115.045,
              4.844722
            ],
            [
              115.036292,
              4.828107
            ],
            [
              115.033888,
              4.821021
            ],
            [
              115.03345,
              4.812245
            ],
            [
              115.035799,
              4.797809
            ],
            [
              115.038269,
              4.794923
            ],
            [
              115.041873,
              4.793767
            ],
            [
              115.051803,
              4.79438
            ],
            [
              115.054843,
              4.791481
            ],
            [
              115.0548,
              4.788636
            ],
            [
              115.053533,
              4.786201
            ],
            [
              115.043276,
              4.777755
            ],
            [
              115.033064,
              4.771976
            ],
            [
              115.031192,
              4.768057
            ],
            [
              115.032891,
              4.760745
            ],
            [
              115.031882,
              4.752619
            ],
            [
              115.030744,
              4.751957
            ],
            [
              115.025922,
              4.751531
            ],
            [
              115.022095,
              4.749243
            ],
            [
              115.022028,
              4.74818
            ]
          ]
        ]
      }
    }
  ]
}
