{
  "type": "FeatureCollection",
  "features": [
    {
      "type": "Feature",
      "properties": {
        "geo_id": "geo_kh_0030",
        "name": "Preah Sihanouk",
        "boundary_level": "province",
        "osm_type": "relation",
        "osm_id": 3279394,
        "source_checked_at": "2026-10-01"
      },
      "geometry": {
        "type": "Polygon",
        "coordinates": [
          [
            [
              102.62956,
              10.654229
            ],
            [
              102.672598,
              10.21979
            ],
            [
              102.684369,
              9.914314
            ],
            [
              102.68728,
              9.889491
            ],
            [
              102.689897,
              9.877263
            ],
            [
              102.694239,
              9.862243
            ],
            [
              102.699743,
              9.847603
            ],
            [
              102.707838,
              9.830661
            ],
            [
              102.717489,
              9.81454
            ],
            [
              102.72666,
              9.801836
            ],
            [
              103.052243,
              9.411096
            ],
            [
              103.960899,
              10.074506
            ],
            [
              103.939488,
              10.178175
            ],
            [
              103.937523,
              10.1838
            ],
            [
              103.934433,
              10.198972
            ],
            [
              103.930183,
              10.205066
            ],
            [
              103.927822,
              10.210521
            ],
            [
              103.926567,
              10.216822
            ],
            [
              103.926522,
              10.222141
            ],
            [
              103.924458,
              10.228441
            ],
            [
              103.919774,
              10.235906
            ],
            [
              103.911049,
              10.243485
            ],
            [
              103.907687,
              10.247374
            ],
            [
              103.902917,
              10.25585
            ],
            [
              103.900355,
              10.262771
            ],
            [
              103.889727,
              10.262938
            ],
            [
              103.883076,
              10.264444
            ],
            [
              103.873356,
              10.269128
            ],
            [
              103.866812,
              10.275131
            ],
            [
              103.859565,
              10.274721
            ],
            [
              103.852053,
              10.276288
            ],
            [
              103.84593,
              10.279349
            ],
            [
              103.840203,
              10.284326
            ],
            [
              103.833198,
              10.293562
            ],
            [
              103.830328,
              10.299205
            ],
            [
              103.828848,
              10.304339
            ],
            [
              103.828337,
              10.309378
            ],
            [
              103.824084,
              10.320099
            ],
            [
              103.820128,
              10.337794
            ],
            [
              103.812097,
              10.344744
            ],
            [
              103.807527,
              10.351969
            ],
            [
              103.805718,
              10.358118
            ],
            [
              103.805147,
              10.366528
            ],
            [
              103.806027,
              10.372008
            ],
            [
              103.809029,
              10.379018
            ],
            [
              103.810646,
              10.386788
            ],
            [
              103.815604,
              10.395171
            ],
            [
              103.820455,
              10.39957
            ],
            [
              103.82598,
              10.402739
            ],
            [
              103.831676,
              10.404479
            ],
            [
              103.839034,
              10.405186
            ],
            [
              103.920558,
              10.607395
            ],
            [
              103.922828,
              10.610428
            ],
            [
              103.924184,
              10.611133
            ],
            [
              103.923197,
              10.61301
            ],
            [
              103.925916,
              10.614381
            ],
            [
              103.932445,
              10.615393
            ],
            [
              103.932392,
              10.615963
            ],
            [
              103.929795,
              10.61591
            ],
            [
              103.930772,
              10.618441
            ],
            [
              103.930278,
              10.618715
            ],
            [
              103.929645,
              10.617892
            ],
            [
              103.928826,
              10.618759
            ],
            [
              103.929237,
              10.620254
            ],
            [
              103.931051,
              10.62192
            ],
            [
              103.93517,
              10.621689
            ],
            [
              103.933969,
              10.62113
            ],
            [
              103.93531,
              10.619843
            ],
            [
              103.934806,
              10.618472
            ],
            [
              103.935224,
              10.617492
            ],
            [
              103.936519,
              10.617789
            ],
            [
              103.935825,
              10.618578
            ],
            [
              103.936476,
              10.620056
            ],
            [
              103.938571,
              10.621288
            ],
            [
              103.939483,
              10.619131
            ],
            [
              103.941704,
              10.617834
            ],
            [
              103.940663,
              10.6161
            ],
            [
              103.941811,
              10.615973
            ],
            [
              103.943013,
              10.617618
            ],
            [
              103.943227,
              10.619384
            ],
            [
              103.94444,
              10.619479
            ],
            [
              103.945523,
              10.622659
            ],
            [
              103.946671,
              10.62279
            ],
            [
              103.946006,
              10.62259
            ],
            [
              103.946585,
              10.621837
            ],
            [
              103.948538,
              10.623718
            ],
            [
              103.950898,
              10.622764
            ],
            [
              103.952969,
              10.62365
            ],
            [
              103.953463,
              10.627504
            ],
            [
              103.952701,
              10.629597
            ],
            [
              103.955048,
              10.633859
            ],
            [
              103.955875,
              10.640047
            ],
            [
              103.959256,
              10.645778
            ],
            [
              103.965225,
              10.659123
            ],
            [
              103.967512,
              10.670393
            ],
            [
              103.966777,
              10.675297
            ],
            [
              103.96309,
              10.68228
            ],
            [
              103.963054,
              10.691715
            ],
            [
              103.962305,
              10.69749
            ],
            [
              103.957208,
              10.707702
            ],
            [
              103.954035,
              10.709859
            ],
            [
              103.945645,
              10.712252
            ],
            [
              103.93699,
              10.725315
            ],
            [
              103.935232,
              10.729285
            ],
            [
              103.925581,
              10.745076
            ],
            [
              103.924147,
              10.749177
            ],
            [
              103.923986,
              10.758644
            ],
            [
              103.921839,
              10.768517
            ],
            [
              103.922755,
              10.770436
            ],
            [
              103.931831,
              10.776287
            ],
            [
              103.93427,
              10.779493
            ],
            [
              103.935822,
              10.787692
            ],
            [
              103.933504,
              10.793271
            ],
            [
              103.93331,
              10.802364
            ],
            [
              103.937374,
              10.810209
            ],
            [
              103.942196,
              10.814944
            ],
            [
              103.94231,
              10.81762
            ],
            [
              103.945552,
              10.821526
            ],
            [
              103.945446,
              10.822663
            ],
            [
              103.939788,
              10.831408
            ],
            [
              103.93712,
              10.83702
            ],
            [
              103.934397,
              10.839682
            ],
            [
              103.926438,
              10.845152
            ],
            [
              103.922804,
              10.851717
            ],
            [
              103.922509,
              10.857504
            ],
            [
              103.923473,
              10.858721
            ],
            [
              103.932064,
              10.863023
            ],
            [
              103.931714,
              10.864619
            ],
            [
              103.929513,
              10.867522
            ],
            [
              103.92152,
              10.871912
            ],
            [
              103.918447,
              10.874539
            ],
            [
              103.917782,
              10.876456
            ],
            [
              103.922613,
              10.885842
            ],
            [
              103.923073,
              10.891365
            ],
            [
              103.924662,
              10.896924
            ],
            [
              103.92687,
              10.899486
            ],
            [
              103.929755,
              10.898949
            ],
            [
              103.932011,
              10.899547
            ],
            [
              103.93309,
              10.901948
            ],
            [
              103.93341,
              10.909618
            ],
            [
              103.931366,
              10.918906
            ],
            [
              103.934782,
              10.924397
            ],
            [
              103.933941,
              10.928748
            ],
            [
              103.934107,
              10.93907
            ],
            [
              103.932954,
              10.93946
            ],
            [
              103.933627,
              10.94171
            ],
            [
              103.931626,
              10.9418
            ],
            [
              103.930776,
              10.943373
            ],
            [
              103.926947,
              10.945035
            ],
            [
              103.924376,
              10.944872
            ],
            [
              103.923247,
              10.945709
            ],
            [
              103.919048,
              10.946176
            ],
            [
              103.920255,
              10.948393
            ],
            [
              103.915737,
              10.953568
            ],
            [
              103.916158,
              10.955737
            ],
            [
              103.932585,
              10.963607
            ],
            [
              103.935712,
              10.966847
            ],
            [
              103.93828,
              10.971005
            ],
            [
              103.945478,
              10.97526
            ],
            [
              103.955523,
              10.983639
            ],
            [
              103.961187,
              10.986295
            ],
            [
              103.965385,
              10.989892
            ],
            [
              103.972526,
              10.993675
            ],
            [
              103.995807,
              11.020145
            ],
            [
              103.999862,
              11.019234
            ],
            [
              104.008412,
              11.018862
            ],
            [
              104.01427,
              11.020626
            ],
            [
              104.017226,
              11.020217
            ],
            [
              104.018624,
              11.018944
            ],
            [
              104.020286,
              11.011536
            ],
            [
              104.020997,
              11.009906
            ],
            [
              104.022022,
              11.009333
            ],
            [
              104.027908,
              11.010939
            ],
            [
              104.040229,
              11.012001
            ],
            [
              104.04594,
              11.013399
            ],
            [
              104.050835,
              11.016336
            ],
            [
              104.058299,
              11.022388
            ],
            [
              104.066776,
              11.026684
            ],
            [
              104.073317,
              11.028726
            ],
            [
              104.074032,
              11.031357
            ],
            [
              104.074946,
              11.036126
            ],
            [
              104.07508,
              11.042169
            ],
            [
              104.070956,
              11.045484
            ],
            [
              104.060074,
              11.057452
            ],
            [
              104.059197,
              11.060622
            ],
            [
              104.060069,
              11.06168
            ],
            [
              104.065721,
              11.064433
            ],
            [
              104.073318,
              11.067211
            ],
            [
              104.074385,
              11.070291
            ],
            [
              104.076769,
              11.071891
            ],
            [
              104.077128,
              11.073224
            ],
            [
              104.076798,
              11.077832
            ],
            [
              104.07493,
              11.082527
            ],
            [
              104.074306,
              11.091577
            ],
            [
              104.069438,
              11.107918
            ],
            [
              104.070637,
              11.122835
            ],
            [
              104.070603,
              11.147665
            ],
            [
              104.067564,
              11.152589
            ],
            [
              104.052913,
              11.170884
            ],
            [
              104.043695,
              11.174451
            ],
            [
              104.037502,
              11.178909
            ],
            [
              104.036404,
              11.180722
            ],
            [
              104.037354,
              11.182447
            ],
            [
              104.043013,
              11.186824
            ],
            [
              104.043323,
              11.188618
            ],
            [
              104.040578,
              11.19723
            ],
            [
              104.040727,
              11.207628
            ],
            [
              104.039886,
              11.208512
            ],
            [
              104.02734,
              11.206567
            ],
            [
              104.022872,
              11.205065
            ],
            [
              104.021021,
              11.204957
            ],
            [
              104.020495,
              11.205726
            ],
            [
              104.020465,
              11.208609
            ],
            [
              104.021886,
              11.212933
            ],
            [
              104.024778,
              11.215742
            ],
            [
              104.026166,
              11.219503
            ],
            [
              104.027213,
              11.224514
            ],
            [
              104.026851,
              11.229695
            ],
            [
              104.028157,
              11.233502
            ],
            [
              104.030168,
              11.234781
            ],
            [
              104.032337,
              11.238152
            ],
            [
              104.031564,
              11.24
            ],
            [
              104.033537,
              11.242923
            ],
            [
              104.035444,
              11.248626
            ],
            [
              104.036256,
              11.249846
            ],
            [
              104.03919,
              11.250264
            ],
            [
              104.040084,
              11.251243
            ],
            [
              104.049823,
              11.266843
            ],
            [
              104.051328,
              11.270641
            ],
            [
              104.050782,
              11.275758
            ],
            [
              104.048445,
              11.27864
            ],
            [
              104.047249,
              11.282785
            ],
            [
              104.047388,
              11.286402
            ],
            [
              104.04597,
              11.291651
            ],
            [
              104.045512,
              11.29741
            ],
            [
              104.044371,
              11.303644
            ],
            [
              104.042797,
              11.307196
            ],
            [
              104.044373,
              11.314841
            ],
            [
              104.043718,
              11.318281
            ],
            [
              104.039823,
              11.324105
            ],
            [
              104.039985,
              11.328824
            ],
            [
              104.041459,
              11.334857
            ],
            [
              104.046987,
              11.34573
            ],
            [
              104.046864,
              11.35121
            ],
            [
              104.052881,
              11.352783
            ],
            [
              104.055743,
              11.350907
            ],
            [
              104.057026,
              11.350998
            ],
            [
              104.059773,
              11.353062
            ],
            [
              104.059211,
              11.358889
            ],
            [
              104.060992,
              11.363535
            ],
            [
              104.060643,
              11.368499
            ],
            [
              104.061772,
              11.369556
            ],
            [
              104.05595,
              11.373826
            ],
            [
              104.054222,
              11.375967
            ],
            [
              104.049967,
              11.385712
            ],
            [
              104.052784,
              11.397763
            ],
            [
              104.052966,
              11.401486
            ],
            [
              104.051803,
              11.4043
            ],
            [
              104.046912,
              11.409442
            ],
            [
              104.043743,
              11.41588
            ],
            [
              104.043494,
              11.419009
            ],
            [
              104.04455,
              11.427468
            ],
            [
              104.044276,
              11.428932
            ],
            [
              104.041011,
              11.433118
            ],
            [
              104.0416,
              11.436044
            ],
            [
              103.996249,
              11.403921
            ],
            [
              103.989828,
              11.401241
            ],
            [
              103.987016,
              11.399259
            ],
            [
              103.975857,
              11.388896
            ],
            [
              103.956881,
              11.365115
            ],
            [
              103.949045,
              11.354039
            ],
            [
              103.923281,
              11.324634
            ],
            [
              103.912143,
              11.312997
            ],
            [
              103.902867,
              11.301707
            ],
            [
              103.900649,
              11.296627
            ],
            [
              103.902442,
              11.289607
            ],
            [
              103.900869,
              11.283197
            ],
            [
              103.897976,
              11.281639
            ],
            [
              103.897586,
              11.279709
            ],
            [
              103.894462,
              11.277622
            ],
            [
              103.88717,
              11.275625
            ],
            [
              103.884279,
              11.273263
            ],
            [
              103.88454,
              11.272093
            ],
            [
              103.886454,
              11.270354
            ],
            [
              103.884842,
              11.268777
            ],
            [
              103.886572,
              11.266589
            ],
            [
              103.888017,
              11.266123
            ],
            [
              103.880636,
              11.259638
            ],
            [
              103.878469,
              11.260194
            ],
            [
              103.876981,
              11.259592
            ],
            [
              103.874834,
              11.254317
            ],
            [
              103.872892,
              11.253771
            ],
            [
              103.87185,
              11.252425
            ],
            [
              103.872022,
              11.249868
            ],
            [
              103.873033,
              11.249299
            ],
            [
              103.873586,
              11.246155
            ],
            [
              103.872196,
              11.23996
            ],
            [
              103.868786,
              11.239092
            ],
            [
              103.867564,
              11.2375
            ],
            [
              103.866564,
              11.234226
            ],
            [
              103.860063,
              11.225356
            ],
            [
              103.854247,
              11.223776
            ],
            [
              103.853083,
              11.224059
            ],
            [
              103.853626,
              11.225137
            ],
            [
              103.852857,
              11.225337
            ],
            [
              103.851636,
              11.223905
            ],
            [
              103.851714,
              11.221316
            ],
            [
              103.857326,
              11.217983
            ],
            [
              103.860775,
              11.21373
            ],
            [
              103.862836,
              11.213212
            ],
            [
              103.863612,
              11.212334
            ],
            [
              103.863077,
              11.210748
            ],
            [
              103.863504,
              11.209906
            ],
            [
              103.868367,
              11.20622
            ],
            [
              103.868706,
              11.200603
            ],
            [
              103.869336,
              11.200692
            ],
            [
              103.872388,
              11.194277
            ],
            [
              103.874791,
              11.18484
            ],
            [
              103.873907,
              11.18137
            ],
            [
              103.874668,
              11.180008
            ],
            [
              103.877238,
              11.178832
            ],
            [
              103.877573,
              11.174572
            ],
            [
              103.880017,
              11.173765
            ],
            [
              103.881942,
              11.17212
            ],
            [
              103.881018,
              11.167891
            ],
            [
              103.882435,
              11.163188
            ],
            [
              103.883453,
              11.163793
            ],
            [
              103.883663,
              11.165586
            ],
            [
              103.884635,
              11.166352
            ],
            [
              103.885331,
              11.16583
            ],
            [
              103.884788,
              11.164683
            ],
            [
              103.885592,
              11.162676
            ],
            [
              103.88513,
              11.161504
            ],
            [
              103.887074,
              11.157167
            ],
            [
              103.881742,
              11.152617
            ],
            [
              103.879891,
              11.154974
            ],
            [
              103.878959,
              11.155025
            ],
            [
              103.87746,
              11.153953
            ],
            [
              103.876996,
              11.152448
            ],
            [
              103.874437,
              11.149516
            ],
            [
              103.871006,
              11.148775
            ],
            [
              103.870728,
              11.145302
            ],
            [
              103.868744,
              11.142965
            ],
            [
              103.871932,
              11.143868
            ],
            [
              103.872531,
              11.14268
            ],
            [
              103.8705,
              11.140275
            ],
            [
              103.872136,
              11.139012
            ],
            [
              103.872598,
              11.136386
            ],
            [
              103.871171,
              11.135691
            ],
            [
              103.866819,
              11.13102
            ],
            [
              103.863491,
              11.131993
            ],
            [
              103.863179,
              11.130442
            ],
            [
              103.863812,
              11.129115
            ],
            [
              103.863049,
              11.128382
            ],
            [
              103.864261,
              11.126328
            ],
            [
              103.864217,
              11.122864
            ],
            [
              103.863565,
              11.121371
            ],
            [
              103.861246,
              11.121178
            ],
            [
              103.860247,
              11.119814
            ],
            [
              103.859079,
              11.117508
            ],
            [
              103.859077,
              11.113158
            ],
            [
              103.856922,
              11.109557
            ],
            [
              103.851479,
              11.10366
            ],
            [
              103.848447,
              11.101571
            ],
            [
              103.844758,
              11.100428
            ],
            [
              103.840828,
              11.09816
            ],
            [
              103.83958,
              11.096004
            ],
            [
              103.840325,
              11.086058
            ],
            [
              103.841749,
              11.084486
            ],
            [
              103.843562,
              11.085638
            ],
            [
              103.843887,
              11.087396
            ],
            [
              103.842301,
              11.089142
            ],
            [
              103.842775,
              11.090372
            ],
            [
              103.845576,
              11.089182
            ],
            [
              103.846488,
              11.083792
            ],
            [
              103.845591,
              11.081967
            ],
            [
              103.842484,
              11.080718
            ],
            [
              103.848834,
              11.078463
            ],
            [
              103.845975,
              11.075241
            ],
            [
              103.846897,
              11.07279
            ],
            [
              103.844406,
              11.071601
            ],
            [
              103.839104,
              11.073357
            ],
            [
              103.834608,
              11.072691
            ],
            [
              103.826294,
              11.063979
            ],
            [
              103.82386,
              11.057912
            ],
            [
              103.816753,
              11.055507
            ],
            [
              103.811164,
              11.05194
            ],
            [
              103.802691,
              11.048602
            ],
            [
              103.79601,
              11.047943
            ],
            [
              103.794055,
              11.043881
            ],
            [
              103.791105,
              11.040733
            ],
            [
              103.785331,
              11.025182
            ],
            [
              103.785166,
              11.022779
            ],
            [
              103.78757,
              11.002506
            ],
            [
              103.790738,
              10.994298
            ],
            [
              103.792098,
              10.981103
            ],
            [
              103.790655,
              10.970728
            ],
            [
              103.791816,
              10.962614
            ],
            [
              103.789873,
              10.955628
            ],
            [
              103.793224,
              10.946319
            ],
            [
              103.79569,
              10.941824
            ],
            [
              103.795879,
              10.938785
            ],
            [
              103.793047,
              10.937724
            ],
            [
              103.78925,
              10.937619
            ],
            [
              103.789441,
              10.935675
            ],
            [
              103.788894,
              10.935176
            ],
            [
              103.786784,
              10.936524
            ],
            [
              103.785048,
              10.935884
            ],
            [
              103.785007,
              10.934799
            ],
            [
              103.781893,
              10.93551
            ],
            [
              103.78176,
              10.934288
            ],
            [
              103.780104,
              10.936497
            ],
            [
              103.778511,
              10.934547
            ],
            [
              103.77691,
              10.934631
            ],
            [
              103.775725,
              10.933315
            ],
            [
              103.773805,
              10.933036
            ],
            [
              103.773993,
              10.931771
            ],
            [
              103.772854,
              10.930681
            ],
            [
              103.770838,
              10.931442
            ],
            [
              103.770087,
              10.930602
            ],
            [
              103.768696,
              10.931203
            ],
            [
              103.767686,
              10.930208
            ],
            [
              103.766452,
              10.930113
            ],
            [
              103.764537,
              10.928342
            ],
            [
              103.766873,
              10.927673
            ],
            [
              103.766514,
              10.92618
            ],
            [
              103.765416,
              10.925994
            ],
            [
              103.765185,
              10.926536
            ],
            [
              103.765008,
              10.925179
            ],
            [
              103.763548,
              10.924088
            ],
            [
              103.761077,
              10.924304
            ],
            [
              103.760807,
              10.923173
            ],
            [
              103.758933,
              10.922849
            ],
            [
              103.758206,
              10.921761
            ],
            [
              103.756326,
              10.922612
            ],
            [
              103.755604,
              10.920394
            ],
            [
              103.754501,
              10.92161
            ],
            [
              103.753776,
              10.919889
            ],
            [
              103.751806,
              10.92065
            ],
            [
              103.751131,
              10.917889
            ],
            [
              103.750082,
              10.917071
            ],
            [
              103.75173,
              10.916761
            ],
            [
              103.752734,
              10.917353
            ],
            [
              103.752925,
              10.915545
            ],
            [
              103.754279,
              10.914796
            ],
            [
              103.752107,
              10.91374
            ],
            [
              103.751877,
              10.912639
            ],
            [
              103.748604,
              10.915579
            ],
            [
              103.748274,
              10.913228
            ],
            [
              103.746681,
              10.912584
            ],
            [
              103.744691,
              10.909286
            ],
            [
              103.745824,
              10.906303
            ],
            [
              103.736571,
              10.901566
            ],
            [
              103.736477,
              10.899719
            ],
            [
              103.739476,
              10.897281
            ],
            [
              103.738362,
              10.895799
            ],
            [
              103.734071,
              10.899498
            ],
            [
              103.731497,
              10.9047
            ],
            [
              103.73007,
              10.904963
            ],
            [
              103.727628,
              10.904046
            ],
            [
              103.727021,
              10.90307
            ],
            [
              103.727755,
              10.898105
            ],
            [
              103.727669,
              10.896697
            ],
            [
              103.726648,
              10.895727
            ],
            [
              103.725173,
              10.895122
            ],
            [
              103.720924,
              10.896178
            ],
            [
              103.718695,
              10.895798
            ],
            [
              103.71772,
              10.898817
            ],
            [
              103.713803,
              10.901659
            ],
            [
              103.71224,
              10.903991
            ],
            [
              103.71295,
              10.907097
            ],
            [
              103.714903,
              10.908467
            ],
            [
              103.714254,
              10.909807
            ],
            [
              103.712912,
              10.909609
            ],
            [
              103.71188,
              10.907776
            ],
            [
              103.707614,
              10.90595
            ],
            [
              103.699287,
              10.905438
            ],
            [
              102.62956,
              10.654229
            ]
          ]
        ]
      }
    }
  ]
}
