{
  "type": "FeatureCollection",
  "features": [
    {
      "type": "Feature",
      "properties": {
        "geo_id": "geo_kh_0034",
        "name": "Koh Kong",
        "boundary_level": "province",
        "osm_type": "relation",
        "osm_id": 2199066,
        "source_checked_at": "2026-10-01"
      },
      "geometry": {
        "type": "Polygon",
        "coordinates": [
          [
            [
              102.584984,
              11.112359
            ],
            [
              102.585961,
              11.09371
            ],
            [
              102.62956,
              10.654229
            ],
            [
              103.699287,
              10.905438
            ],
            [
              103.707614,
              10.90595
            ],
            [
              103.71188,
              10.907776
            ],
            [
              103.713343,
              10.909828
            ],
            [
              103.714608,
              10.909577
            ],
            [
              103.714903,
              10.908467
            ],
            [
              103.71295,
              10.907097
            ],
            [
              103.71224,
              10.903991
            ],
            [
              103.713803,
              10.901659
            ],
            [
              103.71772,
              10.898817
            ],
            [
              103.718695,
              10.895798
            ],
            [
              103.720924,
              10.896178
            ],
            [
              103.725173,
              10.895122
            ],
            [
              103.726648,
              10.895727
            ],
            [
              103.727669,
              10.896697
            ],
            [
              103.727755,
              10.898105
            ],
            [
              103.727021,
              10.90307
            ],
            [
              103.727628,
              10.904046
            ],
            [
              103.73007,
              10.904963
            ],
            [
              103.731497,
              10.9047
            ],
            [
              103.734071,
              10.899498
            ],
            [
              103.738362,
              10.895799
            ],
            [
              103.739476,
              10.897281
            ],
            [
              103.736477,
              10.899719
            ],
            [
              103.736571,
              10.901566
            ],
            [
              103.745824,
              10.906303
            ],
            [
              103.744691,
              10.909286
            ],
            [
              103.746681,
              10.912584
            ],
            [
              103.748274,
              10.913228
            ],
            [
              103.748604,
              10.915579
            ],
            [
              103.751877,
              10.912639
            ],
            [
              103.752107,
              10.91374
            ],
            [
              103.754279,
              10.914796
            ],
            [
              103.752925,
              10.915545
            ],
            [
              103.752734,
              10.917353
            ],
            [
              103.75173,
              10.916761
            ],
            [
              103.750082,
              10.917071
            ],
            [
              103.751131,
              10.917889
            ],
            [
              103.751806,
              10.92065
            ],
            [
              103.753776,
              10.919889
            ],
            [
              103.754501,
              10.92161
            ],
            [
              103.755604,
              10.920394
            ],
            [
              103.756326,
              10.922612
            ],
            [
              103.758206,
              10.921761
            ],
            [
              103.758933,
              10.922849
            ],
            [
              103.760807,
              10.923173
            ],
            [
              103.761077,
              10.924304
            ],
            [
              103.763548,
              10.924088
            ],
            [
              103.765008,
              10.925179
            ],
            [
              103.765185,
              10.926536
            ],
            [
              103.765416,
              10.925994
            ],
            [
              103.766514,
              10.92618
            ],
            [
              103.766873,
              10.927673
            ],
            [
              103.764537,
              10.928342
            ],
            [
              103.766452,
              10.930113
            ],
            [
              103.767686,
              10.930208
            ],
            [
              103.768696,
              10.931203
            ],
            [
              103.770087,
              10.930602
            ],
            [
              103.770838,
              10.931442
            ],
            [
              103.772854,
              10.930681
            ],
            [
              103.773993,
              10.931771
            ],
            [
              103.773805,
              10.933036
            ],
            [
              103.775725,
              10.933315
            ],
            [
              103.77691,
              10.934631
            ],
            [
              103.778511,
              10.934547
            ],
            [
              103.780104,
              10.936497
            ],
            [
              103.78176,
              10.934288
            ],
            [
              103.781893,
              10.93551
            ],
            [
              103.785007,
              10.934799
            ],
            [
              103.785048,
              10.935884
            ],
            [
              103.786784,
              10.936524
            ],
            [
              103.788894,
              10.935176
            ],
            [
              103.789441,
              10.935675
            ],
            [
              103.78925,
              10.937619
            ],
            [
              103.793047,
              10.937724
            ],
            [
              103.795879,
              10.938785
            ],
            [
              103.79569,
              10.941824
            ],
            [
              103.793224,
              10.946319
            ],
            [
              103.789873,
              10.955628
            ],
            [
              103.791816,
              10.962614
            ],
            [
              103.790655,
              10.970728
            ],
            [
              103.792098,
              10.981103
            ],
            [
              103.790738,
              10.994298
            ],
            [
              103.78757,
              11.002506
            ],
            [
              103.785166,
              11.022779
            ],
            [
              103.785331,
              11.025182
            ],
            [
              103.791105,
              11.040733
            ],
            [
              103.794055,
              11.043881
            ],
            [
              103.79601,
              11.047943
            ],
            [
              103.802691,
              11.048602
            ],
            [
              103.811164,
              11.05194
            ],
            [
              103.816753,
              11.055507
            ],
            [
              103.82386,
              11.057912
            ],
            [
              103.826294,
              11.063979
            ],
            [
              103.834608,
              11.072691
            ],
            [
              103.839104,
              11.073357
            ],
            [
              103.844406,
              11.071601
            ],
            [
              103.846897,
              11.07279
            ],
            [
              103.845975,
              11.075241
            ],
            [
              103.848834,
              11.078463
            ],
            [
              103.842484,
              11.080718
            ],
            [
              103.845591,
              11.081967
            ],
            [
              103.846488,
              11.083792
            ],
            [
              103.845576,
              11.089182
            ],
            [
              103.842775,
              11.090372
            ],
            [
              103.842301,
              11.089142
            ],
            [
              103.843887,
              11.087396
            ],
            [
              103.843562,
              11.085638
            ],
            [
              103.841749,
              11.084486
            ],
            [
              103.840325,
              11.086058
            ],
            [
              103.83958,
              11.096004
            ],
            [
              103.840828,
              11.09816
            ],
            [
              103.844758,
              11.100428
            ],
            [
              103.848447,
              11.101571
            ],
            [
              103.851479,
              11.10366
            ],
            [
              103.856922,
              11.109557
            ],
            [
              103.859077,
              11.113158
            ],
            [
              103.859079,
              11.117508
            ],
            [
              103.860247,
              11.119814
            ],
            [
              103.861246,
              11.121178
            ],
            [
              103.863565,
              11.121371
            ],
            [
              103.864217,
              11.122864
            ],
            [
              103.864261,
              11.126328
            ],
            [
              103.863049,
              11.128382
            ],
            [
              103.863812,
              11.129115
            ],
            [
              103.863179,
              11.130442
            ],
            [
              103.863491,
              11.131993
            ],
            [
              103.866819,
              11.13102
            ],
            [
              103.871171,
              11.135691
            ],
            [
              103.872598,
              11.136386
            ],
            [
              103.872136,
              11.139012
            ],
            [
              103.8705,
              11.140275
            ],
            [
              103.872531,
              11.14268
            ],
            [
              103.871932,
              11.143868
            ],
            [
              103.868744,
              11.142965
            ],
            [
              103.870728,
              11.145302
            ],
            [
              103.871006,
              11.148775
            ],
            [
              103.874437,
              11.149516
            ],
            [
              103.876996,
              11.152448
            ],
            [
              103.87746,
              11.153953
            ],
            [
              103.878959,
              11.155025
            ],
            [
              103.879891,
              11.154974
            ],
            [
              103.881742,
              11.152617
            ],
            [
              103.887074,
              11.157167
            ],
            [
              103.88513,
              11.161504
            ],
            [
              103.885592,
              11.162676
            ],
            [
              103.884788,
              11.164683
            ],
            [
              103.885331,
              11.16583
            ],
            [
              103.884635,
              11.166352
            ],
            [
              103.883663,
              11.165586
            ],
            [
              103.883453,
              11.163793
            ],
            [
              103.882435,
              11.163188
            ],
            [
              103.881018,
              11.167891
            ],
            [
              103.881942,
              11.17212
            ],
            [
              103.880017,
              11.173765
            ],
            [
              103.877573,
              11.174572
            ],
            [
              103.877238,
              11.178832
            ],
            [
              103.874668,
              11.180008
            ],
            [
              103.873907,
              11.18137
            ],
            [
              103.874791,
              11.18484
            ],
            [
              103.872388,
              11.194277
            ],
            [
              103.869336,
              11.200692
            ],
            [
              103.868706,
              11.200603
            ],
            [
              103.868367,
              11.20622
            ],
            [
              103.863504,
              11.209906
            ],
            [
              103.863077,
              11.210748
            ],
            [
              103.863612,
              11.212334
            ],
            [
              103.862836,
              11.213212
            ],
            [
              103.860775,
              11.21373
            ],
            [
              103.857326,
              11.217983
            ],
            [
              103.851714,
              11.221316
            ],
            [
              103.851636,
              11.223905
            ],
            [
              103.852857,
              11.225337
            ],
            [
              103.853626,
              11.225137
            ],
            [
              103.853083,
              11.224059
            ],
            [
              103.854247,
              11.223776
            ],
            [
              103.860063,
              11.225356
            ],
            [
              103.866564,
              11.234226
            ],
            [
              103.867564,
              11.2375
            ],
            [
              103.868786,
              11.239092
            ],
            [
              103.872196,
              11.23996
            ],
            [
              103.873586,
              11.246155
            ],
            [
              103.873033,
              11.249299
            ],
            [
              103.872022,
              11.249868
            ],
            [
              103.87185,
              11.252425
            ],
            [
              103.872892,
              11.253771
            ],
            [
              103.874834,
              11.254317
            ],
            [
              103.876981,
              11.259592
            ],
            [
              103.878469,
              11.260194
            ],
            [
              103.880636,
              11.259638
            ],
            [
              103.888017,
              11.266123
            ],
            [
              103.886572,
              11.266589
            ],
            [
              103.884842,
              11.268777
            ],
            [
              103.886454,
              11.270354
            ],
            [
              103.88454,
              11.272093
            ],
            [
              103.884279,
              11.273263
            ],
            [
              103.88717,
              11.275625
            ],
            [
              103.894462,
              11.277622
            ],
            [
              103.897586,
              11.279709
            ],
            [
              103.897976,
              11.281639
            ],
            [
              103.900869,
              11.283197
            ],
            [
              103.902442,
              11.289607
            ],
            [
              103.900649,
              11.296627
            ],
            [
              103.902867,
              11.301707
            ],
            [
              103.912143,
              11.312997
            ],
            [
              103.923281,
              11.324634
            ],
            [
              103.949045,
              11.354039
            ],
            [
              103.972318,
              11.384915
            ],
            [
              103.987016,
              11.399259
            ],
            [
              103.989828,
              11.401241
            ],
            [
              103.996249,
              11.403921
            ],
            [
              104.042762,
              11.436848
            ],
            [
              104.046854,
              11.440898
            ],
            [
              104.047664,
              11.442945
            ],
            [
              104.047936,
              11.448036
            ],
            [
              104.048885,
              11.448973
            ],
            [
              104.052856,
              11.451482
            ],
            [
              104.061175,
              11.453982
            ],
            [
              104.063335,
              11.455574
            ],
            [
              104.064555,
              11.458685
            ],
            [
              104.064475,
              11.461588
            ],
            [
              104.062524,
              11.472423
            ],
            [
              104.058085,
              11.486403
            ],
            [
              104.05322,
              11.495425
            ],
            [
              104.049257,
              11.497175
            ],
            [
              104.045584,
              11.497817
            ],
            [
              104.041515,
              11.494915
            ],
            [
              104.038582,
              11.494676
            ],
            [
              104.03038,
              11.500294
            ],
            [
              104.025079,
              11.501317
            ],
            [
              104.019922,
              11.512962
            ],
            [
              104.016409,
              11.5175
            ],
            [
              104.002264,
              11.529783
            ],
            [
              103.996383,
              11.530187
            ],
            [
              103.993225,
              11.528109
            ],
            [
              103.989731,
              11.527083
            ],
            [
              103.982687,
              11.523448
            ],
            [
              103.98096,
              11.523364
            ],
            [
              103.978917,
              11.527274
            ],
            [
              103.977924,
              11.527357
            ],
            [
              103.973633,
              11.52527
            ],
            [
              103.969177,
              11.524726
            ],
            [
              103.960726,
              11.519191
            ],
            [
              103.9579,
              11.516589
            ],
            [
              103.954333,
              11.517324
            ],
            [
              103.952898,
              11.519774
            ],
            [
              103.950161,
              11.518924
            ],
            [
              103.948263,
              11.517064
            ],
            [
              103.944277,
              11.516308
            ],
            [
              103.938018,
              11.516286
            ],
            [
              103.935244,
              11.519685
            ],
            [
              103.932564,
              11.521608
            ],
            [
              103.930159,
              11.529338
            ],
            [
              103.926841,
              11.535882
            ],
            [
              103.926138,
              11.536219
            ],
            [
              103.922552,
              11.53503
            ],
            [
              103.916578,
              11.537072
            ],
            [
              103.917027,
              11.541622
            ],
            [
              103.916111,
              11.547339
            ],
            [
              103.914164,
              11.550825
            ],
            [
              103.91141,
              11.553148
            ],
            [
              103.904072,
              11.556128
            ],
            [
              103.888125,
              11.558102
            ],
            [
              103.882285,
              11.567094
            ],
            [
              103.876695,
              11.566632
            ],
            [
              103.866186,
              11.571516
            ],
            [
              103.863392,
              11.574388
            ],
            [
              103.860612,
              11.573182
            ],
            [
              103.863707,
              11.578112
            ],
            [
              103.863403,
              11.579449
            ],
            [
              103.860867,
              11.580937
            ],
            [
              103.858101,
              11.584427
            ],
            [
              103.855487,
              11.585456
            ],
            [
              103.851185,
              11.589631
            ],
            [
              103.844963,
              11.590615
            ],
            [
              103.842461,
              11.594633
            ],
            [
              103.83867,
              11.595343
            ],
            [
              103.833626,
              11.603849
            ],
            [
              103.83335,
              11.607122
            ],
            [
              103.832228,
              11.607226
            ],
            [
              103.830133,
              11.608912
            ],
            [
              103.82681,
              11.609522
            ],
            [
              103.824771,
              11.612618
            ],
            [
              103.821216,
              11.615539
            ],
            [
              103.818438,
              11.619074
            ],
            [
              103.814232,
              11.619184
            ],
            [
              103.806703,
              11.622319
            ],
            [
              103.79867,
              11.622038
            ],
            [
              103.794982,
              11.622919
            ],
            [
              103.796093,
              11.632581
            ],
            [
              103.795055,
              11.639694
            ],
            [
              103.796824,
              11.653805
            ],
            [
              103.800964,
              11.660612
            ],
            [
              103.802862,
              11.666126
            ],
            [
              103.80299,
              11.667421
            ],
            [
              103.801857,
              11.668493
            ],
            [
              103.802854,
              11.67073
            ],
            [
              103.801984,
              11.678394
            ],
            [
              103.800854,
              11.680901
            ],
            [
              103.800465,
              11.684194
            ],
            [
              103.797933,
              11.68825
            ],
            [
              103.790309,
              11.696719
            ],
            [
              103.781962,
              11.702197
            ],
            [
              103.777507,
              11.708592
            ],
            [
              103.775347,
              11.712824
            ],
            [
              103.773709,
              11.721447
            ],
            [
              103.77445,
              11.730526
            ],
            [
              103.775492,
              11.734221
            ],
            [
              103.775501,
              11.738747
            ],
            [
              103.780823,
              11.744487
            ],
            [
              103.782818,
              11.748868
            ],
            [
              103.782977,
              11.750787
            ],
            [
              103.780855,
              11.755915
            ],
            [
              103.777074,
              11.759857
            ],
            [
              103.775722,
              11.765026
            ],
            [
              103.773226,
              11.768772
            ],
            [
              103.773543,
              11.774092
            ],
            [
              103.778456,
              11.778658
            ],
            [
              103.791472,
              11.786129
            ],
            [
              103.792759,
              11.791376
            ],
            [
              103.792939,
              11.80323
            ],
            [
              103.785906,
              11.806307
            ],
            [
              103.783783,
              11.810172
            ],
            [
              103.783028,
              11.822098
            ],
            [
              103.782095,
              11.826029
            ],
            [
              103.782383,
              11.829316
            ],
            [
              103.780697,
              11.832575
            ],
            [
              103.781837,
              11.839279
            ],
            [
              103.784858,
              11.843594
            ],
            [
              103.784173,
              11.849357
            ],
            [
              103.787753,
              11.850883
            ],
            [
              103.792845,
              11.846987
            ],
            [
              103.800968,
              11.844388
            ],
            [
              103.806491,
              11.840285
            ],
            [
              103.822273,
              11.838576
            ],
            [
              103.828251,
              11.835817
            ],
            [
              103.83971,
              11.836519
            ],
            [
              103.842032,
              11.838492
            ],
            [
              103.84862,
              11.841599
            ],
            [
              103.857671,
              11.84326
            ],
            [
              103.854154,
              11.84791
            ],
            [
              103.850822,
              11.850403
            ],
            [
              103.848318,
              11.853469
            ],
            [
              103.844054,
              11.853689
            ],
            [
              103.842225,
              11.854643
            ],
            [
              103.838149,
              11.861508
            ],
            [
              103.838303,
              11.86657
            ],
            [
              103.836101,
              11.869119
            ],
            [
              103.83566,
              11.872723
            ],
            [
              103.833109,
              11.875663
            ],
            [
              103.830745,
              11.880162
            ],
            [
              103.823184,
              11.887798
            ],
            [
              103.821227,
              11.888556
            ],
            [
              103.81849,
              11.893654
            ],
            [
              103.815949,
              11.89416
            ],
            [
              103.814877,
              11.895251
            ],
            [
              103.814098,
              11.900967
            ],
            [
              103.808891,
              11.908992
            ],
            [
              103.804928,
              11.907237
            ],
            [
              103.80332,
              11.90959
            ],
            [
              103.801293,
              11.910761
            ],
            [
              103.797844,
              11.916134
            ],
            [
              103.798253,
              11.92029
            ],
            [
              103.797065,
              11.923446
            ],
            [
              103.795422,
              11.924157
            ],
            [
              103.793336,
              11.927211
            ],
            [
              103.788966,
              11.931401
            ],
            [
              103.784048,
              11.932746
            ],
            [
              103.782462,
              11.931943
            ],
            [
              103.775865,
              11.931474
            ],
            [
              103.770784,
              11.934
            ],
            [
              103.764174,
              11.925794
            ],
            [
              103.762123,
              11.925233
            ],
            [
              103.757134,
              11.926128
            ],
            [
              103.752682,
              11.929732
            ],
            [
              103.748242,
              11.931834
            ],
            [
              103.743835,
              11.937893
            ],
            [
              103.741234,
              11.940076
            ],
            [
              103.731001,
              11.93493
            ],
            [
              103.721854,
              11.927732
            ],
            [
              103.719047,
              11.927643
            ],
            [
              103.713454,
              11.929361
            ],
            [
              103.711165,
              11.930911
            ],
            [
              103.707782,
              11.937141
            ],
            [
              103.699743,
              11.938664
            ],
            [
              103.695636,
              11.940488
            ],
            [
              103.694386,
              11.942354
            ],
            [
              103.698597,
              11.944618
            ],
            [
              103.700252,
              11.946571
            ],
            [
              103.699783,
              11.954876
            ],
            [
              103.696959,
              11.963341
            ],
            [
              103.693201,
              11.965105
            ],
            [
              103.688567,
              11.96436
            ],
            [
              103.674449,
              11.96574
            ],
            [
              103.670888,
              11.96949
            ],
            [
              103.668129,
              11.970457
            ],
            [
              103.666668,
              11.972141
            ],
            [
              103.661792,
              11.974163
            ],
            [
              103.655392,
              11.974838
            ],
            [
              103.653207,
              11.978707
            ],
            [
              103.649806,
              11.979551
            ],
            [
              103.649675,
              11.98365
            ],
            [
              103.64568,
              11.984668
            ],
            [
              103.644009,
              11.986503
            ],
            [
              103.639196,
              11.984931
            ],
            [
              103.636867,
              11.985677
            ],
            [
              103.63376,
              11.991685
            ],
            [
              103.632086,
              11.99275
            ],
            [
              103.628531,
              11.993422
            ],
            [
              103.627826,
              11.994642
            ],
            [
              103.628883,
              11.996095
            ],
            [
              103.632485,
              11.997984
            ],
            [
              103.633957,
              12.000571
            ],
            [
              103.63604,
              12.001974
            ],
            [
              103.637164,
              12.006527
            ],
            [
              103.633592,
              12.01359
            ],
            [
              103.630049,
              12.015495
            ],
            [
              103.624102,
              12.016389
            ],
            [
              103.618557,
              12.019024
            ],
            [
              103.615306,
              12.018549
            ],
            [
              103.611371,
              12.019838
            ],
            [
              103.607142,
              12.023231
            ],
            [
              103.604641,
              12.024219
            ],
            [
              103.604614,
              12.026172
            ],
            [
              103.601647,
              12.029587
            ],
            [
              103.600403,
              12.033641
            ],
            [
              103.596514,
              12.036124
            ],
            [
              103.594564,
              12.039668
            ],
            [
              103.590733,
              12.040828
            ],
            [
              103.583708,
              12.053147
            ],
            [
              103.580001,
              12.053962
            ],
            [
              103.575202,
              12.056418
            ],
            [
              103.571909,
              12.056598
            ],
            [
              103.570267,
              12.05945
            ],
            [
              103.568978,
              12.066122
            ],
            [
              103.568262,
              12.06691
            ],
            [
              103.563762,
              12.065492
            ],
            [
              103.561029,
              12.067837
            ],
            [
              103.559566,
              12.071135
            ],
            [
              103.549317,
              12.075352
            ],
            [
              103.547351,
              12.078585
            ],
            [
              103.537625,
              12.083841
            ],
            [
              103.536537,
              12.084907
            ],
            [
              103.536865,
              12.087396
            ],
            [
              103.540532,
              12.089671
            ],
            [
              103.540898,
              12.091253
            ],
            [
              103.537535,
              12.09497
            ],
            [
              103.529826,
              12.09876
            ],
            [
              103.52306,
              12.097339
            ],
            [
              103.520094,
              12.101075
            ],
            [
              103.513749,
              12.104497
            ],
            [
              103.507405,
              12.105713
            ],
            [
              103.496304,
              12.100994
            ],
            [
              103.494098,
              12.100977
            ],
            [
              103.491827,
              12.098479
            ],
            [
              103.488801,
              12.10053
            ],
            [
              103.486297,
              12.106737
            ],
            [
              103.484194,
              12.108711
            ],
            [
              103.481481,
              12.10748
            ],
            [
              103.481131,
              12.110897
            ],
            [
              103.475709,
              12.115882
            ],
            [
              103.470865,
              12.116263
            ],
            [
              103.468883,
              12.11527
            ],
            [
              103.467888,
              12.111578
            ],
            [
              103.465206,
              12.110308
            ],
            [
              103.464081,
              12.107421
            ],
            [
              103.460026,
              12.104274
            ],
            [
              103.458389,
              12.100801
            ],
            [
              103.454353,
              12.099769
            ],
            [
              103.454264,
              12.097848
            ],
            [
              103.448577,
              12.094159
            ],
            [
              103.436915,
              12.091237
            ],
            [
              103.43565,
              12.088027
            ],
            [
              103.433366,
              12.0867
            ],
            [
              103.426774,
              12.091341
            ],
            [
              103.42304,
              12.091366
            ],
            [
              103.420667,
              12.092913
            ],
            [
              103.419832,
              12.095693
            ],
            [
              103.414637,
              12.096496
            ],
            [
              103.413178,
              12.101873
            ],
            [
              103.407177,
              12.102974
            ],
            [
              103.404618,
              12.104116
            ],
            [
              103.403091,
              12.103493
            ],
            [
              103.401646,
              12.107615
            ],
            [
              103.400138,
              12.108761
            ],
            [
              103.395936,
              12.109038
            ],
            [
              103.391842,
              12.108017
            ],
            [
              103.389566,
              12.103541
            ],
            [
              103.382126,
              12.09695
            ],
            [
              103.381805,
              12.094466
            ],
            [
              103.383805,
              12.092425
            ],
            [
              103.380861,
              12.08913
            ],
            [
              103.382274,
              12.084065
            ],
            [
              103.384848,
              12.081417
            ],
            [
              103.382493,
              12.07594
            ],
            [
              103.386021,
              12.073995
            ],
            [
              103.386808,
              12.071939
            ],
            [
              103.384829,
              12.070292
            ],
            [
              103.383173,
              12.069885
            ],
            [
              103.380486,
              12.071246
            ],
            [
              103.376623,
              12.071237
            ],
            [
              103.372511,
              12.068894
            ],
            [
              103.37063,
              12.065108
            ],
            [
              103.366975,
              12.061754
            ],
            [
              103.364316,
              12.061323
            ],
            [
              103.364002,
              12.05599
            ],
            [
              103.361354,
              12.051512
            ],
            [
              103.360867,
              12.045568
            ],
            [
              103.361358,
              12.039626
            ],
            [
              103.363638,
              12.031168
            ],
            [
              103.358953,
              12.028444
            ],
            [
              103.354154,
              12.029059
            ],
            [
              103.349395,
              12.027
            ],
            [
              103.346242,
              12.027745
            ],
            [
              103.344381,
              12.024636
            ],
            [
              103.338154,
              12.020112
            ],
            [
              103.334282,
              12.018117
            ],
            [
              103.332399,
              12.019592
            ],
            [
              103.330405,
              12.019151
            ],
            [
              103.327925,
              12.014799
            ],
            [
              103.324775,
              12.011862
            ],
            [
              103.319581,
              12.008914
            ],
            [
              103.318979,
              12.00384
            ],
            [
              103.317079,
              12.000367
            ],
            [
              103.316313,
              11.99347
            ],
            [
              103.311543,
              11.985699
            ],
            [
              103.307425,
              11.985033
            ],
            [
              103.296023,
              11.985294
            ],
            [
              103.294759,
              11.981487
            ],
            [
              103.290472,
              11.979685
            ],
            [
              103.288399,
              11.98042
            ],
            [
              103.286276,
              11.982742
            ],
            [
              103.271579,
              11.989152
            ],
            [
              103.268125,
              11.988426
            ],
            [
              103.263233,
              11.984111
            ],
            [
              103.258309,
              11.98337
            ],
            [
              103.256613,
              11.982035
            ],
            [
              103.257132,
              11.978046
            ],
            [
              103.253345,
              11.973244
            ],
            [
              103.251368,
              11.974392
            ],
            [
              103.246426,
              11.974476
            ],
            [
              103.244644,
              11.976544
            ],
            [
              103.241282,
              11.975446
            ],
            [
              103.234512,
              11.976584
            ],
            [
              103.230217,
              11.975168
            ],
            [
              103.228396,
              11.968891
            ],
            [
              103.229446,
              11.963083
            ],
            [
              103.226177,
              11.958365
            ],
            [
              103.223516,
              11.956786
            ],
            [
              103.222524,
              11.95689
            ],
            [
              103.219221,
              11.960202
            ],
            [
              103.20909,
              11.961766
            ],
            [
              103.206137,
              11.963211
            ],
            [
              103.198702,
              11.963479
            ],
            [
              103.194372,
              11.961946
            ],
            [
              103.185036,
              11.952524
            ],
            [
              103.178512,
              11.949514
            ],
            [
              103.176773,
              11.949699
            ],
            [
              103.174276,
              11.948589
            ],
            [
              103.171311,
              11.949724
            ],
            [
              103.166422,
              11.945762
            ],
            [
              103.162489,
              11.945409
            ],
            [
              103.160058,
              11.943642
            ],
            [
              103.157213,
              11.946234
            ],
            [
              103.153305,
              11.947899
            ],
            [
              103.151425,
              11.947935
            ],
            [
              103.143525,
              11.944797
            ],
            [
              103.13904,
              11.944059
            ],
            [
              103.120871,
              11.945344
            ],
            [
              103.114737,
              11.946788
            ],
            [
              103.09616,
              11.954587
            ],
            [
              103.085562,
              11.960036
            ],
            [
              103.078225,
              11.962347
            ],
            [
              103.018539,
              11.988584
            ],
            [
              102.996307,
              11.996964
            ],
            [
              102.972582,
              12.002266
            ],
            [
              102.797656,
              12.013564
            ],
            [
              102.779426,
              12.021949
            ],
            [
              102.776033,
              12.014026
            ],
            [
              102.776708,
              12.004402
            ],
            [
              102.780389,
              11.993762
            ],
            [
              102.779961,
              11.991347
            ],
            [
              102.780748,
              11.988404
            ],
            [
              102.784763,
              11.976728
            ],
            [
              102.789248,
              11.977234
            ],
            [
              102.79191,
              11.973197
            ],
            [
              102.795081,
              11.965269
            ],
            [
              102.797078,
              11.962416
            ],
            [
              102.796127,
              11.958157
            ],
            [
              102.799828,
              11.949753
            ],
            [
              102.801642,
              11.948016
            ],
            [
              102.808632,
              11.945382
            ],
            [
              102.810474,
              11.941081
            ],
            [
              102.815176,
              11.93354
            ],
            [
              102.815668,
              11.930236
            ],
            [
              102.813624,
              11.926417
            ],
            [
              102.813767,
              11.922422
            ],
            [
              102.81908,
              11.916838
            ],
            [
              102.819435,
              11.915441
            ],
            [
              102.81806,
              11.911848
            ],
            [
              102.82196,
              11.908312
            ],
            [
              102.820994,
              11.901964
            ],
            [
              102.821089,
              11.895905
            ],
            [
              102.819279,
              11.892707
            ],
            [
              102.822705,
              11.884096
            ],
            [
              102.826224,
              11.871979
            ],
            [
              102.829124,
              11.867852
            ],
            [
              102.832787,
              11.85631
            ],
            [
              102.836624,
              11.850565
            ],
            [
              102.845348,
              11.844096
            ],
            [
              102.847936,
              11.831912
            ],
            [
              102.851041,
              11.826655
            ],
            [
              102.860437,
              11.824214
            ],
            [
              102.86248,
              11.822109
            ],
            [
              102.862127,
              11.81934
            ],
            [
              102.864451,
              11.815302
            ],
            [
              102.862882,
              11.8128
            ],
            [
              102.867351,
              11.805556
            ],
            [
              102.874768,
              11.802527
            ],
            [
              102.876623,
              11.802834
            ],
            [
              102.881187,
              11.800068
            ],
            [
              102.885942,
              11.79941
            ],
            [
              102.88171,
              11.791903
            ],
            [
              102.881472,
              11.790234
            ],
            [
              102.882186,
              11.789444
            ],
            [
              102.890506,
              11.787995
            ],
            [
              102.892735,
              11.786409
            ],
            [
              102.894595,
              11.781498
            ],
            [
              102.902583,
              11.771796
            ],
            [
              102.904865,
              11.767054
            ],
            [
              102.908146,
              11.755069
            ],
            [
              102.908621,
              11.750372
            ],
            [
              102.911331,
              11.745531
            ],
            [
              102.910617,
              11.740702
            ],
            [
              102.911236,
              11.73056
            ],
            [
              102.91057,
              11.717652
            ],
            [
              102.912329,
              11.696578
            ],
            [
              102.911473,
              11.693812
            ],
            [
              102.911188,
              11.681827
            ],
            [
              102.911426,
              11.6795
            ],
            [
              102.91328,
              11.675768
            ],
            [
              102.912472,
              11.672519
            ],
            [
              102.913708,
              11.66927
            ],
            [
              102.912757,
              11.664572
            ],
            [
              102.912757,
              11.660226
            ],
            [
              102.914185,
              11.655169
            ],
            [
              102.908878,
              11.650492
            ],
            [
              102.904691,
              11.63947
            ],
            [
              102.75697,
              11.401727
            ],
            [
              102.589528,
              11.155631
            ],
            [
              102.586066,
              11.134117
            ],
            [
              102.584992,
              11.115473
            ],
            [
              102.584984,
              11.112359
            ]
          ]
        ]
      }
    }
  ]
}
