{
  "type": "FeatureCollection",
  "features": [
    {
      "type": "Feature",
      "properties": {
        "geo_id": "geo_kh_0024",
        "name": "Siem Reap",
        "boundary_level": "province",
        "osm_type": "relation",
        "osm_id": 2200393,
        "source_checked_at": "2026-10-01"
      },
      "geometry": {
        "type": "Polygon",
        "coordinates": [
          [
            [
              103.389231,
              13.621495
            ],
            [
              103.395504,
              13.617478
            ],
            [
              103.398393,
              13.614236
            ],
            [
              103.398331,
              13.612043
            ],
            [
              103.394542,
              13.610122
            ],
            [
              103.394165,
              13.609296
            ],
            [
              103.39531,
              13.607954
            ],
            [
              103.398207,
              13.607541
            ],
            [
              103.400532,
              13.608512
            ],
            [
              103.401245,
              13.614058
            ],
            [
              103.404563,
              13.612723
            ],
            [
              103.406052,
              13.610341
            ],
            [
              103.40828,
              13.612609
            ],
            [
              103.409059,
              13.609836
            ],
            [
              103.408366,
              13.608133
            ],
            [
              103.405797,
              13.606237
            ],
            [
              103.405776,
              13.605229
            ],
            [
              103.409395,
              13.604378
            ],
            [
              103.413661,
              13.602129
            ],
            [
              103.415232,
              13.59772
            ],
            [
              103.414812,
              13.596034
            ],
            [
              103.412781,
              13.593983
            ],
            [
              103.406281,
              13.593847
            ],
            [
              103.404299,
              13.591951
            ],
            [
              103.403627,
              13.588757
            ],
            [
              103.404031,
              13.588013
            ],
            [
              103.409522,
              13.586538
            ],
            [
              103.413028,
              13.583608
            ],
            [
              103.412444,
              13.58262
            ],
            [
              103.408467,
              13.583375
            ],
            [
              103.407846,
              13.582964
            ],
            [
              103.407678,
              13.579535
            ],
            [
              103.409153,
              13.576864
            ],
            [
              103.411535,
              13.575878
            ],
            [
              103.412886,
              13.576226
            ],
            [
              103.416295,
              13.579964
            ],
            [
              103.417231,
              13.58019
            ],
            [
              103.417496,
              13.579479
            ],
            [
              103.416972,
              13.577321
            ],
            [
              103.413198,
              13.570985
            ],
            [
              103.406262,
              13.570805
            ],
            [
              103.402559,
              13.569458
            ],
            [
              103.403768,
              13.567582
            ],
            [
              103.405612,
              13.56683
            ],
            [
              103.407324,
              13.567537
            ],
            [
              103.408805,
              13.566528
            ],
            [
              103.408845,
              13.565816
            ],
            [
              103.406016,
              13.563372
            ],
            [
              103.406803,
              13.562426
            ],
            [
              103.410024,
              13.56321
            ],
            [
              103.410067,
              13.561989
            ],
            [
              103.407006,
              13.560612
            ],
            [
              103.408108,
              13.559143
            ],
            [
              103.409758,
              13.558899
            ],
            [
              103.411941,
              13.561831
            ],
            [
              103.413031,
              13.562195
            ],
            [
              103.415557,
              13.560582
            ],
            [
              103.411051,
              13.554733
            ],
            [
              103.409592,
              13.551208
            ],
            [
              103.41006,
              13.549891
            ],
            [
              103.411349,
              13.549169
            ],
            [
              103.415631,
              13.549434
            ],
            [
              103.414099,
              13.547575
            ],
            [
              103.416958,
              13.545404
            ],
            [
              103.418175,
              13.542409
            ],
            [
              103.414718,
              13.54052
            ],
            [
              103.414173,
              13.539142
            ],
            [
              103.417645,
              13.53541
            ],
            [
              103.416711,
              13.534594
            ],
            [
              103.414721,
              13.534565
            ],
            [
              103.414396,
              13.53359
            ],
            [
              103.417186,
              13.531984
            ],
            [
              103.417951,
              13.530135
            ],
            [
              103.415611,
              13.528869
            ],
            [
              103.413057,
              13.529515
            ],
            [
              103.412145,
              13.52844
            ],
            [
              103.412571,
              13.526949
            ],
            [
              103.415132,
              13.525269
            ],
            [
              103.415147,
              13.524527
            ],
            [
              103.414396,
              13.523703
            ],
            [
              103.412658,
              13.524286
            ],
            [
              103.411727,
              13.523499
            ],
            [
              103.411577,
              13.521733
            ],
            [
              103.414501,
              13.520921
            ],
            [
              103.414575,
              13.520192
            ],
            [
              103.411696,
              13.520292
            ],
            [
              103.410487,
              13.519538
            ],
            [
              103.4102,
              13.518484
            ],
            [
              103.414173,
              13.515506
            ],
            [
              103.413804,
              13.513654
            ],
            [
              103.410537,
              13.514686
            ],
            [
              103.408577,
              13.517286
            ],
            [
              103.407,
              13.517141
            ],
            [
              103.405592,
              13.515095
            ],
            [
              103.40568,
              13.512313
            ],
            [
              103.409307,
              13.50918
            ],
            [
              103.410922,
              13.506084
            ],
            [
              103.410589,
              13.504166
            ],
            [
              103.408619,
              13.503203
            ],
            [
              103.408416,
              13.502455
            ],
            [
              103.409755,
              13.501768
            ],
            [
              103.412423,
              13.502192
            ],
            [
              103.413493,
              13.5004
            ],
            [
              103.412355,
              13.499358
            ],
            [
              103.408885,
              13.500331
            ],
            [
              103.407584,
              13.499786
            ],
            [
              103.407263,
              13.498477
            ],
            [
              103.40866,
              13.495243
            ],
            [
              103.4085,
              13.493509
            ],
            [
              103.405987,
              13.494753
            ],
            [
              103.403827,
              13.498931
            ],
            [
              103.403357,
              13.49925
            ],
            [
              103.40215,
              13.498207
            ],
            [
              103.401972,
              13.496238
            ],
            [
              103.403376,
              13.493634
            ],
            [
              103.401579,
              13.491855
            ],
            [
              103.40393,
              13.49116
            ],
            [
              103.404235,
              13.489669
            ],
            [
              103.400751,
              13.486983
            ],
            [
              103.403971,
              13.48387
            ],
            [
              103.401572,
              13.483442
            ],
            [
              103.401109,
              13.480079
            ],
            [
              103.401442,
              13.479521
            ],
            [
              103.403418,
              13.479517
            ],
            [
              103.403842,
              13.478383
            ],
            [
              103.40014,
              13.477172
            ],
            [
              103.399142,
              13.475994
            ],
            [
              103.402284,
              13.472756
            ],
            [
              103.401586,
              13.470835
            ],
            [
              103.405385,
              13.470519
            ],
            [
              103.410962,
              13.468756
            ],
            [
              103.410569,
              13.467837
            ],
            [
              103.411198,
              13.467235
            ],
            [
              103.414344,
              13.465961
            ],
            [
              103.413696,
              13.464328
            ],
            [
              103.414294,
              13.463059
            ],
            [
              103.413905,
              13.461597
            ],
            [
              103.411532,
              13.461192
            ],
            [
              103.40814,
              13.457675
            ],
            [
              103.406097,
              13.457323
            ],
            [
              103.405734,
              13.455289
            ],
            [
              103.402885,
              13.452755
            ],
            [
              103.401821,
              13.445792
            ],
            [
              103.402518,
              13.444029
            ],
            [
              103.401718,
              13.443144
            ],
            [
              103.400918,
              13.435622
            ],
            [
              103.398943,
              13.432912
            ],
            [
              103.397265,
              13.432341
            ],
            [
              103.398484,
              13.431467
            ],
            [
              103.398385,
              13.430719
            ],
            [
              103.397177,
              13.42988
            ],
            [
              103.395579,
              13.427749
            ],
            [
              103.395608,
              13.426437
            ],
            [
              103.393505,
              13.424223
            ],
            [
              103.394151,
              13.422173
            ],
            [
              103.394049,
              13.412807
            ],
            [
              103.395588,
              13.413394
            ],
            [
              103.396961,
              13.41264
            ],
            [
              103.397298,
              13.409078
            ],
            [
              103.399235,
              13.409684
            ],
            [
              103.400608,
              13.408864
            ],
            [
              103.400828,
              13.40737
            ],
            [
              103.401905,
              13.406936
            ],
            [
              103.40331,
              13.404145
            ],
            [
              103.402195,
              13.402492
            ],
            [
              103.402642,
              13.400306
            ],
            [
              103.406395,
              13.39904
            ],
            [
              103.406473,
              13.397958
            ],
            [
              103.40807,
              13.397303
            ],
            [
              103.407632,
              13.395298
            ],
            [
              103.4092,
              13.393732
            ],
            [
              103.410072,
              13.39063
            ],
            [
              103.412456,
              13.386539
            ],
            [
              103.412768,
              13.384939
            ],
            [
              103.411778,
              13.384278
            ],
            [
              103.412482,
              13.382636
            ],
            [
              103.411685,
              13.382563
            ],
            [
              103.412195,
              13.38143
            ],
            [
              103.411981,
              13.379613
            ],
            [
              103.411376,
              13.37949
            ],
            [
              103.414967,
              13.373608
            ],
            [
              103.415257,
              13.371624
            ],
            [
              103.4145,
              13.370771
            ],
            [
              103.414103,
              13.367901
            ],
            [
              103.415552,
              13.367227
            ],
            [
              103.417492,
              13.369144
            ],
            [
              103.418763,
              13.368236
            ],
            [
              103.421676,
              13.36817
            ],
            [
              103.423275,
              13.367212
            ],
            [
              103.426175,
              13.362347
            ],
            [
              103.429839,
              13.361821
            ],
            [
              103.431218,
              13.362341
            ],
            [
              103.433094,
              13.361109
            ],
            [
              103.434171,
              13.362103
            ],
            [
              103.434957,
              13.361889
            ],
            [
              103.434776,
              13.361083
            ],
            [
              103.437561,
              13.357845
            ],
            [
              103.438307,
              13.357995
            ],
            [
              103.439488,
              13.360234
            ],
            [
              103.441914,
              13.360688
            ],
            [
              103.441964,
              13.358713
            ],
            [
              103.44591,
              13.355334
            ],
            [
              103.447617,
              13.356919
            ],
            [
              103.450305,
              13.357155
            ],
            [
              103.450125,
              13.356093
            ],
            [
              103.448003,
              13.354909
            ],
            [
              103.448046,
              13.353958
            ],
            [
              103.448864,
              13.353698
            ],
            [
              103.457497,
              13.354089
            ],
            [
              103.456581,
              13.35134
            ],
            [
              103.459279,
              13.348073
            ],
            [
              103.460672,
              13.347029
            ],
            [
              103.464067,
              13.346319
            ],
            [
              103.467633,
              13.346322
            ],
            [
              103.477149,
              13.353989
            ],
            [
              103.478704,
              13.35356
            ],
            [
              103.486608,
              13.346766
            ],
            [
              103.49391,
              13.344066
            ],
            [
              103.496183,
              13.344957
            ],
            [
              103.498886,
              13.349113
            ],
            [
              103.505384,
              13.352487
            ],
            [
              103.523563,
              13.350136
            ],
            [
              103.525745,
              13.349108
            ],
            [
              103.527591,
              13.346714
            ],
            [
              103.528067,
              13.340521
            ],
            [
              103.536319,
              13.338264
            ],
            [
              103.5419,
              13.337597
            ],
            [
              103.548515,
              13.334481
            ],
            [
              103.553995,
              13.330855
            ],
            [
              103.551987,
              13.325959
            ],
            [
              103.555323,
              13.325177
            ],
            [
              103.556293,
              13.32405
            ],
            [
              103.556603,
              13.314985
            ],
            [
              103.559763,
              13.311657
            ],
            [
              103.563188,
              13.310175
            ],
            [
              103.565883,
              13.310035
            ],
            [
              103.566715,
              13.310211
            ],
            [
              103.568822,
              13.31319
            ],
            [
              103.579847,
              13.312769
            ],
            [
              103.585982,
              13.304085
            ],
            [
              103.587428,
              13.298149
            ],
            [
              103.590924,
              13.296117
            ],
            [
              103.593056,
              13.293655
            ],
            [
              103.594587,
              13.29305
            ],
            [
              103.596565,
              13.293994
            ],
            [
              103.601918,
              13.293819
            ],
            [
              103.605182,
              13.294875
            ],
            [
              103.607994,
              13.292149
            ],
            [
              103.609427,
              13.291892
            ],
            [
              103.61159,
              13.292543
            ],
            [
              103.613635,
              13.295528
            ],
            [
              103.620539,
              13.29603
            ],
            [
              103.625136,
              13.298333
            ],
            [
              103.626278,
              13.298283
            ],
            [
              103.63059,
              13.296639
            ],
            [
              103.638298,
              13.29223
            ],
            [
              103.643011,
              13.294413
            ],
            [
              103.644871,
              13.292963
            ],
            [
              103.647048,
              13.293536
            ],
            [
              103.650898,
              13.288454
            ],
            [
              103.6563,
              13.28535
            ],
            [
              103.661925,
              13.283338
            ],
            [
              103.663536,
              13.278862
            ],
            [
              103.667449,
              13.277573
            ],
            [
              103.666275,
              13.275644
            ],
            [
              103.666789,
              13.274688
            ],
            [
              103.66992,
              13.27454
            ],
            [
              103.674796,
              13.277983
            ],
            [
              103.67634,
              13.280464
            ],
            [
              103.679537,
              13.281515
            ],
            [
              103.678796,
              13.28352
            ],
            [
              103.67697,
              13.284444
            ],
            [
              103.676875,
              13.285122
            ],
            [
              103.681618,
              13.286597
            ],
            [
              103.683188,
              13.286184
            ],
            [
              103.699789,
              13.27488
            ],
            [
              103.705318,
              13.269652
            ],
            [
              103.708955,
              13.261328
            ],
            [
              103.901171,
              13.089144
            ],
            [
              104.173482,
              12.772049
            ],
            [
              104.219668,
              12.795937
            ],
            [
              104.220939,
              12.800108
            ],
            [
              104.226631,
              12.798089
            ],
            [
              104.229425,
              12.799018
            ],
            [
              104.22933,
              12.801108
            ],
            [
              104.227077,
              12.803709
            ],
            [
              104.227056,
              12.805548
            ],
            [
              104.227983,
              12.806722
            ],
            [
              104.23189,
              12.808058
            ],
            [
              104.232685,
              12.809055
            ],
            [
              104.232864,
              12.812131
            ],
            [
              104.231956,
              12.814912
            ],
            [
              104.236578,
              12.818226
            ],
            [
              104.240776,
              12.82493
            ],
            [
              104.243571,
              12.826824
            ],
            [
              104.244214,
              12.827844
            ],
            [
              104.244271,
              12.831613
            ],
            [
              104.246649,
              12.83544
            ],
            [
              104.255514,
              12.845384
            ],
            [
              104.268734,
              12.856948
            ],
            [
              104.2689,
              12.858512
            ],
            [
              104.266832,
              12.863279
            ],
            [
              104.268672,
              12.866426
            ],
            [
              104.269663,
              12.867087
            ],
            [
              104.271586,
              12.866593
            ],
            [
              104.275439,
              12.864444
            ],
            [
              104.276948,
              12.864704
            ],
            [
              104.280884,
              12.867702
            ],
            [
              104.281195,
              12.870427
            ],
            [
              104.279717,
              12.872625
            ],
            [
              104.280564,
              12.87549
            ],
            [
              104.282878,
              12.876147
            ],
            [
              104.285773,
              12.875623
            ],
            [
              104.287057,
              12.876217
            ],
            [
              104.287854,
              12.877761
            ],
            [
              104.288977,
              12.87795
            ],
            [
              104.293916,
              12.878024
            ],
            [
              104.296688,
              12.876696
            ],
            [
              104.298917,
              12.878942
            ],
            [
              104.303727,
              12.877816
            ],
            [
              104.304348,
              12.87968
            ],
            [
              104.307812,
              12.883364
            ],
            [
              104.30787,
              12.885341
            ],
            [
              104.308533,
              12.885976
            ],
            [
              104.312095,
              12.88371
            ],
            [
              104.314681,
              12.883862
            ],
            [
              104.319292,
              12.885863
            ],
            [
              104.323893,
              12.88945
            ],
            [
              104.326532,
              12.888673
            ],
            [
              104.333703,
              12.895065
            ],
            [
              104.335525,
              12.895811
            ],
            [
              104.345661,
              12.898003
            ],
            [
              104.350823,
              12.896251
            ],
            [
              104.356117,
              12.899748
            ],
            [
              104.359773,
              12.901124
            ],
            [
              104.362588,
              12.904012
            ],
            [
              104.369722,
              12.91848
            ],
            [
              104.369969,
              12.920181
            ],
            [
              104.367802,
              12.924168
            ],
            [
              104.368722,
              12.926849
            ],
            [
              104.370959,
              12.92855
            ],
            [
              104.371588,
              12.932943
            ],
            [
              104.373477,
              12.936054
            ],
            [
              104.376682,
              12.936589
            ],
            [
              104.378092,
              12.937803
            ],
            [
              104.378916,
              12.938875
            ],
            [
              104.379041,
              12.941473
            ],
            [
              104.380044,
              12.942029
            ],
            [
              104.381478,
              12.945002
            ],
            [
              104.386655,
              12.948659
            ],
            [
              104.391476,
              12.954934
            ],
            [
              104.392539,
              12.9554
            ],
            [
              104.396912,
              12.954504
            ],
            [
              104.402021,
              12.957851
            ],
            [
              104.416415,
              12.978905
            ],
            [
              104.423012,
              12.986051
            ],
            [
              104.42663,
              12.986184
            ],
            [
              104.436807,
              12.984271
            ],
            [
              104.438487,
              12.985314
            ],
            [
              104.440221,
              12.985346
            ],
            [
              104.441648,
              12.987582
            ],
            [
              104.44418,
              12.989169
            ],
            [
              104.445954,
              12.994256
            ],
            [
              104.445879,
              12.994956
            ],
            [
              104.444812,
              12.995284
            ],
            [
              104.444908,
              12.996881
            ],
            [
              104.447358,
              12.998388
            ],
            [
              104.447464,
              13.000888
            ],
            [
              104.449688,
              13.002665
            ],
            [
              104.451865,
              13.001208
            ],
            [
              104.452492,
              13.003794
            ],
            [
              104.453892,
              13.00253
            ],
            [
              104.454318,
              13.000437
            ],
            [
              104.457427,
              13.001413
            ],
            [
              104.457753,
              13.003042
            ],
            [
              104.45667,
              13.004087
            ],
            [
              104.4573,
              13.00507
            ],
            [
              104.456941,
              13.006465
            ],
            [
              104.458192,
              13.007088
            ],
            [
              104.457807,
              13.008509
            ],
            [
              104.458505,
              13.00953
            ],
            [
              104.459294,
              13.009288
            ],
            [
              104.460911,
              13.011462
            ],
            [
              104.459866,
              13.01314
            ],
            [
              104.460812,
              13.014719
            ],
            [
              104.457827,
              13.017143
            ],
            [
              104.456457,
              13.016984
            ],
            [
              104.454763,
              13.019941
            ],
            [
              104.4526,
              13.020621
            ],
            [
              104.452583,
              13.022715
            ],
            [
              104.451723,
              13.023979
            ],
            [
              104.453081,
              13.027081
            ],
            [
              104.452661,
              13.028983
            ],
            [
              104.453774,
              13.030438
            ],
            [
              104.452997,
              13.032279
            ],
            [
              104.453495,
              13.033547
            ],
            [
              104.452742,
              13.033997
            ],
            [
              104.452157,
              13.036245
            ],
            [
              104.454465,
              13.041678
            ],
            [
              104.453884,
              13.042258
            ],
            [
              104.454092,
              13.043577
            ],
            [
              104.457142,
              13.04647
            ],
            [
              104.459957,
              13.047275
            ],
            [
              104.459481,
              13.05076
            ],
            [
              104.464418,
              13.047463
            ],
            [
              104.465921,
              13.048008
            ],
            [
              104.466603,
              13.055374
            ],
            [
              104.465889,
              13.060634
            ],
            [
              104.466257,
              13.064064
            ],
            [
              104.470816,
              13.087613
            ],
            [
              104.47057,
              13.099586
            ],
            [
              104.47192,
              13.11122
            ],
            [
              104.47052,
              13.127888
            ],
            [
              104.47296,
              13.132892
            ],
            [
              104.474754,
              13.140832
            ],
            [
              104.471932,
              13.149601
            ],
            [
              104.471529,
              13.154664
            ],
            [
              104.473587,
              13.162458
            ],
            [
              104.478893,
              13.176195
            ],
            [
              104.483975,
              13.181961
            ],
            [
              104.48892,
              13.183765
            ],
            [
              104.4961,
              13.184072
            ],
            [
              104.506437,
              13.192611
            ],
            [
              104.510116,
              13.194269
            ],
            [
              104.528677,
              13.200394
            ],
            [
              104.544074,
              13.204406
            ],
            [
              104.549148,
              13.207023
            ],
            [
              104.5568,
              13.224423
            ],
            [
              104.562305,
              13.240296
            ],
            [
              104.564212,
              13.246977
            ],
            [
              104.565994,
              13.257831
            ],
            [
              104.570525,
              13.269205
            ],
            [
              104.571774,
              13.274524
            ],
            [
              104.564895,
              13.294851
            ],
            [
              104.564689,
              13.297214
            ],
            [
              104.567033,
              13.307988
            ],
            [
              104.572296,
              13.319037
            ],
            [
              104.571399,
              13.323287
            ],
            [
              104.568209,
              13.327867
            ],
            [
              104.567571,
              13.331064
            ],
            [
              104.568005,
              13.339761
            ],
            [
              104.567076,
              13.346583
            ],
            [
              104.56678,
              13.35913
            ],
            [
              104.567113,
              13.36267
            ],
            [
              104.573319,
              13.383064
            ],
            [
              104.575464,
              13.386132
            ],
            [
              104.578873,
              13.38865
            ],
            [
              104.585956,
              13.396033
            ],
            [
              104.589392,
              13.402169
            ],
            [
              104.592159,
              13.410135
            ],
            [
              104.5985,
              13.41775
            ],
            [
              104.625885,
              13.437771
            ],
            [
              104.631325,
              13.440461
            ],
            [
              104.633855,
              13.442876
            ],
            [
              104.635527,
              13.448407
            ],
            [
              104.637673,
              13.452576
            ],
            [
              104.641085,
              13.457896
            ],
            [
              104.646291,
              13.462466
            ],
            [
              104.649285,
              13.467413
            ],
            [
              104.649784,
              13.474722
            ],
            [
              104.651102,
              13.479421
            ],
            [
              104.648939,
              13.490387
            ],
            [
              104.64993,
              13.494944
            ],
            [
              104.652558,
              13.499118
            ],
            [
              104.65554,
              13.502231
            ],
            [
              104.660612,
              13.505959
            ],
            [
              104.664725,
              13.507366
            ],
            [
              104.664604,
              13.50993
            ],
            [
              104.665807,
              13.511972
            ],
            [
              104.668287,
              13.513549
            ],
            [
              104.670526,
              13.513819
            ],
            [
              104.674104,
              13.518497
            ],
            [
              104.677519,
              13.520499
            ],
            [
              104.678886,
              13.524354
            ],
            [
              104.683247,
              13.528596
            ],
            [
              104.683197,
              13.529229
            ],
            [
              104.678071,
              13.532339
            ],
            [
              104.675781,
              13.53454
            ],
            [
              104.67423,
              13.534732
            ],
            [
              104.672908,
              13.532565
            ],
            [
              104.673105,
              13.531391
            ],
            [
              104.668158,
              13.530121
            ],
            [
              104.666289,
              13.527535
            ],
            [
              104.663326,
              13.527665
            ],
            [
              104.662354,
              13.526229
            ],
            [
              104.661368,
              13.526403
            ],
            [
              104.660499,
              13.525574
            ],
            [
              104.661032,
              13.524959
            ],
            [
              104.660091,
              13.52412
            ],
            [
              104.658581,
              13.524725
            ],
            [
              104.652557,
              13.518321
            ],
            [
              104.651454,
              13.518529
            ],
            [
              104.650452,
              13.516577
            ],
            [
              104.644999,
              13.516151
            ],
            [
              104.640598,
              13.514288
            ],
            [
              104.638684,
              13.512726
            ],
            [
              104.629436,
              13.510876
            ],
            [
              104.628833,
              13.509758
            ],
            [
              104.622422,
              13.506069
            ],
            [
              104.616494,
              13.505304
            ],
            [
              104.615176,
              13.506228
            ],
            [
              104.615265,
              13.507743
            ],
            [
              104.612589,
              13.511982
            ],
            [
              104.607695,
              13.513882
            ],
            [
              104.606761,
              13.515398
            ],
            [
              104.6055,
              13.515241
            ],
            [
              104.604332,
              13.515991
            ],
            [
              104.599053,
              13.522847
            ],
            [
              104.597348,
              13.523879
            ],
            [
              104.591303,
              13.524115
            ],
            [
              104.569871,
              13.521804
            ],
            [
              104.566074,
              13.522149
            ],
            [
              104.562232,
              13.524459
            ],
            [
              104.556758,
              13.526192
            ],
            [
              104.552199,
              13.525753
            ],
            [
              104.549023,
              13.528723
            ],
            [
              104.543369,
              13.532042
            ],
            [
              104.542228,
              13.53401
            ],
            [
              104.537722,
              13.537914
            ],
            [
              104.536767,
              13.540648
            ],
            [
              104.534719,
              13.542476
            ],
            [
              104.533943,
              13.544439
            ],
            [
              104.532797,
              13.545016
            ],
            [
              104.530094,
              13.544349
            ],
            [
              104.527189,
              13.545486
            ],
            [
              104.517869,
              13.546392
            ],
            [
              104.514298,
              13.544975
            ],
            [
              104.509998,
              13.54559
            ],
            [
              104.500438,
              13.549082
            ],
            [
              104.497378,
              13.548072
            ],
            [
              104.490795,
              13.550916
            ],
            [
              104.475397,
              13.552673
            ],
            [
              104.457487,
              13.552933
            ],
            [
              104.447573,
              13.5538
            ],
            [
              104.435716,
              13.553597
            ],
            [
              104.410163,
              13.55578
            ],
            [
              104.4078,
              13.559864
            ],
            [
              104.407117,
              13.563696
            ],
            [
              104.407557,
              13.564668
            ],
            [
              104.410619,
              13.566208
            ],
            [
              104.411306,
              13.568821
            ],
            [
              104.409322,
              13.572554
            ],
            [
              104.407781,
              13.573386
            ],
            [
              104.406231,
              13.576045
            ],
            [
              104.405818,
              13.578257
            ],
            [
              104.406727,
              13.580351
            ],
            [
              104.40562,
              13.581489
            ],
            [
              104.406105,
              13.58306
            ],
            [
              104.404284,
              13.584915
            ],
            [
              104.402125,
              13.591604
            ],
            [
              104.402888,
              13.59329
            ],
            [
              104.402197,
              13.597845
            ],
            [
              104.405691,
              13.601357
            ],
            [
              104.405519,
              13.603452
            ],
            [
              104.409688,
              13.607406
            ],
            [
              104.417906,
              13.609125
            ],
            [
              104.419927,
              13.611082
            ],
            [
              104.421856,
              13.611632
            ],
            [
              104.422309,
              13.612593
            ],
            [
              104.424404,
              13.613618
            ],
            [
              104.425291,
              13.616827
            ],
            [
              104.424201,
              13.618241
            ],
            [
              104.424368,
              13.619596
            ],
            [
              104.426126,
              13.623495
            ],
            [
              104.426502,
              13.626106
            ],
            [
              104.425235,
              13.630133
            ],
            [
              104.426666,
              13.633072
            ],
            [
              104.428689,
              13.634332
            ],
            [
              104.429214,
              13.636064
            ],
            [
              104.428694,
              13.638307
            ],
            [
              104.430991,
              13.640149
            ],
            [
              104.434394,
              13.648538
            ],
            [
              104.440375,
              13.654151
            ],
            [
              104.44046,
              13.66885
            ],
            [
              104.431847,
              13.674618
            ],
            [
              104.429584,
              13.677155
            ],
            [
              104.428199,
              13.680097
            ],
            [
              104.427624,
              13.683589
            ],
            [
              104.427962,
              13.687762
            ],
            [
              104.432202,
              13.699404
            ],
            [
              104.431533,
              13.701283
            ],
            [
              104.429961,
              13.702551
            ],
            [
              104.428073,
              13.711941
            ],
            [
              104.428363,
              13.721052
            ],
            [
              104.424151,
              13.727576
            ],
            [
              104.423387,
              13.731634
            ],
            [
              104.421778,
              13.734015
            ],
            [
              104.41521,
              13.738419
            ],
            [
              104.411945,
              13.741524
            ],
            [
              104.408072,
              13.751445
            ],
            [
              104.411283,
              13.756119
            ],
            [
              104.413113,
              13.757608
            ],
            [
              104.414835,
              13.761352
            ],
            [
              104.414956,
              13.765629
            ],
            [
              104.414125,
              13.767513
            ],
            [
              104.411997,
              13.769519
            ],
            [
              104.403529,
              13.772546
            ],
            [
              104.400267,
              13.77462
            ],
            [
              104.394137,
              13.780679
            ],
            [
              104.392235,
              13.78633
            ],
            [
              104.391737,
              13.794694
            ],
            [
              104.389372,
              13.797766
            ],
            [
              104.388301,
              13.802594
            ],
            [
              104.383709,
              13.809432
            ],
            [
              104.381647,
              13.809965
            ],
            [
              104.375047,
              13.808272
            ],
            [
              104.373377,
              13.809205
            ],
            [
              104.368181,
              13.807495
            ],
            [
              104.363546,
              13.807065
            ],
            [
              104.36115,
              13.807752
            ],
            [
              104.359704,
              13.80922
            ],
            [
              104.358,
              13.814402
            ],
            [
              104.359634,
              13.817328
            ],
            [
              104.365437,
              13.822563
            ],
            [
              104.367082,
              13.824994
            ],
            [
              104.368558,
              13.829229
            ],
            [
              104.367738,
              13.83602
            ],
            [
              104.368334,
              13.838451
            ],
            [
              104.370342,
              13.839346
            ],
            [
              104.376966,
              13.837249
            ],
            [
              104.378662,
              13.837883
            ],
            [
              104.381707,
              13.843683
            ],
            [
              104.382054,
              13.846156
            ],
            [
              104.381351,
              13.849228
            ],
            [
              104.382514,
              13.852167
            ],
            [
              104.389347,
              13.854014
            ],
            [
              104.390083,
              13.855964
            ],
            [
              104.389645,
              13.85766
            ],
            [
              104.390132,
              13.859664
            ],
            [
              104.396441,
              13.863964
            ],
            [
              104.39438,
              13.866052
            ],
            [
              104.389958,
              13.868299
            ],
            [
              104.389871,
              13.869035
            ],
            [
              104.391836,
              13.876862
            ],
            [
              104.397582,
              13.889756
            ],
            [
              104.40023,
              13.892737
            ],
            [
              104.415791,
              13.89018
            ],
            [
              104.417681,
              13.891659
            ],
            [
              104.418067,
              13.8929
            ],
            [
              104.416589,
              13.896371
            ],
            [
              104.407858,
              13.90317
            ],
            [
              104.406957,
              13.905076
            ],
            [
              104.407324,
              13.908274
            ],
            [
              104.408329,
              13.910334
            ],
            [
              104.410802,
              13.912677
            ],
            [
              104.421732,
              13.919896
            ],
            [
              104.426293,
              13.935933
            ],
            [
              104.425053,
              13.938776
            ],
            [
              104.42337,
              13.939155
            ],
            [
              104.420754,
              13.938431
            ],
            [
              104.419526,
              13.935977
            ],
            [
              104.417085,
              13.934665
            ],
            [
              104.415223,
              13.935116
            ],
            [
              104.414483,
              13.936742
            ],
            [
              104.414885,
              13.938827
            ],
            [
              104.41352,
              13.940708
            ],
            [
              104.413428,
              13.943473
            ],
            [
              104.408202,
              13.949702
            ],
            [
              104.407697,
              13.952273
            ],
            [
              104.404175,
              13.953819
            ],
            [
              104.401983,
              13.953925
            ],
            [
              104.392796,
              13.961608
            ],
            [
              104.3909,
              13.962438
            ],
            [
              104.386903,
              13.96115
            ],
            [
              104.384664,
              13.962028
            ],
            [
              104.380432,
              13.960486
            ],
            [
              104.37494,
              13.961249
            ],
            [
              104.369871,
              13.959904
            ],
            [
              104.367055,
              13.962027
            ],
            [
              104.359656,
              13.964819
            ],
            [
              104.355045,
              13.961469
            ],
            [
              104.351612,
              13.957494
            ],
            [
              104.349441,
              13.953679
            ],
            [
              104.34759,
              13.953404
            ],
            [
              104.34349,
              13.954593
            ],
            [
              104.33966,
              13.956692
            ],
            [
              104.333898,
              13.958124
            ],
            [
              104.318033,
              13.956563
            ],
            [
              104.311408,
              13.954859
            ],
            [
              104.308734,
              13.95592
            ],
            [
              104.304349,
              13.955346
            ],
            [
              104.297962,
              13.958298
            ],
            [
              104.29372,
              13.958829
            ],
            [
              104.291387,
              13.960351
            ],
            [
              104.28376,
              13.958348
            ],
            [
              104.281875,
              13.959051
            ],
            [
              104.280661,
              13.958579
            ],
            [
              104.275922,
              13.955791
            ],
            [
              104.273445,
              13.952621
            ],
            [
              104.272656,
              13.95246
            ],
            [
              104.267519,
              13.95699
            ],
            [
              104.264113,
              13.958213
            ],
            [
              104.261614,
              13.958167
            ],
            [
              104.253811,
              13.954561
            ],
            [
              104.250322,
              13.951414
            ],
            [
              104.245632,
              13.948889
            ],
            [
              104.24277,
              13.946348
            ],
            [
              104.242205,
              13.944785
            ],
            [
              104.239885,
              13.942417
            ],
            [
              104.227731,
              13.937262
            ],
            [
              104.226566,
              13.934377
            ],
            [
              104.224787,
              13.933308
            ],
            [
              104.221584,
              13.932949
            ],
            [
              104.21731,
              13.928155
            ],
            [
              104.21486,
              13.928085
            ],
            [
              104.209819,
              13.930817
            ],
            [
              104.199715,
              13.931616
            ],
            [
              104.195816,
              13.9325
            ],
            [
              104.191776,
              13.934497
            ],
            [
              104.187324,
              13.937114
            ],
            [
              104.185225,
              13.942664
            ],
            [
              104.177486,
              13.948588
            ],
            [
              104.174693,
              13.951586
            ],
            [
              104.167048,
              13.955028
            ],
            [
              104.158107,
              13.957412
            ],
            [
              104.153867,
              13.957604
            ],
            [
              104.147753,
              13.959599
            ],
            [
              104.133255,
              13.958404
            ],
            [
              104.12043,
              13.956312
            ],
            [
              104.110859,
              13.952826
            ],
            [
              104.110817,
              13.960003
            ],
            [
              104.112592,
              13.964534
            ],
            [
              104.112614,
              13.96759
            ],
            [
              103.69013,
              13.965732
            ],
            [
              103.686793,
              13.963521
            ],
            [
              103.68104,
              13.961104
            ],
            [
              103.672341,
              13.960235
            ],
            [
              103.672205,
              13.963757
            ],
            [
              103.671225,
              13.964521
            ],
            [
              103.669002,
              13.964334
            ],
            [
              103.667075,
              13.962844
            ],
            [
              103.66623,
              13.9633
            ],
            [
              103.666135,
              13.965881
            ],
            [
              103.665463,
              13.965938
            ],
            [
              103.663776,
              13.964154
            ],
            [
              103.661127,
              13.964121
            ],
            [
              103.660616,
              13.965007
            ],
            [
              103.663446,
              13.967328
            ],
            [
              103.66186,
              13.969619
            ],
            [
              103.659427,
              13.96874
            ],
            [
              103.657745,
              13.969228
            ],
            [
              103.655369,
              13.967157
            ],
            [
              103.652139,
              13.968559
            ],
            [
              103.651701,
              13.971858
            ],
            [
              103.647299,
              13.967261
            ],
            [
              103.645286,
              13.966585
            ],
            [
              103.648359,
              13.964134
            ],
            [
              103.648165,
              13.963202
            ],
            [
              103.645991,
              13.962281
            ],
            [
              103.64299,
              13.965937
            ],
            [
              103.641317,
              13.965966
            ],
            [
              103.64103,
              13.969312
            ],
            [
              103.640138,
              13.969802
            ],
            [
              103.637182,
              13.969121
            ],
            [
              103.636498,
              13.971727
            ],
            [
              103.635436,
              13.971777
            ],
            [
              103.632229,
              13.970115
            ],
            [
              103.631937,
              13.969353
            ],
            [
              103.633536,
              13.965754
            ],
            [
              103.631633,
              13.965469
            ],
            [
              103.63027,
              13.967178
            ],
            [
              103.625873,
              13.964888
            ],
            [
              103.626353,
              13.963783
            ],
            [
              103.630825,
              13.962758
            ],
            [
              103.629438,
              13.960714
            ],
            [
              103.623284,
              13.957866
            ],
            [
              103.622168,
              13.960866
            ],
            [
              103.619118,
              13.96273
            ],
            [
              103.618416,
              13.961204
            ],
            [
              103.619528,
              13.959696
            ],
            [
              103.619511,
              13.957504
            ],
            [
              103.621231,
              13.954962
            ],
            [
              103.620999,
              13.954178
            ],
            [
              103.619811,
              13.95348
            ],
            [
              103.618043,
              13.955424
            ],
            [
              103.61675,
              13.955253
            ],
            [
              103.616592,
              13.953047
            ],
            [
              103.61832,
              13.950734
            ],
            [
              103.616072,
              13.949411
            ],
            [
              103.61449,
              13.947076
            ],
            [
              103.612673,
              13.947884
            ],
            [
              103.610992,
              13.945881
            ],
            [
              103.60737,
              13.946851
            ],
            [
              103.605044,
              13.946537
            ],
            [
              103.604303,
              13.942151
            ],
            [
              103.592882,
              13.932693
            ],
            [
              103.594187,
              13.927489
            ],
            [
              103.593586,
              13.925461
            ],
            [
              103.591632,
              13.926105
            ],
            [
              103.590099,
              13.92907
            ],
            [
              103.58854,
              13.930013
            ],
            [
              103.585839,
              13.929657
            ],
            [
              103.583715,
              13.928026
            ],
            [
              103.582152,
              13.928481
            ],
            [
              103.578742,
              13.924485
            ],
            [
              103.578165,
              13.922019
            ],
            [
              103.580375,
              13.921013
            ],
            [
              103.58005,
              13.919504
            ],
            [
              103.575202,
              13.918708
            ],
            [
              103.574881,
              13.918256
            ],
            [
              103.576176,
              13.91643
            ],
            [
              103.574958,
              13.915445
            ],
            [
              103.571856,
              13.915071
            ],
            [
              103.569595,
              13.917556
            ],
            [
              103.568739,
              13.918
            ],
            [
              103.568184,
              13.917463
            ],
            [
              103.567608,
              13.91619
            ],
            [
              103.568089,
              13.913811
            ],
            [
              103.570568,
              13.90916
            ],
            [
              103.570536,
              13.908357
            ],
            [
              103.567805,
              13.90769
            ],
            [
              103.568935,
              13.905884
            ],
            [
              103.56816,
              13.904539
            ],
            [
              103.56708,
              13.90436
            ],
            [
              103.565047,
              13.908479
            ],
            [
              103.563655,
              13.908604
            ],
            [
              103.561213,
              13.906358
            ],
            [
              103.559667,
              13.907205
            ],
            [
              103.558793,
              13.906099
            ],
            [
              103.556161,
              13.908876
            ],
            [
              103.555634,
              13.90749
            ],
            [
              103.556399,
              13.9032
            ],
            [
              103.555353,
              13.90185
            ],
            [
              103.556301,
              13.89972
            ],
            [
              103.554112,
              13.90029
            ],
            [
              103.552952,
              13.905504
            ],
            [
              103.548672,
              13.905797
            ],
            [
              103.547849,
              13.901479
            ],
            [
              103.541214,
              13.901755
            ],
            [
              103.541527,
              13.899557
            ],
            [
              103.538788,
              13.899337
            ],
            [
              103.539379,
              13.897385
            ],
            [
              103.537995,
              13.894652
            ],
            [
              103.53661,
              13.897486
            ],
            [
              103.533524,
              13.898181
            ],
            [
              103.532958,
              13.899418
            ],
            [
              103.533453,
              13.903077
            ],
            [
              103.532233,
              13.904055
            ],
            [
              103.530529,
              13.903899
            ],
            [
              103.52925,
              13.901822
            ],
            [
              103.531027,
              13.89818
            ],
            [
              103.53006,
              13.897085
            ],
            [
              103.527028,
              13.896768
            ],
            [
              103.52366,
              13.898626
            ],
            [
              103.52201,
              13.898712
            ],
            [
              103.52215,
              13.896339
            ],
            [
              103.52,
              13.895463
            ],
            [
              103.516839,
              13.898197
            ],
            [
              103.516424,
              13.900807
            ],
            [
              103.509656,
              13.89946
            ],
            [
              103.510589,
              13.897502
            ],
            [
              103.51256,
              13.896057
            ],
            [
              103.510139,
              13.895199
            ],
            [
              103.508759,
              13.896541
            ],
            [
              103.50702,
              13.901205
            ],
            [
              103.506226,
              13.901465
            ],
            [
              103.504945,
              13.898907
            ],
            [
              103.502983,
              13.898103
            ],
            [
              103.501942,
              13.89835
            ],
            [
              103.500673,
              13.900048
            ],
            [
              103.498024,
              13.898808
            ],
            [
              103.49731,
              13.899221
            ],
            [
              103.497784,
              13.900881
            ],
            [
              103.497116,
              13.901318
            ],
            [
              103.494829,
              13.899745
            ],
            [
              103.489451,
              13.900917
            ],
            [
              103.489034,
              13.900347
            ],
            [
              103.490537,
              13.897568
            ],
            [
              103.488324,
              13.896155
            ],
            [
              103.487732,
              13.896449
            ],
            [
              103.488219,
              13.898731
            ],
            [
              103.487178,
              13.901113
            ],
            [
              103.486167,
              13.901275
            ],
            [
              103.485397,
              13.899817
            ],
            [
              103.48459,
              13.899835
            ],
            [
              103.481754,
              13.901517
            ],
            [
              103.478662,
              13.902286
            ],
            [
              103.477713,
              13.901345
            ],
            [
              103.477621,
              13.899656
            ],
            [
              103.478436,
              13.897084
            ],
            [
              103.475224,
              13.894146
            ],
            [
              103.474511,
              13.892265
            ],
            [
              103.472731,
              13.894168
            ],
            [
              103.471631,
              13.893698
            ],
            [
              103.470308,
              13.891056
            ],
            [
              103.468329,
              13.894507
            ],
            [
              103.467068,
              13.894785
            ],
            [
              103.46534,
              13.894659
            ],
            [
              103.465243,
              13.892582
            ],
            [
              103.461473,
              13.891539
            ],
            [
              103.458167,
              13.891825
            ],
            [
              103.455596,
              13.890116
            ],
            [
              103.456886,
              13.889228
            ],
            [
              103.457343,
              13.887876
            ],
            [
              103.45572,
              13.887201
            ],
            [
              103.455975,
              13.885046
            ],
            [
              103.454425,
              13.886614
            ],
            [
              103.454283,
              13.888419
            ],
            [
              103.450298,
              13.886876
            ],
            [
              103.451426,
              13.884875
            ],
            [
              103.449263,
              13.881972
            ],
            [
              103.448374,
              13.881872
            ],
            [
              103.447281,
              13.884671
            ],
            [
              103.443477,
              13.884838
            ],
            [
              103.442822,
              13.884236
            ],
            [
              103.443207,
              13.883622
            ],
            [
              103.445663,
              13.882464
            ],
            [
              103.445877,
              13.879676
            ],
            [
              103.442633,
              13.88012
            ],
            [
              103.441515,
              13.877081
            ],
            [
              103.43941,
              13.877471
            ],
            [
              103.437967,
              13.881354
            ],
            [
              103.436202,
              13.880479
            ],
            [
              103.434107,
              13.877582
            ],
            [
              103.429696,
              13.880633
            ],
            [
              103.42525,
              13.877354
            ],
            [
              103.424715,
              13.875873
            ],
            [
              103.426906,
              13.875719
            ],
            [
              103.428627,
              13.874653
            ],
            [
              103.428707,
              13.872508
            ],
            [
              103.431026,
              13.868481
            ],
            [
              103.43116,
              13.866543
            ],
            [
              103.430442,
              13.865721
            ],
            [
              103.427628,
              13.866709
            ],
            [
              103.427042,
              13.865996
            ],
            [
              103.427955,
              13.863759
            ],
            [
              103.426079,
              13.861392
            ],
            [
              103.428273,
              13.858623
            ],
            [
              103.427728,
              13.85733
            ],
            [
              103.426709,
              13.857176
            ],
            [
              103.424327,
              13.859898
            ],
            [
              103.42321,
              13.859927
            ],
            [
              103.421736,
              13.857967
            ],
            [
              103.421775,
              13.853146
            ],
            [
              103.422622,
              13.852427
            ],
            [
              103.42551,
              13.853744
            ],
            [
              103.425831,
              13.852536
            ],
            [
              103.422917,
              13.845334
            ],
            [
              103.422158,
              13.844557
            ],
            [
              103.419512,
              13.844559
            ],
            [
              103.418019,
              13.843633
            ],
            [
              103.421492,
              13.842539
            ],
            [
              103.423989,
              13.843974
            ],
            [
              103.425789,
              13.843235
            ],
            [
              103.425716,
              13.841678
            ],
            [
              103.424398,
              13.839824
            ],
            [
              103.426306,
              13.836636
            ],
            [
              103.426113,
              13.835937
            ],
            [
              103.422725,
              13.836424
            ],
            [
              103.421131,
              13.834564
            ],
            [
              103.421249,
              13.833785
            ],
            [
              103.424687,
              13.833581
            ],
            [
              103.425864,
              13.828901
            ],
            [
              103.42741,
              13.826175
            ],
            [
              103.425516,
              13.824514
            ],
            [
              103.427343,
              13.823694
            ],
            [
              103.432205,
              13.825395
            ],
            [
              103.432896,
              13.82454
            ],
            [
              103.431044,
              13.821919
            ],
            [
              103.429159,
              13.820733
            ],
            [
              103.430481,
              13.817431
            ],
            [
              103.435012,
              13.815955
            ],
            [
              103.439671,
              13.818805
            ],
            [
              103.440993,
              13.818469
            ],
            [
              103.441756,
              13.816965
            ],
            [
              103.440079,
              13.816303
            ],
            [
              103.439696,
              13.811529
            ],
            [
              103.435554,
              13.812207
            ],
            [
              103.434064,
              13.80968
            ],
            [
              103.434203,
              13.808224
            ],
            [
              103.432006,
              13.807469
            ],
            [
              103.429104,
              13.808196
            ],
            [
              103.429262,
              13.802565
            ],
            [
              103.431849,
              13.802642
            ],
            [
              103.434324,
              13.804095
            ],
            [
              103.435038,
              13.802864
            ],
            [
              103.434095,
              13.801353
            ],
            [
              103.432148,
              13.800481
            ],
            [
              103.427972,
              13.80077
            ],
            [
              103.424533,
              13.799659
            ],
            [
              103.422613,
              13.797635
            ],
            [
              103.420945,
              13.797516
            ],
            [
              103.423743,
              13.794929
            ],
            [
              103.424513,
              13.792379
            ],
            [
              103.425926,
              13.793416
            ],
            [
              103.425195,
              13.796241
            ],
            [
              103.425971,
              13.797866
            ],
            [
              103.427646,
              13.79756
            ],
            [
              103.428079,
              13.796117
            ],
            [
              103.42777,
              13.792394
            ],
            [
              103.425806,
              13.790469
            ],
            [
              103.422089,
              13.78963
            ],
            [
              103.421996,
              13.788891
            ],
            [
              103.424579,
              13.786522
            ],
            [
              103.425407,
              13.784796
            ],
            [
              103.425703,
              13.781305
            ],
            [
              103.424547,
              13.779365
            ],
            [
              103.424564,
              13.777769
            ],
            [
              103.421003,
              13.780085
            ],
            [
              103.419586,
              13.779567
            ],
            [
              103.423192,
              13.776005
            ],
            [
              103.422837,
              13.773948
            ],
            [
              103.42088,
              13.774273
            ],
            [
              103.4187,
              13.777364
            ],
            [
              103.415907,
              13.779085
            ],
            [
              103.415054,
              13.777682
            ],
            [
              103.415301,
              13.774881
            ],
            [
              103.414606,
              13.773904
            ],
            [
              103.413217,
              13.774424
            ],
            [
              103.412737,
              13.777723
            ],
            [
              103.411876,
              13.778658
            ],
            [
              103.409958,
              13.777056
            ],
            [
              103.409719,
              13.775685
            ],
            [
              103.411586,
              13.771624
            ],
            [
              103.413979,
              13.769677
            ],
            [
              103.415258,
              13.769233
            ],
            [
              103.418486,
              13.771167
            ],
            [
              103.42055,
              13.768207
            ],
            [
              103.421845,
              13.768777
            ],
            [
              103.423891,
              13.767034
            ],
            [
              103.423286,
              13.764909
            ],
            [
              103.424918,
              13.762069
            ],
            [
              103.423346,
              13.758189
            ],
            [
              103.425253,
              13.755387
            ],
            [
              103.424963,
              13.754839
            ],
            [
              103.422519,
              13.755437
            ],
            [
              103.42268,
              13.75491
            ],
            [
              103.424664,
              13.753592
            ],
            [
              103.431587,
              13.753901
            ],
            [
              103.428818,
              13.749035
            ],
            [
              103.425877,
              13.750985
            ],
            [
              103.424184,
              13.747893
            ],
            [
              103.422207,
              13.747162
            ],
            [
              103.42002,
              13.744171
            ],
            [
              103.420424,
              13.742873
            ],
            [
              103.421416,
              13.742481
            ],
            [
              103.423128,
              13.744818
            ],
            [
              103.424034,
              13.744809
            ],
            [
              103.424294,
              13.741062
            ],
            [
              103.421849,
              13.738439
            ],
            [
              103.419357,
              13.738353
            ],
            [
              103.418381,
              13.736725
            ],
            [
              103.41865,
              13.736026
            ],
            [
              103.421953,
              13.734576
            ],
            [
              103.427305,
              13.737154
            ],
            [
              103.430213,
              13.736351
            ],
            [
              103.427193,
              13.732674
            ],
            [
              103.424743,
              13.733314
            ],
            [
              103.422133,
              13.732371
            ],
            [
              103.421414,
              13.73095
            ],
            [
              103.421567,
              13.72835
            ],
            [
              103.424701,
              13.727573
            ],
            [
              103.427831,
              13.725799
            ],
            [
              103.428405,
              13.724512
            ],
            [
              103.425506,
              13.722854
            ],
            [
              103.421608,
              13.723754
            ],
            [
              103.420363,
              13.722941
            ],
            [
              103.419985,
              13.720954
            ],
            [
              103.423326,
              13.716511
            ],
            [
              103.421339,
              13.71314
            ],
            [
              103.420878,
              13.709755
            ],
            [
              103.422389,
              13.706907
            ],
            [
              103.42916,
              13.705222
            ],
            [
              103.429522,
              13.704016
            ],
            [
              103.428756,
              13.700781
            ],
            [
              103.43287,
              13.698362
            ],
            [
              103.43299,
              13.697653
            ],
            [
              103.431345,
              13.695922
            ],
            [
              103.431833,
              13.695385
            ],
            [
              103.437162,
              13.693826
            ],
            [
              103.439735,
              13.691301
            ],
            [
              103.437778,
              13.686825
            ],
            [
              103.434419,
              13.684421
            ],
            [
              103.431505,
              13.680684
            ],
            [
              103.430018,
              13.679695
            ],
            [
              103.426234,
              13.67959
            ],
            [
              103.424162,
              13.678821
            ],
            [
              103.421818,
              13.676384
            ],
            [
              103.420829,
              13.673655
            ],
            [
              103.41955,
              13.672934
            ],
            [
              103.415482,
              13.672116
            ],
            [
              103.41333,
              13.67253
            ],
            [
              103.412454,
              13.670957
            ],
            [
              103.413807,
              13.667806
            ],
            [
              103.412944,
              13.665689
            ],
            [
              103.410186,
              13.665761
            ],
            [
              103.407302,
              13.664678
            ],
            [
              103.405767,
              13.662157
            ],
            [
              103.40628,
              13.658425
            ],
            [
              103.40062,
              13.655929
            ],
            [
              103.399958,
              13.65482
            ],
            [
              103.401826,
              13.65109
            ],
            [
              103.397892,
              13.648334
            ],
            [
              103.396564,
              13.646622
            ],
            [
              103.396229,
              13.644808
            ],
            [
              103.39873,
              13.641726
            ],
            [
              103.403605,
              13.641763
            ],
            [
              103.404683,
              13.640112
            ],
            [
              103.404248,
              13.636277
            ],
            [
              103.408814,
              13.633792
            ],
            [
              103.405579,
              13.63155
            ],
            [
              103.401074,
              13.632499
            ],
            [
              103.399599,
              13.633611
            ],
            [
              103.397427,
              13.633271
            ],
            [
              103.395253,
              13.630706
            ],
            [
              103.396624,
              13.624269
            ],
            [
              103.39303,
              13.622897
            ],
            [
              103.390908,
              13.623076
            ],
            [
              103.389459,
              13.622061
            ],
            [
              103.389231,
              13.621495
            ]
          ]
        ]
      }
    }
  ]
}
