{
  "type": "FeatureCollection",
  "features": [
    {
      "type": "Feature",
      "properties": {
        "geo_id": "geo_ph_0049",
        "name": "Batangas / Taal",
        "component": "Taal Volcano Protected Landscape",
        "source_boundary_level": "protected_area",
        "stored_crs": "WGS84 / EPSG:4326",
        "reconstruction": "WGS84 geodesic reconstruction from Proclamation 923 start point, bearings and distances",
        "source_precision": "table-survey technical description; approximate"
      },
      "geometry": {
        "type": "Polygon",
        "coordinates": [
          [
            [
              121.05,
              14.15
            ],
            [
              121.129877,
              14.072016
            ],
            [
              121.162357,
              13.999073
            ],
            [
              121.126188,
              13.985158
            ],
            [
              121.101618,
              13.939058
            ],
            [
              121.049013,
              13.920349
            ],
            [
              121.044246,
              13.896394
            ],
            [
              121.017887,
              13.867284
            ],
            [
              121.004668,
              13.859827
            ],
            [
              120.961068,
              13.879686
            ],
            [
              120.903411,
              13.949219
            ],
            [
              120.904412,
              13.977221
            ],
            [
              120.857936,
              14.022593
            ],
            [
              120.846674,
              14.063626
            ],
            [
              121.05,
              14.15
            ]
          ]
        ]
      }
    },
    {
      "type": "Feature",
      "properties": {
        "geo_id": "geo_ph_0049",
        "name": "Batangas / Taal",
        "component": "Mabini / Anilao coastal sector",
        "source_psgc": "0401016000",
        "source_boundary_level": "Mun"
      },
      "geometry": {
        "type": "Polygon",
        "coordinates": [
          [
            [
              120.96272560800001,
              13.771160999000074
            ],
            [
              120.92685420700003,
              13.763825204000057
            ],
            [
              120.90820516300006,
              13.754794665000075
            ],
            [
              120.87245740100002,
              13.715929692000026
            ],
            [
              120.89578357900007,
              13.687742025000032
            ],
            [
              120.91719802600004,
              13.69969559800006
            ],
            [
              120.93132291500001,
              13.72898204000006
            ],
            [
              120.94473866900013,
              13.739210463000061
            ],
            [
              120.96272560800001,
              13.771160999000074
            ]
          ]
        ]
      }
    },
    {
      "type": "Feature",
      "properties": {
        "geo_id": "geo_ph_0049",
        "name": "Batangas / Taal",
        "component": "Tingloy island municipality",
        "source_psgc": "0401033000",
        "source_boundary_level": "Mun"
      },
      "geometry": {
        "type": "Polygon",
        "coordinates": [
          [
            [
              120.90499094200004,
              13.62441317400004
            ],
            [
              120.94251647100008,
              13.632079410000072
            ],
            [
              120.93402842000012,
              13.655373922000024
            ],
            [
              120.87876888800008,
              13.661857468000049
            ],
            [
              120.837636932,
              13.670927143000027
            ],
            [
              120.84260246900008,
              13.652000642000077
            ],
            [
              120.87259897000003,
              13.634657896000022
            ],
            [
              120.90499094200004,
              13.62441317400004
            ]
          ]
        ]
      }
    },
    {
      "type": "Feature",
      "properties": {
        "geo_id": "geo_ph_0049",
        "name": "Batangas / Taal",
        "component": "Verde Island component of Batangas City",
        "source_psgc": "0401005000",
        "source_boundary_level": "city-derived physical island",
        "extraction": "smaller offshore polygon from 2023 Batangas City multipolygon; mainland city polygon excluded"
      },
      "geometry": {
        "type": "Polygon",
        "coordinates": [
          [
            [
              121.07363878100013,
              13.531518463000054
            ],
            [
              121.09715144800009,
              13.536852737000059
            ],
            [
              121.08531609700003,
              13.57366520200003
            ],
            [
              121.05279495800005,
              13.555765870000071
            ],
            [
              121.07363878100013,
              13.531518463000054
            ]
          ]
        ]
      }
    }
  ]
}
