{
  "type": "FeatureCollection",
  "features": [
    {
      "type": "Feature",
      "properties": {
        "geo_id": "geo_bn_0016",
        "name": "Mukim Kianggeh",
        "boundary_level": "mukim",
        "osm_type": "relation",
        "osm_id": 8742065,
        "source_checked_at": "2026-10-01"
      },
      "geometry": {
        "type": "MultiPolygon",
        "coordinates": [
          [
            [
              [
                114.935351,
                4.893105
              ],
              [
                114.93659,
                4.89387
              ],
              [
                114.936874,
                4.89335
              ],
              [
                114.937636,
                4.893788
              ],
              [
                114.939111,
                4.893206
              ],
              [
                114.938687,
                4.890608
              ],
              [
                114.937767,
                4.888937
              ],
              [
                114.939074,
                4.888008
              ],
              [
                114.940664,
                4.885009
              ],
              [
                114.946883,
                4.885284
              ],
              [
                114.948332,
                4.88457
              ],
              [
                114.949083,
                4.883512
              ],
              [
                114.951613,
                4.884488
              ],
              [
                114.951351,
                4.885007
              ],
              [
                114.952622,
                4.885541
              ],
              [
                114.952413,
                4.887359
              ],
              [
                114.953357,
                4.888128
              ],
              [
                114.953244,
                4.889475
              ],
              [
                114.952327,
                4.889788
              ],
              [
                114.952488,
                4.892086
              ],
              [
                114.954977,
                4.893294
              ],
              [
                114.952853,
                4.896779
              ],
              [
                114.982896,
                4.929809
              ],
              [
                114.979903,
                4.930514
              ],
              [
                114.975082,
                4.932658
              ],
              [
                114.971777,
                4.929547
              ],
              [
                114.96799,
                4.927495
              ],
              [
                114.965157,
                4.926715
              ],
              [
                114.957312,
                4.925997
              ],
              [
                114.955262,
                4.924255
              ],
              [
                114.952182,
                4.917002
              ],
              [
                114.945959,
                4.918873
              ],
              [
                114.936797,
                4.923876
              ],
              [
                114.934469,
                4.91914
              ],
              [
                114.931904,
                4.916575
              ],
              [
                114.931455,
                4.915046
              ],
              [
                114.92888,
                4.915356
              ],
              [
                114.928151,
                4.913924
              ],
              [
                114.929502,
                4.912513
              ],
              [
                114.929856,
                4.909648
              ],
              [
                114.92697,
                4.90813
              ],
              [
                114.927427,
                4.905913
              ],
              [
                114.930596,
                4.900629
              ],
              [
                114.933134,
                4.898765
              ],
              [
                114.934379,
                4.896112
              ],
              [
                114.935351,
                4.893105
              ]
            ]
          ],
          [
            [
              [
                114.935351,
                4.893105
              ],
              [
                114.931792,
                4.889494
              ],
              [
                114.930054,
                4.891757
              ],
              [
                114.925633,
                4.888431
              ],
              [
                114.924066,
                4.88953
              ],
              [
                114.923105,
                4.888877
              ],
              [
                114.921748,
                4.889184
              ],
              [
                114.919648,
                4.887963
              ],
              [
                114.917909,
                4.885332
              ],
              [
                114.914248,
                4.883587
              ],
              [
                114.912592,
                4.880974
              ],
              [
                114.90978,
                4.880532
              ],
              [
                114.913652,
                4.869751
              ],
              [
                114.915455,
                4.869515
              ],
              [
                114.917257,
                4.866458
              ],
              [
                114.919382,
                4.864384
              ],
              [
                114.921112,
                4.863563
              ],
              [
                114.924138,
                4.865637
              ],
              [
                114.930633,
                4.875271
              ],
              [
                114.928846,
                4.876733
              ],
              [
                114.929847,
                4.878834
              ],
              [
                114.932443,
                4.881682
              ],
              [
                114.932239,
                4.882185
              ],
              [
                114.933237,
                4.882313
              ],
              [
                114.932928,
                4.883917
              ],
              [
                114.936221,
                4.886851
              ],
              [
                114.935042,
                4.888162
              ],
              [
                114.933718,
                4.888434
              ],
              [
                114.933937,
                4.888922
              ],
              [
                114.936253,
                4.889596
              ],
              [
                114.935887,
                4.891383
              ],
              [
                114.935351,
                4.893105
              ]
            ]
          ]
        ]
      }
    }
  ]
}
