{
  "type": "FeatureCollection",
  "features": [
    {
      "type": "Feature",
      "properties": {
        "geo_id": "geo_ph_0065",
        "name": "San Jose, Occidental Mindoro",
        "psgc": "1705110000",
        "boundary_level": "municipality",
        "source_name": "San Jose",
        "source_psgc": "1705110000"
      },
      "geometry": {
        "type": "MultiPolygon",
        "coordinates": [
          [
            [
              [
                121.26094981900009,
                12.686051228000055
              ],
              [
                121.19789160200003,
                12.687733387000037
              ],
              [
                121.1723757190001,
                12.63010824300005
              ],
              [
                121.13380365100011,
                12.570125368000047
              ],
              [
                121.10124501200004,
                12.504442024000069
              ],
              [
                121.06643974200007,
                12.492116615000041
              ],
              [
                120.99910248300012,
                12.434687592000046
              ],
              [
                120.97374214000003,
                12.432889836000074
              ],
              [
                121.00745252900003,
                12.411373962000026
              ],
              [
                121.04147170100009,
                12.35966507200004
              ],
              [
                121.06749464300003,
                12.339855598000039
              ],
              [
                121.08755456400003,
                12.33742644700004
              ],
              [
                121.11786880600005,
                12.319905807000051
              ],
              [
                121.15716490300008,
                12.315853465000034
              ],
              [
                121.16618118100008,
                12.363756884000052
              ],
              [
                121.1520676020001,
                12.39204450400007
              ],
              [
                121.18590385900006,
                12.470839243000057
              ],
              [
                121.1985701320001,
                12.482300755000038
              ],
              [
                121.23510219400008,
                12.488426217000038
              ],
              [
                121.23873678200006,
                12.522414437000066
              ],
              [
                121.24943248000011,
                12.545303128000057
              ],
              [
                121.26094981900009,
                12.686051228000055
              ]
            ]
          ],
          [
            [
              [
                121.11286514200005,
                12.159282842000037
              ],
              [
                121.13343681400012,
                12.170207184000049
              ],
              [
                121.07421544600005,
                12.297520782000047
              ],
              [
                121.04290208200007,
                12.289966467000058
              ],
              [
                121.03323711600002,
                12.243940328000061
              ],
              [
                121.03919181300012,
                12.223300557000073
              ],
              [
                121.08047013200007,
                12.206671990000075
              ],
              [
                121.09455348600012,
                12.172922188000028
              ],
              [
                121.11286514200005,
                12.159282842000037
              ]
            ]
          ],
          [
            [
              [
                121.0276966460001,
                12.18542067900006
              ],
              [
                121.02139019100002,
                12.229909659000041
              ],
              [
                121.00159230100007,
                12.219654459000026
              ],
              [
                121.00672925800008,
                12.201413520000076
              ],
              [
                121.0276966460001,
                12.18542067900006
              ]
            ]
          ]
        ]
      }
    }
  ]
}
