{
  "type": "FeatureCollection",
  "features": [
    {
      "type": "Feature",
      "properties": {
        "geo_id": "geo_ph_0032",
        "name": "Batangas",
        "psgc": "0401000000",
        "boundary_level": "province",
        "source_psgc": "0401000000"
      },
      "geometry": {
        "type": "MultiPolygon",
        "coordinates": [
          [
            [
              [
                121.08896686700008,
                13.569401490000072
              ],
              [
                121.08531609700003,
                13.57366520200003
              ],
              [
                121.05279495800005,
                13.555765870000071
              ],
              [
                121.07441782,
                13.52998965200004
              ],
              [
                121.09715144800009,
                13.536852737000059
              ],
              [
                121.08896686700008,
                13.569401490000072
              ]
            ]
          ],
          [
            [
              [
                120.83115867100003,
                13.68768679400006
              ],
              [
                120.84260246900008,
                13.652000642000077
              ],
              [
                120.866908093,
                13.645563303000072
              ],
              [
                120.87259897000003,
                13.63465789600002
              ],
              [
                120.90341105200002,
                13.624439212000024
              ],
              [
                120.94251647100008,
                13.632079410000072
              ],
              [
                120.93402842000012,
                13.655373922000022
              ],
              [
                120.90771382900006,
                13.659066702000077
              ],
              [
                120.88492621700003,
                13.654887412000047
              ],
              [
                120.84114106800008,
                13.672337123000036
              ],
              [
                120.83115867100003,
                13.68768679400006
              ]
            ]
          ],
          [
            [
              [
                120.618347222,
                14.220246020000047
              ],
              [
                120.610491066,
                14.227454464000063
              ],
              [
                120.58854213500001,
                14.21399773400003
              ],
              [
                120.59233886900007,
                14.20278900900007
              ],
              [
                120.58667654000011,
                14.17554861600007
              ],
              [
                120.59441020400006,
                14.154152346000048
              ],
              [
                120.58044213600012,
                14.131404079000049
              ],
              [
                120.59180190400002,
                14.122496121000038
              ],
              [
                120.61597123900003,
                14.118051798000065
              ],
              [
                120.62389206200011,
                14.107314115000067
              ],
              [
                120.61703780300003,
                14.089199754000049
              ],
              [
                120.62497698400011,
                14.063746114000024
              ],
              [
                120.61800068000002,
                14.00694984200004
              ],
              [
                120.63205137200009,
                13.984308782000028
              ],
              [
                120.61612142700005,
                13.960633223000059
              ],
              [
                120.62512483900004,
                13.895109801000045
              ],
              [
                120.61879275400008,
                13.889984386000036
              ],
              [
                120.61762334400008,
                13.86653645700005
              ],
              [
                120.62347730300009,
                13.84557276500004
              ],
              [
                120.62210515900006,
                13.811289915000033
              ],
              [
                120.6309584270001,
                13.807126398000035
              ],
              [
                120.65243798300004,
                13.772678713000063
              ],
              [
                120.66612869400002,
                13.771131907000038
              ],
              [
                120.67614737300003,
                13.78920608800007
              ],
              [
                120.65527408800006,
                13.831185435000068
              ],
              [
                120.6633547140001,
                13.859240321000073
              ],
              [
                120.68675044300005,
                13.854447920000041
              ],
              [
                120.71570147900003,
                13.840779309000027
              ],
              [
                120.72240332600006,
                13.858536730000028
              ],
              [
                120.69779847500001,
                13.89074235500004
              ],
              [
                120.6990727540001,
                13.90782664300002
              ],
              [
                120.70773336200011,
                13.921860339000036
              ],
              [
                120.72870784100007,
                13.927006150000066
              ],
              [
                120.74099969100006,
                13.936309202000075
              ],
              [
                120.77762407800004,
                13.926258922000045
              ],
              [
                120.78973798800007,
                13.928075128000046
              ],
              [
                120.84527486300011,
                13.909197840000047
              ],
              [
                120.8786935820001,
                13.901967501000058
              ],
              [
                120.90612944600002,
                13.884446042000036
              ],
              [
                120.913528927,
                13.87301818000003
              ],
              [
                120.91677597100012,
                13.847939838000054
              ],
              [
                120.91429866300007,
                13.827985269000067
              ],
              [
                120.9024432870001,
                13.820358266000028
              ],
              [
                120.92845353400004,
                13.779915285000072
              ],
              [
                120.92692030800005,
                13.759046026000021
              ],
              [
                120.90820516300006,
                13.754794665000075
              ],
              [
                120.87245740100002,
                13.715929692000028
              ],
              [
                120.89578357900007,
                13.687742025000032
              ],
              [
                120.91719802600004,
                13.69969559800006
              ],
              [
                120.93132291500001,
                13.72898204000006
              ],
              [
                120.94473866900013,
                13.739210463000061
              ],
              [
                120.96335771300005,
                13.771982123000043
              ],
              [
                120.97722865600008,
                13.781921372000054
              ],
              [
                121.01211689600007,
                13.77876764100006
              ],
              [
                121.03828505600006,
                13.762713785000072
              ],
              [
                121.06018979500003,
                13.725967155000033
              ],
              [
                121.06051419300003,
                13.707631827000053
              ],
              [
                121.04920710400006,
                13.683770772000058
              ],
              [
                121.0535826480001,
                13.670413241000064
              ],
              [
                121.04872595200004,
                13.653981593000028
              ],
              [
                121.03563406300009,
                13.635627308000037
              ],
              [
                121.07107900500013,
                13.629988397000032
              ],
              [
                121.07772076400012,
                13.61886630400005
              ],
              [
                121.11450737700011,
                13.63110322500006
              ],
              [
                121.17974804100004,
                13.645006775000068
              ],
              [
                121.20761426400009,
                13.626623613000051
              ],
              [
                121.2332565160001,
                13.627795713000069
              ],
              [
                121.25809414400011,
                13.59941892100005
              ],
              [
                121.2854872380001,
                13.596989127000029
              ],
              [
                121.29475417100004,
                13.601113575000054
              ],
              [
                121.32558172800007,
                13.633740160000059
              ],
              [
                121.36372918200004,
                13.658786066000062
              ],
              [
                121.39153220100002,
                13.671445562000027
              ],
              [
                121.40934611700006,
                13.667194375000063
              ],
              [
                121.41762738600004,
                13.655700285000021
              ],
              [
                121.46760841900004,
                13.682257206000028
              ],
              [
                121.45373840900004,
                13.701390606000075
              ],
              [
                121.4500890060001,
                13.72016628500006
              ],
              [
                121.44003323100003,
                13.732804085000053
              ],
              [
                121.43235808600002,
                13.760722162000036
              ],
              [
                121.43837150500008,
                13.79190248900005
              ],
              [
                121.45661691000011,
                13.810264001000064
              ],
              [
                121.45665641300002,
                13.818242209000058
              ],
              [
                121.41748513700009,
                13.84387438000004
              ],
              [
                121.40740856500008,
                13.83923178700007
              ],
              [
                121.37892195100007,
                13.850860930000065
              ],
              [
                121.36747200600007,
                13.869398101000057
              ],
              [
                121.34806799100011,
                13.862572201000033
              ],
              [
                121.332145878,
                13.869742202000053
              ],
              [
                121.30795183300008,
                13.867019690000062
              ],
              [
                121.27160968300007,
                13.878059858000029
              ],
              [
                121.26436672500006,
                13.890060691000029
              ],
              [
                121.23998049000011,
                13.905983693000051
              ],
              [
                121.23724036700003,
                13.934252107000079
              ],
              [
                121.24647366500005,
                13.963490883000073
              ],
              [
                121.24809656500008,
                13.984388119000071
              ],
              [
                121.22896824600004,
                14.002903136000045
              ],
              [
                121.21619239800008,
                14.026614681000067
              ],
              [
                121.20556391600009,
                14.109612395000054
              ],
              [
                121.19440848600004,
                14.131070861000065
              ],
              [
                121.09505203000003,
                14.156300173000032
              ],
              [
                121.03586636200009,
                14.151780380000046
              ],
              [
                121.02632882300009,
                14.13458585600006
              ],
              [
                121.00588658800005,
                14.121661488000026
              ],
              [
                120.9803753240001,
                14.12008944300004
              ],
              [
                120.96797163000008,
                14.098633049000055
              ],
              [
                120.93759739600013,
                14.08594336700003
              ],
              [
                120.90250537600002,
                14.076790614000062
              ],
              [
                120.89272050800002,
                14.087613034000073
              ],
              [
                120.8624147820001,
                14.07542182900005
              ],
              [
                120.84485636600004,
                14.07683931200006
              ],
              [
                120.83929156600004,
                14.088780735000057
              ],
              [
                120.82014925800003,
                14.100724957000066
              ],
              [
                120.79687725900011,
                14.103118018000034
              ],
              [
                120.76768094300007,
                14.11773682100005
              ],
              [
                120.76888523800005,
                14.133428447000027
              ],
              [
                120.7294194100001,
                14.14038455700006
              ],
              [
                120.71593295800005,
                14.126534449000077
              ],
              [
                120.69878430600009,
                14.138474807000025
              ],
              [
                120.69194031400002,
                14.16085890600004
              ],
              [
                120.70565717500004,
                14.174333526000055
              ],
              [
                120.66230859400002,
                14.18609027100007
              ],
              [
                120.65039621500011,
                14.204818189000035
              ],
              [
                120.618347222,
                14.220246020000047
              ]
            ]
          ]
        ]
      }
    }
  ]
}
